County,City,Town,Address,Store_Name,Store_Type,Latitude,Longitude
서울특별시,강동구,둔촌동,"174-1 B102,B103호",(주)이마트에브리데이 둔촌점,구분없음,37.5215261,127.1368255
서울특별시,강동구,둔촌동,170-1,GS THE FRESH 둔촌포레온점,구분없음,37.5269345,127.1387574
서울특별시,강동구,둔촌동,170-1,하나로마트 둔촌점,구분없음,37.5269345,127.1387574
서울특별시,용산구,용산동6가,69-167 신동아쇼핑,신동아쇼핑센터,쇼핑센터,37.5172474,126.9852079
경상남도,김해시,신문동,506-4,롯데슈퍼 김해신문점,구분없음,35.1955769,128.8150481
경상남도,밀양시,삼문동,720-24,노브랜드 밀양삼문점,대형마트,35.4817623,128.7495707
대구광역시,수성구,신매동,566-3 시지 코오롱하늘채 스카이뷰,롯데슈퍼 대구신매 가맹점,구분없음,35.8395547,128.7040283
인천광역시,부평구,부평동,665-2 부평역해링턴플레이스,GS THE FRESH 부평해링턴점,구분없음,37.4837303,126.7227194
서울특별시,강동구,둔촌동,451-1,롯데슈퍼 강동둔촌점,구분없음,37.5314035,127.1422520
서울특별시,동대문구,이문동,257-42 래미안라그란데아파트 F동 101~4호,GS THE FRESH 이문라그란데점,구분없음,37.6000780,127.0602571
서울특별시,양천구,목동,547-12,GS THE FRESH 양천목2동점,구분없음,37.5442205,126.8701813
서울특별시,성북구,보문동2가,79 신한은행보문동지점,GS THE FRESH 보문역사거리점,그 밖의 대규모점포,37.5858692,127.0185979
경상남도,김해시,삼정동,941 메가마트 김해점,메가마트 김해점,대형마트,35.2264060,128.9008004
부산광역시,동래구,명륜동,185,GS THE FRESH 부산명륜점,구분없음,35.2104956,129.0834660
대구광역시,수성구,노변동,452-2,GS THE FRSH(대구노변점),구분없음,35.8346072,128.6983897
대구광역시,수성구,노변동,452-2,GS THE FRESH(대구노변점),구분없음,35.8346072,128.6983897
부산광역시,동래구,온천동,47-5,GS THE FRESH 온천래미안점,구분없음,35.2223853,129.0809779
경상남도,창원시,의창구,명서동 27 두산위브아파트,GS THE FRESH 창원명서점,그 밖의 대규모점포,35.2527858,128.6444890
충청남도,천안시,동남구,다가동 30 천안극동스타클래스 더퍼스트,GS THR FRESH 천안극동점,구분없음,36.7923538,127.1488819
서울특별시,강동구,고덕동,353-23,고덕비즈밸리 유통판매 복합시설,복합쇼핑몰,37.5662884,127.1575343
서울특별시,서대문구,홍제동,474 홍제역해링턴플레이스,GS THE FRESH 홍제해링턴점,구분없음,37.5897191,126.9474736
서울특별시,강동구,성내동,293-12 바로빌딩,GS THE FRESH 강동성내점,구분없음,37.5315668,127.1255408
세종특별자치시,대평동,668,해들마을 6단지 상가동,GS THE FRESH 세종리버파크점,구분없음,36.4749987,127.2784528
서울특별시,용산구,한강로2가,15-2 나진상가,"나진상가 17,18동",전문점,37.5338904,126.9654128
서울특별시,강서구,마곡동,특별계획구역 CP1,LEWEST A관,그 밖의 대규모점포,37.5738,126.8304
서울특별시,강서구,마곡동,"특별계획구역 CP2, CP3-1, CP3-2",LEWEST B관,그 밖의 대규모점포,37.5738,126.8304
서울특별시,노원구,상계동,453-2 1층,GS THE FRESH 노원비석로점,구분없음,37.6640351,127.0678562
서울특별시,영등포구,신길동,3608 비스타동원,(주)이마트에브리데이 신풍역점,구분없음,37.4996054,126.9092333
부산광역시,수영구,남천동,258-4 남천오피스,GS THE FRESH 부산남천역점,구분없음,35.1404456,129.1068350
인천광역시,미추홀구,학익동,595-28,스타오씨엘 에비뉴Ⅱ,그 밖의 대규모점포,37.4400841,126.6515514
경기도,평택시,가재동,345-8,송탄농협 종합타운 하나로마트,대형마트,37.0499667,127.0821937
경상남도,창원시,성산구,대원동 36-5,GS THE FRESH 창원대원점,그 밖의 대규모점포,35.2344418,128.6517655
부산광역시,동래구,온천동,1248-4 월드메디컬타워,GS THE FRESH 부산미남역점,구분없음,35.2055476,129.0673050
부산광역시,동래구,온천동,1248-4 월드메디컬타워,GS THE FRESH 부산미남역점,구분없음,35.2055476,129.0673050
경상남도,김해시,율하동,1333-4,GS THE FRESH 김해율하점,구분없음,35.1729420,128.8144289
강원특별자치도,양양군,강현면,전진리 7-1 강현농협낙산지점,강현농협 하나로마트 낙산점,구분없음,38.1195212,128.6301817
경기도,의정부시,의정부동,724 의정부역센트럴자이&위브캐슬,GS THE FRESH 의정부센트럴점,구분없음,37.7317211,127.0515955
서울특별시,송파구,문정동,55-6 문정역 마에스트로,GS THE FRESH 문정역점,구분없음,37.4863730,127.1230852
경상북도,구미시,고아읍,원호리 223-3,Market Ville,대형마트,36.1572008,128.3333918
부산광역시,연제구,연산동,1290-4,GS THE FRESH 부산연산점,구분없음,35.1860162,129.0767056
서울특별시,강남구,청담동,109-16 청담범신칼릭스빌2차,GS THE FRESH 청담점,대형마트,37.5267401,127.0517695
서울특별시,서대문구,남가좌동,396 DMC금호리첸시아,DMC금호리첸시아몰,그 밖의 대규모점포,37.5707722,126.9158722
서울특별시,관악구,신림동,240-3,GS THE FRESH 관악신림점,구분없음,37.4702372,126.9386007
경기도,안산시,단원구,고잔동 533,현대타워랜드,그 밖의 대규모점포,37.3187916,126.8337762
서울특별시,도봉구,창동,297-16,GS THE FRESH 창동점,구분없음,37.6536634,127.0414722
서울특별시,광진구,능동,234-1,GS THE FRESH 광진능동점,구분없음,37.5549228,127.0812509
경기도,김포시,구래동,6874-23,GS THE FRESH 김포구래점,구분없음,37.6506000,126.6329432
인천광역시,미추홀구,주안동,1545-2,GS THE FRESH 인천석바위점,구분없음,37.4567099,126.6917449
부산광역시,부산진구,당감동,480-12 무궁화아파트,GS THE FRESH 부산당감점,구분없음,35.1627293,129.0358397
인천광역시,서구,청라동,165-12 지젤엠청라,주식회사 청라지젤엠,그 밖의 대규모점포,37.5336949,126.6557155
부산광역시,부산진구,양정동,386-5,GS THE FRESH 부산양정역점,구분없음,35.1737739,129.0689987
경상남도,진주시,호탄동,740 외 26필지,몰 오브 진주,복합쇼핑몰,35.1600539,128.1129579
경기도,안양시,동안구,비산동 281-1 1단지상가 122호,롯데슈퍼 평촌엘프가맹점,구분없음,37.4075143,126.9437458
부산광역시,북구,구포동,1091,GS THE FRESH 부산구남점,그 밖의 대규모점포,35.1963224,128.9942286
서울특별시,강동구,천호동,423-200,강동밀레니얼 중흥S-클래스 쇼핑센터,쇼핑센터,37.5414447,127.1269881
경기도,광명시,광명3동,150번지 19호 광명크로앙스 지하 2층,(주)이마트에브리데이 광명점,구분없음,37.4788826,126.8575139
충청북도,청주시,흥덕구,가경동 1416 고속버스터미널,청주센트럴시티,쇼핑센터,36.6269791,127.4306589
전북특별자치도,김제시,용지면,부교리 57-22 모다아울렛,모다아울렛,대형마트,35.8171409,126.9932696
경기도,용인시,기흥구,중동 31-5,링크맘,전문점,37.2577579,127.1599724
경상남도,창원시,마산합포구,산호동 10-3 신세계백화점,(주)신세계 마산점,백화점,35.2196117,128.5863598
서울특별시,은평구,신사동,228-5,GS THE FRESH 은평가좌점,구분없음,37.5964706,126.9084637
경상남도,창원시,진해구,남문동 1275-1 리젠시빌란트더웰 상가동,GS THE FRESH 진해남문점,그 밖의 대규모점포,35.1057161,128.7572167
서울특별시,금천구,시흥동,992-47 홈플러스테스테스코(주)시흥점,홈플러스 주식회사,대형마트,37.4519108,126.9008033
부산광역시,기장군,장안읍,좌천리 545 부산프리미엄아울렛,노브랜드 부산아울렛점,구분없음,35.3226836,129.2354910
경상남도,창원시,마산합포구,중앙동3가 4-1 이마트,이마트 마산점,대형마트,35.1978635,128.5697433
경상남도,창원시,성산구,중앙동 91 창원이마트,이마트 창원점,대형마트,35.2263759,128.6799532
경상남도,진주시,정촌면,"예하리 1279-1 2, 9, 10",진주남부농협 하나로마트,그 밖의 대규모점포,35.1303179,128.1002841
서울특별시,송파구,방이동,103-15,GS THE FRESH 송파나루역점,구분없음,37.5125357,127.1121126
충청북도,제천시,강제동,684 제천E-MART,이마트,대형마트,37.1234589,128.2229366
부산광역시,해운대구,중동,1829 엘시티,GS THE FRESH 해운대엘시티점,구분없음,35.1605627,129.1688078
인천광역시,계양구,작전동,0 힐스테이트자이계양,GS THE FRESH 인천작전역점,구분없음,37.530797,126.729707
대구광역시,동구,신암동,139-75 근린생활시설 301동 101~5호,GS THE FRESH 대구파크드림점,대형마트,35.8871326,128.6267696
부산광역시,연제구,연산동,1597-4,GS THE FRESH 부산시청점,구분없음,35.1801726,129.0792800
경상남도,창원시,성산구,대방동 355 성원3차아파트상가,성원3차종합상가,그 밖의 대규모점포,35.2148396,128.7068887
대구광역시,수성구,범어동,2291 수성 범어W,GS THE FRESH 대구범어역점,구분없음,35.8578057,128.6279777
경상남도,김해시,무계동,77,장유여객터미널 상업시설,그 밖의 대규모점포,35.2005040,128.8195499
강원특별자치도,원주시,단계동,877-1,더블유시티,쇼핑센터,37.3448535,127.9309608
전북특별자치도,김제시,검산동,838,홈플러스(주) 김제점,대형마트,35.7996959,126.9028556
인천광역시,남동구,구월동,1549,노브랜드 트레이더스 구월점,구분없음,37.4397355,126.7078296
인천광역시,남동구,구월동,69-7,GS TEH FRESH 구월용천로점,구분없음,37.4593067,126.7145318
경상남도,창원시,의창구,팔용동 30-3 삼성홈플러스,홈플러스 창원점,대형마트,35.2341320,128.6436922
경상남도,창원시,진해구,이동 536-10 홈플러스진해점,홈플러스 진해점,대형마트,35.1532041,128.6911398
경상남도,창원시,마산회원구,양덕동 151-1 삼성홈플러스,홈플러스 마산점,대형마트,35.2226660,128.5857543
인천광역시,미추홀구,숭의동,180-6,홈플러스 인천 숭의점,대형마트,37.4661051,126.6431780
인천광역시,미추홀구,학익동,720-16 홈플러스,홈플러스 (주) 인하점,대형마트,37.4477138,126.6507635
대전광역시,유성구,용계동,667-4 힐스테이트 도안 2차,힐스에비뉴 도안2차,그 밖의 대규모점포,36.3316638,127.3338786
인천광역시,미추홀구,주안동,0 포레나 미추홀,아인애비뉴 메디&라이프 복합몰,그 밖의 대규모점포,37.463776,126.676525
인천광역시,미추홀구,주안동,0 포레나 미추홀,아인애비뉴 메디&라이프 복합몰,그 밖의 대규모점포,37.463776,126.676525
서울특별시,중랑구,신내동,502-5 대명프라자,GS THE FRESH 신내점,그 밖의 대규모점포,37.6017648,127.0968493
서울특별시,강북구,미아동,"7-5 대지쇼핑프라자 1층 101~104호, 106호~122호",GS THE FRESH 북서울숲점,구분없음,37.6136288,127.0348745
대구광역시,동구,신천동,353-1 301동 113~117호,GS THE FRESH 대구화랑로점,대형마트,35.8694556,128.6310553
부산광역시,동래구,안락동,471-99,GS THE FRESH 동래 안락점,구분없음,35.2001237,129.1128238
서울특별시,서대문구,대현동,144 신촌럭키아파트 상가동 101호,GS THE FRESH 신촌이대역점,그 밖의 대규모점포,37.5595237,126.9479636
서울특별시,서대문구,대현동,144 신촌럭키아파트 상가동 101호,GS THE FRESH 신촌이대역점,그 밖의 대규모점포,37.5595237,126.9479636
서울특별시,관악구,봉천동,952-1,GS THE FRESH 관악은천점,구분없음,37.4866674,126.9392160
인천광역시,미추홀구,용현동,0 자이타워,GS THE FRESH 용현자이점,구분없음,37.4508653,126.6470628
인천광역시,미추홀구,용현동,0 자이타워,GS THE FRESH 용현자이점,구분없음,37.4508653,126.6470628
인천광역시,미추홀구,용현동,0 미추홀프라자,GS THE FRESH 인천용현점,구분없음,37.4508653,126.6470628
인천광역시,미추홀구,용현동,0 미추홀프라자,GS THE FRESH 인천용현점,구분없음,37.4508653,126.6470628
인천광역시,미추홀구,용현동,0 자이타워,GS THE FRESH 용현자이점,구분없음,37.4508653,126.6470628
인천광역시,미추홀구,용현동,0 자이타워,GS THE FRESH 용현자이점,구분없음,37.4508653,126.6470628
인천광역시,미추홀구,용현동,0 미추홀프라자,GS THE FRESH 인천용현점,구분없음,37.4508653,126.6470628
인천광역시,미추홀구,용현동,0 미추홀프라자,GS THE FRESH 인천용현점,구분없음,37.4508653,126.6470628
경기도,고양시,덕양구,행신동 616-1 양일빌딩,GS THE FRESH 행신사거리점,구분없음,37.6194596,126.8320224
대구광역시,중구,수창동,178 대구역 제일풍경채 위너스카이,GS THE FRESH 대구역풍경채점,구분없음,35.8750219,128.5860806
서울특별시,강서구,마곡동,769,원그로브몰,쇼핑센터,37.5612869,126.8247965
부산광역시,연제구,거제동,802,GS THE FRESH 부산레이카운티점,구분없음,35.1875417,129.0674158
서울특별시,광진구,자양동,680-63 판매시설,자양1재정비촉진구역 도시정비형 재개발사업 판매시설,쇼핑센터,37.5354016,127.0887130
서울특별시,노원구,상계동,95-3,GS THE FRESH 노원캐슬점,구분없음,37.6649594,127.0778609
서울특별시,금천구,가산동,60-26,가산퍼블릭 상업시설,그 밖의 대규모점포,37.4758932,126.8868607
서울특별시,강서구,염창동,242-11 한희빌딩,GS THE FRESH 강서증미역점,구분없음,37.5550314,126.8676685
경기도,평택시,장당동,153-1,평택고덕2차아이파크,쇼핑센터,37.0364114,127.0689438
경상남도,하동군,화개면,탑리 763-2,롯데슈퍼 화개장터 가맹점,그 밖의 대규모점포,35.1870474,127.6251684
부산광역시,해운대구,좌동,1412 동부아파트,GS THE FRESH 해운대동부점,구분없음,35.1780790,129.1778243
인천광역시,미추홀구,주안동,0 포레나 미추홀,아인애비뉴 메디&라이프 복합몰,그 밖의 대규모점포,37.463776,126.676525
인천광역시,미추홀구,주안동,0 포레나 미추홀,아인애비뉴 메디&라이프 복합몰,그 밖의 대규모점포,37.463776,126.676525
부산광역시,수영구,광안동,145-3 대왕빌딩,GS THE FRESH 광안역점,구분없음,35.1577231,129.1141642
경기도,평택시,고덕동,1956-1,GS THE FRESH 평택고덕점,구분없음,37.0504202,127.0476472
서울특별시,송파구,석촌동,5-8,GS THE FRESH 송파석촌호수점,구분없음,37.5050856,127.0986161
경기도,구리시,인창동,430 구리유통종합상가,시민마트,대형마트,37.6126800,127.1408598
경기도,수원시,장안구,"정자동 111-10 외 3필지, 지하2층",노브랜드 스타필드수원점,구분없음,37.2872291,126.9919195
부산광역시,동구,좌천동,68-164,GS THE FRESH 부산하버시티점,구분없음,35.1325073,129.0567293
부산광역시,부산진구,당감동,109-4 금호그랜드타운,GS THE FRESH 부산가야점,구분없음,35.1563564,129.0416226
경기도,성남시,분당구,이매동 115-2 이수프라자,GS THE FRESH 분당이매역점,그 밖의 대규모점포,37.3950337,127.1258230
서울특별시,동작구,상도동,535 상도2차두산위브트레지움아파트,GS THE FRESH 동작구청점,구분없음,37.5038796,126.9427844
경기도,수원시,장안구,정자동 111-10 외 3필지,스타필드 수원,복합쇼핑몰,37.2872291,126.9919195
인천광역시,중구,운서동,2955,인스파이어 인티그레이티드 리조트,쇼핑센터,37.4685015,126.3755738
인천광역시,미추홀구,주안동,1452-2 힐스테이트 푸르지오 주안,GS THE FRESH 인천주안점,구분없음,37.4531260,126.6786486
경상남도,창원시,의창구,중동 792,스타필드 창원,복합쇼핑몰,35.2544613,128.6231489
경기도,부천시,소사구,범박동 210-1 보광빌딩,GS THE FRESH 부천범박점,구분없음,37.4731226,126.8126717
서울특별시,성동구,성수동1가,656-1208 성수만세주유소,GS THE FRESG 서울숲점,구분없음,37.5475402,127.0442336
강원특별자치도,양양군,강현면,물치리 126-11,강현농협 하나로마트,그 밖의 대규모점포,38.1537954,128.6059745
서울특별시,강서구,화곡동,370-76,화곡 더리브스카이,그 밖의 대규모점포,37.5354196,126.8395116
서울특별시,영등포구,당산동2가,165 한화포레나당산,(주)이마트에브리데이 영등포구청점,구분없음,37.5223451,126.8953063
경상남도,김해시,신문동,1283-3,GS THE FRESH 장유신문점,구분없음,35.1935589,128.8116239
충청북도,청주시,흥덕구,복대동 3381,롯데프레시 청주지웰가맹점,구분없음,36.6430293,127.4291833
서울특별시,성동구,상왕십리동,811 텐즈힐,GS THE FRESH 성동텐즈힐점,구분없음,37.5693767,127.0247058
부산광역시,동래구,온천동,147-6 더샵 온천헤리티지,더샵 온천헤리티지스퀘어,그 밖의 대규모점포,35.2222320,129.0825630
경기도,광명시,소하1동,1339번지 3호,(주) 이마트 광명소하점,대형마트,37.4479189,126.8840331
인천광역시,서구,가정동,0 루원시티2차 SK Leaders' VIEW,GS THE FRESH 루원리더스뷰점,그 밖의 대규모점포,37.5212975,126.6760465
충청남도,천안시,서북구,쌍용동 1367,대하식자재마트 천안점,대형마트,36.8001727,127.1167572
서울특별시,성동구,하왕십리동,1070 센트라스,GS THE FRESH 성동센트라스점,구분없음,37.5661143,127.0276256
인천광역시,남동구,구월동,1549,(주)이마트 트레이더스 구월점,대형마트,37.4397355,126.7078296
부산광역시,사하구,괴정동,879,GS THE FRESH 사하괴정점,구분없음,35.0978955,128.9922205
서울특별시,영등포구,문래동6가,33,GS THE FRESH 문래점,구분없음,37.5213559,126.8857054
경상남도,합천군,합천읍,합천리 698,롯데슈퍼(주) 롯데슈퍼 합천점,그 밖의 대규모점포,35.5639006,128.1604809
울산광역시,동구,전하동,302-74 우주빌딩,GS THE FRESH 울산전하점,구분없음,35.5164922,129.4267268
경기도,수원시,장안구,조원동 881 수원 한일타운,GS THE FRESH 수원한일타운점,구분없음,37.3055214,127.0084292
경상북도,안동시,용상동,1517-155,GS THE FRESH 안동강변점,그 밖의 대규모점포,36.5557296,128.7512389
경기도,수원시,팔달구,인계동 865-10 인계 파밀리에,GS THE FRESH 수원센트럴점,구분없음,37.2704280,127.0226845
인천광역시,미추홀구,용현동,92-17,롯데쇼핑(주)롯데슈퍼 인하대점,그 밖의 대규모점포,37.4505064,126.6601625
서울특별시,성북구,길음동,1286-10 길음뉴타운9단지래미안 상가,이마트에브리데이 길음점,구분없음,37.6043083,127.0224484
서울특별시,성북구,길음동,1286-10 길음뉴타운9단지래미안 상가,이마트에브리데이 길음점,그 밖의 대규모점포,37.6043083,127.0224484
경기도,용인시,수지구,상현동 166-8,느티나무마트,대형마트,37.3059837,127.0742788
전북특별자치도,전주시,덕진구,송천동2가 1313 포레나 전주 에코시티,포레나 전주 에코시티 판매시설,그 밖의 대규모점포,35.8749108,127.1288354
서울특별시,중랑구,망우동,580 중랑숲금호어울림,GS THE FRESH 중랑망우점,그 밖의 대규모점포,37.6022238,127.1092844
경기도,시흥시,정왕동,2684 아쿠아펫랜드,아쿠아펫랜드,그 밖의 대규모점포,37.3298913,126.6789081
경기도,고양시,덕양구,성사동 726,(주)이마트에브리데이 신원당점,구분없음,37.6536637,126.8357907
경기도,평택시,고덕동,2618-3 힐스테이트고덕센트럴,브리티시 고덕,그 밖의 대규모점포,37.0440120,127.0424994
서울특별시,동대문구,장안동,310-8 희헌빌딩,GS THE FRESH 동대문장안점,구분없음,37.5750533,127.0726073
서울특별시,동대문구,장안동,310-8 희헌빌딩,GS THE FRESH 동대문장안점,구분없음,37.5750533,127.0726073
강원특별자치도,춘천시,온의동,593,GS THE FRESH 춘천온의점,구분없음,37.8681249,127.7080144
인천광역시,미추홀구,학익동,580-1,스타오씨엘 에비뉴I,그 밖의 대규모점포,37.4412447,126.6518862
서울특별시,송파구,문정동,618 파크하비오,GS THE FRESH 송파하비오점,구분없음,37.4806169,127.1236753
경기도,수원시,팔달구,매교동 209-14,GS THE FRESH 수원매교역점,구분없음,37.2693740,127.0183727
서울특별시,송파구,거여동,202-180 송파시그니처롯데캐슬,GS THE FRESH 송파시그니처점,구분없음,37.4954721,127.1494949
서울특별시,강서구,등촌동,73-1 금부빌딩,(주)이마트에브리데이 가양역점,구분없음,37.5616187,126.8532543
인천광역시,서구,청라동,12-2 (투자유치용지 5-1블록),코스트코 홀세일 청라점,대형마트,37.5396281,126.6168012
경기도,화성시,봉담읍,상리 691,이지바이 봉담,대형마트,37.2244381,126.9452148
경기도,남양주시,다산동,6056,다산역 데시앙 상업시설,그 밖의 대규모점포,37.6254367,127.1533391
부산광역시,서구,암남동,123-15 송도힐스테이트이진베이시티아파트,GS THE FRESH 부산송도점,그 밖의 대규모점포,35.0781289,129.0236180
부산광역시,서구,암남동,123-15 송도힐스테이트이진베이시티아파트,GS THE FRESH 부산송도점,그 밖의 대규모점포,35.0781289,129.0236180
서울특별시,영등포구,당산동2가,165 한화포레나당산,포레나당산동역세권청년주택 상업시설,그 밖의 대규모점포,37.5223451,126.8953063
부산광역시,동래구,온천동,1853 동래 래미안 아이파크,GS THE FRESH 동래래미안점,구분없음,35.2128341,129.0695532
부산광역시,동래구,온천동,453-9,GS THE FRESH 부산 온천점,구분없음,35.2159761,129.0806473
세종특별자치시,대평동,704,해들마을4단지,GS THE FRESH 세종해들마을점,구분없음,36.4718201,127.2825125
충청북도,음성군,금왕읍,무극리 124-2,롯데프레시 음성금왕점,그 밖의 대규모점포,36.9946326,127.5978010
경기도,군포시,산본동,1099-2 대림프라자 111호,GS THE FRESH 산본프라자점,구분없음,37.3652655,126.9296396
서울특별시,양천구,신정동,86-1,홈플러스 익스프레스 오목교점,구분없음,37.5229294,126.8714210
서울특별시,강남구,신사동,638-6,GS THE FRESH 압구정점,구분없음,37.5287592,127.0355310
강원특별자치도,춘천시,온의동,575 춘천 센트럴타워 푸르지오,춘천 센트럴타워 푸르지오 프리미엄몰,그 밖의 대규모점포,37.8689856,127.7207297
울산광역시,남구,야음동,878 롯데캐슬1단지아파트,GS THE FRESH 울산야음점,구분없음,35.5221602,129.3168199
울산광역시,남구,야음동,"878 롯데캐슬골드 중앙상가동 B101, B102호",GS THE FRESH 울산남부점,구분없음,35.5221602,129.3168199
서울특별시,서대문구,남가좌동,286-1 DMC금호리첸시아,이마트에브리데이 남가좌점,구분없음,37.5715684,126.9156987
경기도,고양시,일산서구,덕이동 373-21,(주)이마트에브리데이 고양덕이점,구분없음,37.6997952,126.7563345
서울특별시,용산구,이촌동,302-52 LG프라자,GS THE FRESH 용산이촌점,구분없음,37.5209758,126.9693516
대구광역시,달서구,월성동,682 월성 삼정그린코아 에듀파크,GS THE FRESH 월성삼정점,구분없음,35.8303290,128.5242862
전라남도,무안군,일로읍,오룡리 97,(주)이마트에브리데이 무안오룡점,구분없음,34.8050551,126.4839920
서울특별시,동작구,노량진동,16-1 노량진 드림스퀘어 복합빌딩,노량진 드림스퀘어,그 밖의 대규모점포,37.5143356,126.9394019
경기도,수원시,팔달구,매산로3가 108-78,GS THE FRESH 수원팔달점,구분없음,37.2659619,127.0082174
서울특별시,광진구,구의동,236-53 광진 더프레236,GS THE FRESH 광진구의점,구분없음,37.5426093,127.0845400
경상북도,김천시,부곡동,874-12,김천농협 로컬푸드복합문화센터,그 밖의 대규모점포,36.1259681,128.0931470
서울특별시,동대문구,용두동,39-1 청량리역한양수자인그라시엘,청량리역 한양수자인 그라시엘 판매시설,그 밖의 대규모점포,37.5773150,127.0430027
경상남도,사천시,정동면,고읍리 438-5 서원유통(주)탑마트사천점,(주)서원유통 탑마트 사천점,그 밖의 대규모점포,35.0793956,128.0869530
부산광역시,남구,대연동,52-8 1층,GS THE FRESH 부산대연점,그 밖의 대규모점포,35.1364680,129.1022490
서울특별시,용산구,한강로3가,1-1 나진상가,나진전자월드상가,전문점,37.5336217,126.9634186
서울특별시,종로구,무악동,82 무악현대아파트,GS THE FRESH 무악현대점,대형마트,37.5753907,126.9608065
인천광역시,서구,가정동,0 루원시티 SK Leaders' VIEW,(주)이마트에브리데이 인천sk리더스뷰점,구분없음,37.5212975,126.6760465
경기도,광명시,철산동,233,GS THE FRESH 광명철산점,구분없음,37.4795825,126.8667717
부산광역시,남구,용호동,"197 GS하이츠자이 401동 113, 호",GS THE FRESH 부산용호점,그 밖의 대규모점포,35.1326754,129.1109663
경상남도,사천시,벌리동,270-3 롯데슈퍼,롯데슈핑(주)롯데슈퍼 삼천포점,그 밖의 대규모점포,34.9421002,128.0863230
부산광역시,해운대구,우동,1504 센텀코아,(주)지에스리테일 센텀시티점,대형마트,35.1674547,129.1325272
서울특별시,용산구,한강로3가,3-23 나진상가,나진상가 15동,전문점,37.5330552,126.9637647
경상남도,함양군,함양읍,교산리 167-2 롯데슈퍼,테스트,그 밖의 대규모점포,35.5213429,127.7309058
서울특별시,성북구,길음동,508-16,GS THE FRESH 성북클라시아점,그 밖의 대규모점포,37.6090526,127.0271681
인천광역시,부평구,십정동,289-8,GS THE FRESH 부평열우물점,대형마트,37.4754127,126.6978449
인천광역시,부평구,십정동,289-8,GS THE FRESH 부평더샵점,대형마트,37.4754127,126.6978449
서울특별시,강남구,신사동,510-11 강남상가아파트,이마트에브리데이 강남시장점,구분없음,37.5187768,127.0206947
경기도,안양시,동안구,비산동 515-2 평촌자이아이파크 상가2동 부출입구 1층 101~103호,GS THE FRESH 안양비산점,구분없음,37.4043735,126.9338286
경상남도,창원시,진해구,경화동 1174-3,탑마트 진해경화점,그 밖의 대규모점포,35.1535956,128.6822845
서울특별시,서대문구,남가좌동,50-3 명지대학교,이마트에브리데이 명지대점,구분없음,37.5802367,126.9231244
부산광역시,동래구,사직동,1017 사직 쌍용 예가,GS THE FRESH 사직쌍용점,구분없음,35.1966168,129.0556206
경기도,용인시,처인구,양지면 양지리 112,세영산업주식회사,전문점,37.2338372,127.2967933
서울특별시,관악구,봉천동,1717-3 관악푸르지오,지에스 더 프레시(GS THE FRESH) 관악청림점,구분없음,37.4875918,126.9599070
충청남도,서산시,잠홍동,568,충서원예농협 하나로마트,대형마트,36.7866707,126.4732961
서울특별시,구로구,고척동,100-7,고척아이파크쇼핑센터,쇼핑센터,37.4985426,126.8591765
서울특별시,노원구,중계동,160-1 기업은행,(주)이마트에브리데이 상계역점,구분없음,37.6591780,127.0757791
부산광역시,동구,범일2동,290번지 3호,사단법인 부산남문시장번영회,그 밖의 대규모점포,35.1362089,129.0587077
경기도,수원시,권선구,서둔동 296-124,홈씨씨 수원점,전문점,37.2662794,126.9971020
경상남도,창원시,마산합포구,월영동 738 마린애시앙부영,(주)이마트에브리데이 월영마린애시앙점,그 밖의 대규모점포,35.1742379,128.5646018
대전광역시,중구,오류동,175-3,(주) 농협유통 하나로마트 오룡점,구분없음,36.3259184,127.4077734
경기도,과천시,별양동,52,GS THE FRESH 과천자이점,그 밖의 대규모점포,37.4282745,126.9986734
서울특별시,영등포구,신길동,4902-6,GS THE FRESH 신길사러가점,구분없음,37.5066851,126.9115558
서울특별시,서대문구,홍은동,400-12,롯데프레시 홍은점,구분없음,37.5815959,126.9265207
서울특별시,서대문구,창천동,506-20 아륭빌딩,롯데슈퍼 창천점,구분없음,37.5585256,126.9286331
서울특별시,서대문구,남가좌동,381 DMC센트레빌,롯데슈퍼 남가좌점,구분없음,37.5759823,126.9156631
경기도,평택시,장당동,154-2,평택프리미엄아울렛,전문점,37.0338375,127.0691430
울산광역시,북구,진장동,1048-3,삼성전자 판매 북울산본점,전문점,35.5765216,129.3555796
경기도,용인시,처인구,고림동 599-8,정동마트,대형마트,37.2495441,127.2232912
전북특별자치도,전주시,덕진구,송천동2가 488-3,파인트리몰,그 밖의 대규모점포,35.8673600,127.1209090
서울특별시,중랑구,신내동,646 금강리빙스텔,롯데프레시앤델리 봉화산역점,그 밖의 대규모점포,37.6163279,127.0926931
경기도,안양시,동안구,관양동 1677,(주)이마트에브리데이 안양관양점,구분없음,37.4101840,126.9670452
울산광역시,북구,진장동,1048-1,진장 회 수산센터,그 밖의 대규모점포,35.5771410,129.3551957
경기도,광주시,경안동,447,광주 금호 리첸시아 센트럴 스퀘어,그 밖의 대규모점포,37.4082439,127.2562560
경상북도,경산시,하양읍,양지리 262,(주)이마트에브리데이 경산무학점,그 밖의 대규모점포,35.9192230,128.8086908
부산광역시,금정구,부곡동,225-58 골든웨딩프라자예식장,(주)지에스리테일 부산금정점,구분없음,35.2374060,129.0895473
경기도,시흥시,배곧동,191 시흥배곧 C1 호반 써밋플레이스,홈플러스 익스프레스 시흥배곧점,구분없음,37.3707452,126.7273430
경기도,안양시,동안구,호계동 873 덕유파크,GS THE FRESH 안양호계점,구분없음,37.3622781,126.9625115
경상남도,창원시,성산구,성주동 100 더 스퀘어,(주)이마트에브리데이 창원더스퀘어점,구분없음,35.2038448,128.7116559
경기도,수원시,장안구,정자동 111-20 화서역 파크푸르지오,GS THE FRESH 수원화서점,구분없음,37.2898229,126.9947011
서울특별시,동대문구,이문동,292번지 10호,이마트에브리데이 이문점,복합쇼핑몰,37.5975955,127.0611378
서울특별시,양천구,신정동,995-2,(주)이마트에브리데이 목동역점,구분없음,37.5248384,126.8642146
서울특별시,서대문구,홍은동,11-419,이마트에브리데이 홍은점,구분없음,37.5990497,126.9473378
제주특별자치도,제주시,노형동,925 제주 드림타워 복합리조트,제주드림타워,그 밖의 대규모점포,33.4853200,126.4814666
전북특별자치도,전주시,덕진구,송천동2가 1329-1 로마네시티,로마네시티,그 밖의 대규모점포,35.8730644,127.1246375
서울특별시,서대문구,남가좌동,390 래미안 루센티아,GS THE FRESH 남가좌디엠씨점,구분없음,37.5761394,126.9174948
서울특별시,중구,남대문로2가,9-1,센터포인트 명동,쇼핑센터,37.5646622,126.9827025
전북특별자치도,임실군,임실읍,이도리 236-13,(주)이마트에브리데이 전북임실점,복합쇼핑몰,35.6144915,127.2843726
경기도,고양시,덕양구,삼송동 293,고양삼송현대헤리엇,그 밖의 대규모점포,37.6530129,126.8990826
인천광역시,중구,운서동,2807-4 1~2층,버터플라이시티,그 밖의 대규모점포,37.4922908,126.4924270
전라남도,광양시,중동,1811-1 홈플러스 광양점,홈플러스 광양점,대형마트,34.9283716,127.6948092
부산광역시,북구,만덕동,818 e편한세상금정산,(주)지에스리테일 만덕이편한점,그 밖의 대규모점포,35.2155346,129.0373324
경기도,남양주시,화도읍,묵현리 368-2,한성몰 남양주점,전문점,37.6565565,127.2817287
서울특별시,광진구,구의동,66-25,구의 자이르네 판매시설,그 밖의 대규모점포,37.5456656,127.0885492
충청북도,청주시,청원구,오창읍 주성리 584,이마트에브리데이 오창산단점,구분없음,36.7336769,127.4519259
경기도,수원시,장안구,정자동 950 화서역 파크푸르지오,화서역파크푸르지오 오피스텔&상가,복합쇼핑몰,37.2898236,126.9947004
경기도,김포시,구래동,6871-33,롯데프레시 김포구래가맹점,구분없음,37.6446540,126.6194166
대구광역시,동구,율하동,1418,(주)이마트에브리데이 율하점,구분없음,35.8629030,128.6945199
대전광역시,유성구,도룡동,3-1,대전신세계 엑스포점,백화점,36.3773621,127.3843144
서울특별시,마포구,염리동,14-149,GS THE FRESH 마포염리점,구분없음,37.5542792,126.9469524
경기도,오산시,원동,773-1,오산 원동 상점가,구분없음,37.1445996,127.0708738
경상남도,김해시,주촌면,주촌선천지구 도시개발구역 30B 8L,코스트코 홀세일 김해점,대형마트,35.235826,128.830638
경기도,구리시,인창동,430 구리유통종합상가,엘마트 구리점,대형마트,37.6126800,127.1408598
서울특별시,용산구,한강로3가,63-70,GS THE FRESH 용산해링턴점,구분없음,37.5259057,126.9676590
경상남도,김해시,주촌면,천곡리 1522,코스트코 홀세일 김해점,대형마트,35.2354555,128.8386437
경기도,군포시,도마교동,478,군포송정 풍산리치안 플랫몰,그 밖의 대규모점포,37.3156549,126.9238908
경기도,성남시,수정구,시흥동 288-2,파미어스몰,쇼핑센터,37.4120494,127.0981104
경기도,구리시,인창동,430 구리유통종합상가,시민마트,구분없음,37.6126800,127.1408598
경기도,안양시,동안구,호계동 956,GS THE FRESH 평촌어바인점,구분없음,37.3721195,126.9547522
경상남도,창원시,마산합포구,월영동 703-2 대동아파트,(주)지에스리테일 마산월영점,대형마트,35.1751188,128.5580751
경상남도,창원시,마산합포구,월영동 738 마린애시앙부영,(주)지에스리테일 월영마린점,대형마트,35.1742379,128.5646018
부산광역시,기장군,기장읍,시랑리 산 46,부산 오시리아 테마파크 판매시설,쇼핑센터,35.1946151,129.2147839
인천광역시,미추홀구,도화동,1011 더샵 인천스카이타워 1단지,(주)이마트에브리데이 인천도화점,대형마트,37.4700598,126.6651582
서울특별시,강남구,역삼동,676 센터필드,더 샵스 앳 센터필드 (THE SHOPS AT CENTERFIELD),그 밖의 대규모점포,37.5032144,127.0415057
대구광역시,수성구,범어동,2262,범어더리브스퀘어,그 밖의 대규모점포,35.8642343,128.6189813
경기도,광명시,일직동,512-3,광명역세권택지개발지구복합단지판매시설D멀티플렉스AK PLAZA,쇼핑센터,37.4187526,126.8826531
경기도,광명시,일직동,512-3,에이케이플라자(주) 광명점,쇼핑센터,37.4187526,126.8826531
전북특별자치도,전주시,덕진구,송천동2가 1329-2 전주 에코시티 이마트,전주에코시티 DK-mall,쇼핑센터,35.8724343,127.1238144
서울특별시,도봉구,방학동,484-7,GS THE FRESH 방학신동아점,구분없음,37.6601026,127.0273897
경기도,화성시,오산동,1022,트레이더스 홀세일 클럽 동탄점,대형마트,37.1935162,127.0971023
부산광역시,해운대구,중동,1829 엘시티,엘시티 더 몰,그 밖의 대규모점포,35.1605627,129.1688078
대전광역시,동구,가오동,557번지 패션아일랜드,홈플러스(주)대전가오점,대형마트,36.3069376,127.4580200
부산광역시,영도구,봉래동5가,43번지,(주)서원유통 탑마트 영도봉래점,복합쇼핑몰,35.0942724,129.0494027
충청남도,천안시,서북구,쌍용동 1367,맘마마트 천안점,대형마트,36.8001727,127.1167572
충청남도,천안시,서북구,쌍용동 1367,맘마마트 천안점,대형마트,36.8001727,127.1167572
경기도,화성시,반송동,98번지,홈플러스(주)화성동탄점,대형마트,37.2027953,127.0684582
제주특별자치도,서귀포시,안덕면,서광리 산 24,제주 프리미엄 전문점,전문점,33.3071957,126.3174175
충청북도,청주시,흥덕구,화계동 196,다농엘마트,대형마트,36.6612775,127.4368111
인천광역시,연수구,송도동,93,인천 스타트업파크,그 밖의 대규모점포,37.3878473,126.6398574
대구광역시,달성군,구지면,응암리 1251 대구국가산단 반도유보라 아이비파크 2,롯데프레시 대구구지점,쇼핑센터,35.6578842,128.4218074
서울특별시,영등포구,양평동1가,247 영등포 중흥 S-CLASS,영등포 중흥 에스클래스,그 밖의 대규모점포,37.5234025,126.8862752
충청북도,청주시,청원구,오창읍 창리 64-4,주식회사 아산마트오창점,대형마트,36.7395591,127.4506585
전라남도,무안군,일로읍,오룡리 6 호반써밋APT,롯데슈퍼오룡가맹점,그 밖의 대규모점포,34.8072929,126.4884328
인천광역시,미추홀구,도화동,1002 더샵 인천스카이타워 2단지,앨리웨이 인천,그 밖의 대규모점포,37.4691331,126.6634742
서울특별시,용산구,한강로3가,2-8,(주)서부티엔디,전문점,37.5328095,126.9623836
울산광역시,북구,진장동,285-1 KCC진장사옥,주식회사 케이씨씨글라스 홈씨씨울산점,복합쇼핑몰,35.5742469,129.3593821
전북특별자치도,전주시,덕진구,장동 1111 전북혁신도시 더 M city 센텀,전북혁신도시 대방디엠시티,그 밖의 대규모점포,35.8390163,127.0601520
서울특별시,송파구,가락동,191-5,롯데프레시송파가락가맹점,구분없음,37.4954197,127.1344896
서울특별시,송파구,가락동,479 헬리오시티,이마트에브리데이 송파점,구분없음,37.4977248,127.1070320
인천광역시,남동구,논현동,111-168 쌍둥이네,소래포구어시장,그 밖의 대규모점포,37.3979452,126.7392917
세종특별자치시,금남면,용포리,213-1,노브랜드 대평시장점,복합쇼핑몰,36.4688870,127.2812073
서울특별시,구로구,구로동,573,이랜드리테일 NC구로점,복합쇼핑몰,37.5011880,126.8828440
경기도,시흥시,능곡동,235-1 시흥 플랑드르,시흥플랑드르,그 밖의 대규모점포,37.3712003,126.8069678
경기도,하남시,덕풍동,736번지 하남풍산지구 이마트,이마트 하남점,대형마트,37.5527584,127.2053735
경기도,군포시,금정동,916 힐스테이트 금정역,힐스테이트 금정역 상업시설,구분없음,37.3723276,126.9448583
서울특별시,양천구,목동,966번지 목동에버하임,목동에버하임,그 밖의 대규모점포,37.5465991,126.8706939
서울특별시,양천구,목동,966번지 목동에버하임,목동에버하임,그 밖의 대규모점포,37.5465991,126.8706939
경기도,화성시,오산동,967-157 동탄역 롯데캐슬,롯데백화점 동탄점,백화점,37.2003816,127.0973188
경상남도,진주시,인사동,3번지,(주)이마트 진주점,대형마트,35.1915891,128.0774185
경상남도,통영시,광도면,죽림리 1566번지 2호 이마트통영점,(주)이마트 통영점,쇼핑센터,34.8879109,128.4174753
강원특별자치도,강릉시,주문진읍,주문리 312번지 91호 주문진수산시장,노브랜드 주문진수산시장점,그 밖의 대규모점포,37.8941551,128.8283611
강원특별자치도,춘천시,퇴계동,381번지 1호 롯데슈퍼,롯데슈퍼 춘천점,구분없음,37.8603510,127.7286337
강원특별자치도,춘천시,퇴계동,381번지 1호,롯데슈퍼 춘천점,구분없음,37.8603510,127.7286337
경상남도,창원시,의창구,중동 785번지 창원중동유니시티2단지,(주)지에스리테일 창원유니시티점,대형마트,35.2563556,128.6269390
인천광역시,연수구,청학동,502번지 4호 롯데마트 연수점,롯데쇼핑(주) 롯데마트 연수점,대형마트,37.4160339,126.6741199
경기도,남양주시,다산동,6141번지 다산진건 자족시설용지 1BL 판매시설,현대프리미엄아울렛 SPACE1,쇼핑센터,37.6161020,127.1527218
경상북도,문경시,점촌동,195번지 9호,노브랜드 문경중앙시장점,복합쇼핑몰,36.5944126,128.1971912
충청북도,충주시,대소원면,완오리 1198 홈마트,홈마트,대형마트,37.0013294,127.8351220
경상남도,통영시,무전동,1069호,롯데쇼핑(주)롯데마트통영점,대형마트,34.8607183,128.4281991
세종특별자치시,어진동,510번지,엠브릿지,엠브릿지,그 밖의 대규모점포,36.5027371,127.2579948
서울특별시,송파구,삼전동,9번지 제이 플레이스,홈플러스 익스프레스 삼전역점,복합쇼핑몰,37.5042436,127.0898666
대전광역시,유성구,봉명동,549-11 골든하이아울렛,프리미엄아울렛 골든하이,복합쇼핑몰,36.3536796,127.3440151
대전광역시,유성구,용산동,579번지 현대프리미엄아울렛 대전점,현대프리미엄아울렛 대전점,쇼핑센터,36.4239095,127.3986899
대전광역시,유성구,용산동,579번지,현대프리미엄아울렛 대전점,쇼핑센터,36.4239095,127.3986899
전북특별자치도,김제시,용지면,부교리 57번지 22호,모다아울렛,쇼핑센터,35.8183314,126.9933680
경상북도,경주시,용강동,425-1,노브랜드 경주 용강점,그 밖의 대규모점포,35.8810529,129.2303125
서울특별시,영등포구,여의도동,22번지,THE HYUNDAI SEOUL,백화점,37.5260578,126.9282985
경기도,의왕시,학의동,1039 롯데프리미엄아울렛 타임빌라스,롯데쇼핑(주) 프리미엄아울렛 의왕점,쇼핑센터,37.3759865,127.0095466
경기도,용인시,기흥구,고매동 271번지,리빙파워센터,전문점,37.2234152,127.1142482
경기도,안산시,단원구,원곡동 846번지 3호 라성호텔,라성프라자,그 밖의 대규모점포,37.3283618,126.8017608
경상북도,문경시,모전동,862번지,노브랜드문경모전점,그 밖의 대규모점포,36.5858357,128.1897087
경기도,수원시,영통구,원천동 589번지 광교중흥에스클래스,중흥S클래스,그 밖의 대규모점포,37.2825202,127.0574342
경기도,화성시,송동,694 동탄린스트라우스더레이크,레이크꼬모,그 밖의 대규모점포,37.1713241,127.1049809
경상남도,김해시,삼방동,175번지 홈플러스,일등마트,그 밖의 대규모점포,35.2457475,128.9080810
경상남도,창원시,진해구,자은동 143-1,노브랜드 진해자은점,그 밖의 대규모점포,35.1551322,128.7127169
서울특별시,중구,산림동,207번지 1호 세운청계상가,청계상가,그 밖의 대규모점포,37.5680551,126.9953665
대전광역시,중구,산성동,284번지 2호,노브랜드 대전중구산성시장점,구분없음,36.3061103,127.3871126
인천광역시,남동구,만수동,1082번지 창대장터상가,노브랜드인천장승백이시장점,구분없음,37.4469468,126.7355966
인천광역시,남동구,만수동,1082번지 창대장터상가,노브랜드 인천장승백이시장점,구분없음,37.4469468,126.7355966
충청북도,청주시,청원구,내덕동 201번지 1호,원더아리아,쇼핑센터,36.6559786,127.4902426
대구광역시,중구,공평동,58번지 6호,태왕스파크,그 밖의 대규모점포,35.8692533,128.5988901
서울특별시,종로구,낙원동,288번지 낙원상가,낙원상가,그 밖의 대규모점포,37.5722238,126.9876399
서울특별시,종로구,낙원동,288번지 낙원상가,낙원상가,그 밖의 대규모점포,37.5722238,126.9876399
경상남도,창원시,마산합포구,우산동 99,노브랜드 현동점 주식회사,그 밖의 대규모점포,35.1516909,128.5525631
강원특별자치도,춘천시,중앙로3가,61번지 농협중앙회강원지역본부,하나로마트 강원지역본부점,구분없음,37.8767112,127.7236075
경기도,안양시,만안구,안양동 88번지 1호,(주)엔터식스패션쇼핑몰 안양점,백화점,37.3890780,126.9127841
경기도,용인시,기흥구,고매동 산 41-7 IKEA Korea 기흥점,이케아 기흥점,전문점,37.2222674,127.1162533
경기도,시흥시,정왕동,1771번지 31호,시흥배곧 아브뉴프랑 센트럴,그 밖의 대규모점포,37.3435352,126.7376677
충청북도,충주시,달천동,786번지 5호,모다아울렛,전문점,36.9618462,127.8986158
경기도,의정부시,민락동,803 민락2지구 제일풍경채 센텀-애비뉴모나코,애비뉴모나코,그 밖의 대규모점포,37.7437033,127.0986781
서울특별시,마포구,신수동,93번지 102호 신촌숲아이파크,GS THE FRESH 신촌숲아이파크점,구분없음,37.5505759,126.9366969
강원특별자치도,태백시,황지동,200-26,롯데슈퍼 태백점,구분없음,37.1567264,128.9872161
강원특별자치도,동해시,동회동,"442번지 대동,현대아파트",노브랜드 동해남부재래시장점,구분없음,37.4873081,129.1057573
강원특별자치도,삼척시,남양동,55번지 4호 중앙시장,노브랜드 삼척중앙시장점,대형마트,37.4204382,129.1577507
경기도,수원시,영통구,하동 1017-2 갤러리아 광교,한화갤러리아(주) 광교점,백화점,37.2852032,127.0573994
서울특별시,성북구,길음동,"535-8,535-26,540-2,540-7",길음시장,그 밖의 대규모점포,37.6027181,127.0217764
서울특별시,강동구,고덕동,217번지 고덕그라시움아파트(상가1동),지에스 더프레시(GS THE FRESH) 고덕그라시움점,구분없음,37.5578957,127.1625755
경기도,고양시,덕양구,삼송동 291번지,힐스몰,그 밖의 대규모점포,37.6524108,126.8967048
서울특별시,성북구,길음동,"535번지8호, 535번지26호, 540번지2호",길음시장,그 밖의 대규모점포,37.6039452,127.0227865
서울특별시,성북구,돈암동,609번지 1호 스카이프라자상가,동소문스카이상가,그 밖의 대규모점포,37.5956561,127.0117268
경기도,부천시,소사구,옥길동 768번지,스타필드시티 부천점,복합쇼핑몰,37.4615357,126.8139516
충청북도,제천시,중앙로1가,77번지 중앙시장상가 제1층 제나동일부,노브랜드 제천중앙시장점,그 밖의 대규모점포,37.1366523,128.2113186
부산광역시,기장군,기장읍,당사리 52번지 2호 이케아 동부산점,이케아 동부산점,전문점,35.238735,129.215757
세종특별자치시,보람동,730,호려울마을3단지 근린생활시설,(주)이마트에브리데이 세종신동아점,그 밖의 대규모점포,36.4767998,127.2819818
서울특별시,금천구,독산동,1156번지 금천롯데캐슬골드파크4차,롯데캐슬 골드파크 4차 마르쉐도르 960,그 밖의 대규모점포,37.4611081,126.8968008
서울특별시,도봉구,쌍문동,711번지 금강아미움파크타운,금강아미움쇼핑센터,그 밖의 대규모점포,37.6614209,127.0381648
경상남도,양산시,물금읍,가촌리 1292번지 라피에스타,라피에스타 양산,그 밖의 대규모점포,35.3098713,129.0093999
경기도,김포시,걸포동,1440번지,김포농협 농수축산물판매장,대형마트,37.6315741,126.7130040
경상북도,경주시,신평동,375번지 4호,모다아울렛 경주보문점,전문점,35.8428484,129.2858243
경기도,고양시,일산서구,대화동 2603번지,GIFC MALL,그 밖의 대규모점포,37.6661984,126.7506000
경기도,고양시,일산동구,장항동 1800번지 라몬테이탈리아노,라 몬테 이탈리아노,그 밖의 대규모점포,37.6599122,126.7549479
부산광역시,남구,문현동,1227번지 2호,IFC부산 오슬로파크,쇼핑센터,35.1486116,129.0642531
대전광역시,동구,용운동,432번지 덕림코아빌딩,(주)이마트에브리데이 용방점,복합쇼핑몰,36.3285319,127.4546455
경상북도,안동시,서부동,149번지 40호,노브랜드 안동구시장점,복합쇼핑몰,36.5655999,128.7301084
충청북도,청주시,상당구,방서동 247번지 9호 청주센트럴자이 102~1호,GS수퍼마켓 청주방서점,구분없음,36.6021824,127.4989081
경기도,안산시,단원구,고잔동 532번지,GS슈퍼마켓 안산고잔점,구분없음,37.3200521,126.8344374
경상남도,창원시,의창구,사림동 106번지 6호,(주)이마트에브리데이 창원사림점,그 밖의 대규모점포,35.2476161,128.6786877
울산광역시,북구,진장동,120번지 9호 CGV,진장CGV엔터플렉스,복합쇼핑몰,35.5765059,129.3526958
경상북도,경주시,용강동,1290-2,이마트에브리데이 경주용강점,그 밖의 대규모점포,35.8770158,129.2283462
경상북도,포항시,북구,장성동 977번지,롯데쇼핑(주) 롯데슈퍼 포항장성점,구분없음,36.0692081,129.3731822
경상남도,창원시,성산구,상남동 44번지 1호 대동백화점,노브랜드 창원대동점,그 밖의 대규모점포,35.2194884,128.6884832
부산광역시,서구,토성동1가,25번지 1호 경동 리인,경동타워 쇼핑,그 밖의 대규모점포,35.0993088,129.0239501
부산광역시,강서구,명지동,3438번지 스타필드 시티 명지,스타필드 시티 명지점,쇼핑센터,35.0931739,128.9182343
서울특별시,마포구,동교동,190번지 1호,AK PLAZA 홍대,쇼핑센터,37.5595393,126.9247980
서울특별시,마포구,동교동,190번지 1호,홍대복합역사 상업시설,쇼핑센터,37.5595393,126.9247980
제주특별자치도,서귀포시,법환동,841번지 2호 이마트서귀포점,(주)이마트 서귀포점,대형마트,33.2482740,126.5088045
서울특별시,강남구,논현동,164번지 5호 외 3필지,삐에로쇼핑 강남논현점,구분없음,37.5086450,127.0230106
서울특별시,강서구,마곡동,768번지 2호 동익드미라벨복합빌딩,노브랜드 강서마곡점,구분없음,37.5627470,126.8250295
세종특별자치시,어진동,521번지,외 1필지,KT&G Mall 세종B관 / C관,그 밖의 대규모점포,36.5004845,127.2567446
세종특별자치시,어진동,539번지,,KT&G Mall 세종A관,그 밖의 대규모점포,36.5011322,127.2588539
인천광역시,서구,경서동,953번지 7호 청라 스퀘어7,청라스퀘어세븐,쇼핑센터,36.5011322,127.2588539
경기도,용인시,기흥구,구갈동 234-3,애경자산관리(주)AK기흥,쇼핑센터,37.2744268,127.1177836
경기도,용인시,기흥구,고매동 280번지,롯데프리미엄아울렛 기흥점,전문점,37.2250051,127.1196325
부산광역시,연제구,거제동,1470번지 14호,(주)서원유통 탑마트 연제점,그 밖의 대규모점포,35.1926883,129.0802592
대전광역시,서구,둔산동,1279번지,(주)프러스퍼러티,쇼핑센터,36.3518533,127.3794190
대구광역시,달서구,진천동,241번지 3호 월배시장,노브랜드 대구월배시장점,대형마트,35.8149817,128.5278866
경기도,김포시,고촌읍,전호리 668번지,현대프리미엄아울렛 김포점 별관,쇼핑센터,37.5979315,126.7838940
강원특별자치도,원주시,무실동,630번지 3호 외 1,원주 무실동 판매시설(CROSS AVENUE WONJU),전문점,37.3293658,127.9245850
경상북도,포항시,북구,창포동 산 32번지 11호,(주)GS리테일 창포메트로점,구분없음,36.0705437,129.3663952
서울특별시,금천구,독산동,1155 금천롯데캐슬골드파크3차,롯데쇼핑(주) 금천 독산점,쇼핑센터,37.4599827,126.8972435
서울특별시,서대문구,홍제동,294번지 46호 유진상가,롯데슈퍼 유진점(X),구분없음,37.5914096,126.9429552
경기도,고양시,덕양구,동산동 369번지,e-편한세상 시티 삼송(World Avenue),그 밖의 대규모점포,37.6496299,126.8964559
충청남도,예산군,오가면,월곡리 142번지 18호,예산홍성패션타운,전문점,36.6714410,126.7804068
부산광역시,기장군,정관읍,매학리 717번지 6호,탑스퀘어,그 밖의 대규모점포,35.3213716,129.1771861
경기도,양평군,양평읍,공흥리 468번지 33호,롯데쇼핑(주)롯데마트 경기양평점,대형마트,37.4904587,127.5018738
경기도,수원시,영통구,원천동 582번지 9호,엘리웨이 광교,그 밖의 대규모점포,37.2772517,127.0496124
경기도,수원시,영통구,이의동 1336번지 1호,광교 엘포트 몰,그 밖의 대규모점포,37.2875908,127.0568718
경기도,용인시,기흥구,영덕동 517번지 1호 영통프리미엄아울렛,수원프리미엄아울렛,전문점,37.2666309,127.0762593
서울특별시,동대문구,제기동,1019번지 신관 2층,노브랜드 경동시장점,구분없음,37.5791905,127.0393021
경기도,화성시,오산동,1019,라스플로레스,복합쇼핑몰,37.2022073,127.0979440
경상남도,김해시,동상동,1117번지,캐슬아리스타궁,그 밖의 대규모점포,35.2393688,128.8857990
서울특별시,금천구,독산동,1150번지 금천롯데캐슬골드파크2차,롯데캐슬 골드파크 2차 마르쉐도르,그 밖의 대규모점포,37.4582428,126.8941761
부산광역시,금정구,장전동,538번지 1호 한신시티빌,(주)GS리테일 부산장전점,구분없음,35.2271580,129.0827447
경기도,안성시,원곡면,지문리 33번지 1호,주식회사 락앤락,그 밖의 대규모점포,37.0656209,127.1450560
경기도,하남시,풍산동,609 코스트코 홀세일 하남점,코스트코 홀세일 하남점,대형마트,37.5507409,127.1939000
서울특별시,강서구,가양동,1458번지 9호 동남빌딩,㈜이마트에브리데이 양천향교역점,구분없음,37.5706528,126.8421371
경기도,구리시,갈매동,599번지,모다아울렛,전문점,37.6332981,127.1160984
경기도,이천시,안흥동,353번지 6호,(주)노브랜드 이천안흥점,구분없음,37.2811736,127.4547088
경기도,고양시,일산서구,대화동 1050번지 185호,고양 일산 호수공원 가로수길,그 밖의 대규모점포,37.6672407,126.7538173
서울특별시,강서구,마곡동,776번지 2호 마곡센트럴대방디엠시티오피스텔,롯데쇼핑㈜ 마켓999 양천향교역가맹점,구분없음,37.5687081,126.8393726
경기도,군포시,부곡동,1227번지 1호,트레이더스 홀세일 클럽 군포점,대형마트,37.3401283,126.9346965
인천광역시,중구,신포동,12번지 26호,개항누리길 상점가 상인회,그 밖의 대규모점포,37.4711760,126.6268637
경기도,수원시,권선구,권선동 1364번지 권선아이파크5차 단지상가 109호~111호,(주)지에스리테일 GS수퍼 권선아이파크점,구분없음,37.2467273,127.0300960
경기도,안양시,만안구,안양동 1391,(주)지에스리테일 GS수퍼 안양메가트리아점,구분없음,37.3956327,126.9305182
서울특별시,강서구,마곡동,759번지 마곡센트럴타워Ⅱ,이마트에브리데이 마곡점,구분없음,37.5680986,126.8254376
경상북도,경주시,용강동,1611 협성휴포레용황,롯데슈퍼 용황점,그 밖의 대규모점포,35.8847382,129.2272284
경기도,수원시,권선구,권선동 1330번지 권선자이이편한세상 상가 B105호~107호,(주)지에스리테일 GS수퍼 수원권선점,구분없음,37.2529582,127.0264093
부산광역시,연제구,연산동,2374,트레이더스 홀세일 클럽 연산점,대형마트,35.1851353,129.1119996
충청남도,부여군,규암면,합정리 172번지,롯데 아울렛 부여점,쇼핑센터,36.3071771,126.9019533
경상남도,창원시,마산회원구,석전동 259번지 4호,김기민,대형마트,35.2295718,128.5762486
경기도,군포시,산본동,1066번지 2호,롯데쇼핑(주)롯데슈퍼 산본2동점,구분없음,37.3738769,126.9313280
경기도,화성시,청계동,536 동탄역시범반도유보라아이비파크4.0,카림애비뉴,그 밖의 대규모점포,37.1991807,127.1142770
부산광역시,해운대구,좌동,1289번지 4호,롯데슈퍼 좌1동점,그 밖의 대규모점포,35.1776820,129.1749522
부산광역시,해운대구,좌동,1467번지 2호,롯데슈퍼 해운대점,그 밖의 대규모점포,35.1705351,129.1763756
부산광역시,해운대구,좌동,1270번지 6호,롯데수퍼 좌동점,그 밖의 대규모점포,35.1734464,129.1676206
대전광역시,동구,용운동,322번지,(주)롯데프레시용운점,구분없음,36.3230576,127.4611679
전북특별자치도,진안군,진안읍,군하리 309번지 4호,롯데쇼핑(주)롯데슈퍼 진안점,그 밖의 대규모점포,35.7858643,127.4225472
서울특별시,금천구,시흥동,984번지,시흥산업용재유통센터,그 밖의 대규모점포,37.4433443,126.9016398
서울특별시,강서구,가양동,54번지 5호,노브랜드 강서가양점,구분없음,37.5655914,126.8466817
경기도,군포시,군포1동,784번지 5호,(주)이마트에브리데이 당동점,구분없음,37.3517711,126.9451897
인천광역시,연수구,송도동,170번지 1호,트리플 스트리트,쇼핑센터,37.3808960,126.6591807
충청남도,공주시,금흥동,201번지 1호,U7 SQUARE,복합쇼핑몰,36.4803767,127.1493612
전라남도,광양시,광양읍,덕례리 739번지,LF 스퀘어 테라스몰 광양점,복합쇼핑몰,34.9636207,127.5663193
서울특별시,동대문구,신설동,109번지 5호,서울특별시장,그 밖의 대규모점포,37.5713616,127.0249697
전북특별자치도,군산시,조촌동,450-21 외 3필지,롯데쇼핑 주식회사 아울렛 군산점,복합쇼핑몰,35.9764490,126.7385869
부산광역시,사하구,하단동,526번지 6호,아트몰링 부산점,복합쇼핑몰,35.1068350,128.9655569
부산광역시,사하구,하단동,526번지 6호,아트몰링 부산점,복합쇼핑몰,35.1068350,128.9655569
전라남도,무안군,삼향읍,남악리 2622번지,롯데쇼핑(주) 남악점,백화점,34.8025561,126.4650565
경기도,하남시,학암동,660번지 스타필드시티 위례점,스타필드 시티 위례점,쇼핑센터,37.4800573,127.1484006
경기도,하남시,학암동,660번지,스타필드 시티 위례점,쇼핑센터,37.4800573,127.1484006
경기도,고양시,덕양구,도내동 1003 이케아 고양점,롯데아울렛 고양점,쇼핑센터,37.6295806,126.8631367
경기도,고양시,덕양구,도내동 1003번지,이케아 고양점,전문점,37.6295806,126.8631367
대구광역시,동구,신서동,1187번지,코스트코 홀세일 대구점,대형마트,35.8769382,128.7307005
대구광역시,동구,신천동,329번지 3호,(주)신세계 동대구복합환승센터,백화점,35.8770247,128.6272930
부산광역시,금정구,남산동,93번지 1호,남산(농수산)시장,그 밖의 대규모점포,35.2702659,129.0891949
경상남도,창원시,의창구,서상동 666번지 5호,킹덤시티,그 밖의 대규모점포,35.2609041,128.6261157
경기도,고양시,일산동구,백석동 1237번지,일산 벨라씨타(Bella Citta),쇼핑센터,37.6424632,126.7927528
경기도,용인시,처인구,역북동 역북지구 복합용지 1,"(주)천우산업개발 역북패션아울렛, 마트",쇼핑센터,34.97341,127.58105
경기도,용인시,수지구,성복동 23번지,롯데몰 용인점,쇼핑센터,37.3127488,127.0833446
경기도,김포시,풍무동,884 트레이더스 김포점,트레이더스 홀세일클럽 김포점,대형마트,37.6126127,126.7307670
경기도,이천시,갈산동,602번지,(주)이마트에브리데이 이천갈산점,구분없음,37.2840868,127.4553083
부산광역시,기장군,기장읍,시랑리 489번지 9호,판타지오스퀘어,그 밖의 대규모점포,35.104008,128.96424
세종특별자치시,대평동,584번지,7호 코스트코 세종점,코스트코 홀세일 세종점,대형마트,36.4662747,127.2674775
대구광역시,달성군,유가읍,봉리 619번지 테크노폴리스 M스퀘어+,M SQUARE +,쇼핑센터,35.6931094,128.4629021
경상남도,김해시,외동,1264번지,김해터미널쇼핑센터,쇼핑센터,35.2291410,128.8721389
서울특별시,은평구,진관동,79번지 15호,롯데몰 은평,쇼핑센터,37.6352131,126.9212953
경기도,고양시,덕양구,동산동 370번지,스타필드 고양,복합쇼핑몰,37.6471016,126.8947736
경기도,하남시,신장동,616번지 지역현안사업2지구 내 물류유통시설용지,스타필드 하남,복합쇼핑몰,37.5454832,127.2237108
경기도,안성시,공도읍,진사리 354번지 외 17필지,스타필드 안성,복합쇼핑몰,36.9943814,127.1475326
경상남도,진주시,신안동,581번지 1호,(주)지에스리테일 진주신안점,구분없음,35.1800490,128.0656083
대전광역시,서구,탄방동,745번지,(주)세이디에스탄방점,쇼핑센터,36.3470308,127.3888544
경기도,성남시,분당구,백현동 531번지,일렉트로마트 판교점,전문점,37.3954850,127.1082334
강원특별자치도,춘천시,동면,장학리 산 35번지 2호,엠에스리테일,대형마트,37.8935425,127.7589760
울산광역시,남구,신정동,1642번지 2호,(주)지에스리테일 울산신정점,구분없음,35.5363756,129.2990582
충청북도,충주시,연수동,591번지 1호,(주)지에스리테일 충주연수점,그 밖의 대규모점포,36.9904538,127.9377331
대전광역시,동구,가오동,557번지,홈플러스(주)대전가오점,대형마트,36.3069376,127.4580200
경기도,하남시,신장동,747번지,홈플러스(주)하남점,대형마트,37.658622,126.775191
경상남도,사천시,벌리동,58번지 3호,홈플러스 삼천포점,대형마트,34.9404737,128.0799674
인천광역시,연수구,송도동,98번지,코스트코 홀세일 송도점,대형마트,37.3897522,126.6333129
경기도,수원시,장안구,정자동 600번지 28호 B01호,(주)지에스리테일 수원장안점,구분없음,37.3075649,126.9821966
서울특별시,금천구,가산동,60번지 19호,롯데쇼핑(주) 아울렛 가산점,쇼핑센터,37.4809927,126.8863434
전라남도,순천시,해룡면,남가리 43번지 2호,모다아울렛(MODAoutlet)순천만플라자,전문점,34.9265772,127.5444938
인천광역시,서구,원창동,381번지 69호,(주)대명화학 유통사업부 인천점,대형마트,37.5137857,126.6423768
경상북도,구미시,구포동,"1079번지 1080, 1081",해마루밸리,쇼핑센터,36.1348449,128.4281186
서울특별시,서초구,반포동,19번지 3호,신세계백화점 강남점,구분없음,37.5048882,127.0021093
울산광역시,북구,진장동,"283번지 4호 , 283번지 5호",모다아울렛,전문점,35.5706880,129.3540208
경상남도,김해시,부원동,1043번지,아이스퀘어몰,쇼핑센터,35.2251683,128.8845890
서울특별시,관악구,봉천동,10번지 4호 외14필지,관악쇼핑,그 밖의 대규모점포,37.4646607,126.9622743
경기도,수원시,영통구,이의동 1240번지,(주)이마트 광교점,대형마트,37.2965712,127.0476804
경상남도,진주시,충무공동,35번지,롯데몰 진주점,복합쇼핑몰,35.1801162,128.1399333
울산광역시,북구,상안동,322번지 9호,홈플러스(주)울산북구점,대형마트,35.6299251,129.3457063
경기도,수원시,영통구,이의동 1332번지,아브뉴프랑광교점,쇼핑센터,37.2906758,127.0504755
경기도,용인시,기흥구,공세동,한섬 패션웨어하우스,전문점,37.237843,127.112675
대구광역시,동구,신천동,294번지 5호,(주)현대백화점 현대시티아울렛 대구점,쇼핑센터,35.8715394,128.6261241
경기도,수원시,영통구,이의동 1338번지,롯데쇼핑(주)롯데몰 광교점,쇼핑센터,37.2862347,127.0558753
충청남도,당진시,신평면,매산리 516번지 4호,(주)모다이노칩 행담도점,전문점,36.9461946,126.8063401
경기도,성남시,분당구,백현동 541 현대백화점 판교점,현대백화점 판교점,백화점,37.3927738,127.1120506
서울특별시,광진구,자양동,17번지 1호,커먼그라운드,그 밖의 대규모점포,37.5411571,127.0659608
서울특별시,강서구,염창동,249번지 8호 1층,(주)지에스리테일 염창점,그 밖의 대규모점포,37.5510104,126.8732364
경기도,고양시,일산서구,주엽동 83번지,두진레이크,그 밖의 대규모점포,37.6678321,126.7646404
경기도,김포시,고촌읍,전호리 654번지,현대프리미엄아울렛 김포점,쇼핑센터,37.5994291,126.7855885
부산광역시,남구,용호동,566번지 3호,다보네가구,전문점,35.1143149,129.1150445
서울특별시,서초구,서초동,"1498번지 5호 (영업장 지하1층,지하2층)",롯데쇼핑(주) 롯데마트 서초점,대형마트,37.4906235,127.0047227
충청북도,충주시,칠금동,171번지 2호,롯데슈퍼 충주칠금점,,36.9854596,127.9141896
경상남도,거제시,옥포동,443번지 옥포아파트,롯데쇼핑(주) 롯데마트 거제점,대형마트,34.8907194,128.6870035
세종특별자치시,가람동,970번지,이마트세종점,이마트 세종점,대형마트,36.4711372,127.2510135
세종특별자치시,가람동,406번지,이마트세종점,이마트 세종점,대형마트,36.4708997,127.2509825
부산광역시,남구,용호동,954번지,W 스퀘어,쇼핑센터,35.1334519,129.1127220
경상남도,진주시,평안동,195번지 한화갤러리아백화점,한화갤러리아(주) 진주점,백화점,35.1966901,128.0823418
인천광역시,부평구,산곡동,311번지 151호,이천일아울렛부평점,복합쇼핑몰,37.4939487,126.7057072
경상남도,김해시,진영읍,내룡리 76번지,"넥스틸(주), (주)대성철강",전문점,35.2896538,128.7623138
서울특별시,강북구,미아동,71번지 1호,연이스퀘어,쇼핑센터,37.6134590,127.0305236
경기도,이천시,안흥동,474번지 롯데캐슬 골드스카이,롯데쇼핑(주) 롯데마트 이천점,대형마트,37.2746497,127.4546661
인천광역시,연수구,송도동,168번지 1호 현대프리미엄 아울렛 송도점,현대백화점 프리미엄 아울렛 송도점,쇼핑센터,37.3823800,126.6585590
경기도,광명시,일직동,500번지,롯데몰 광명점,쇼핑센터,37.4241728,126.8834649
경기도,수원시,권선구,서둔동 381번지 롯데몰수원점,타임빌라스 수원,쇼핑센터,37.2641841,126.9971224
부산광역시,기장군,기장읍,당사리 64번지 외 106필지 (동부산관광단지 내),롯데몰 동부산점,복합쇼핑몰,35.1922582,129.2128161
인천광역시,부평구,부평동,16번지,롯데쇼핑(주)롯데마트 부평역점,대형마트,37.5035485,126.7256825
부산광역시,북구,구포동,937번지 28호,탑마트 구포점,그 밖의 대규모점포,35.1991840,128.9973304
경상북도,경주시,동부동,105번지 1호,탑마트 경주동부점,구분없음,35.8460365,129.2123938
경상북도,경주시,황성동,903번지 8호,탑마트 경주황성점,구분없음,35.8662700,129.2104568
경상북도,경주시,안강읍,안강리 366번지 2호,탑마트 안강점,구분없음,35.9885650,129.2256847
인천광역시,부평구,부평동,70번지 127호,롯데백화점 부평점,백화점,37.4943981,126.7182564
인천광역시,부평구,부개동,496번지 17호,홈플러스 익스프레스 부개점,그 밖의 대규모점포,37.5064593,126.7374798
인천광역시,부평구,부평동,70번지 127호,모다이노칩 부평점,백화점,37.4943981,126.7182564
인천광역시,부평구,삼산동,465번지 1호,롯데쇼핑(주)롯데마트 삼산점,대형마트,37.5079106,126.7320467
대전광역시,서구,용문동,257번지 2호,홈플러스(주) 익스프레스 용문점,쇼핑센터,36.3379227,127.3932028
부산광역시,동구,초량2동,393번지 1호,(주)서원유통 탑마트 초량점,구분없음,35.1167203,129.0394337
경기도,김포시,장기동,2031번지,롯데쇼핑(주) 롯데마트 김포한강점,대형마트,37.6404766,126.6775110
경상남도,진주시,하대동,315호,삼전프라자상가,쇼핑센터,35.1927732,128.1211920
경상남도,통영시,봉평동,156번지 10호,(주)서원유통 탑마트 통영점,구분없음,34.8321140,128.4149306
경상남도,진주시,상대동,181-1 홈플러스,홈플러스 진주점,대형마트,35.1875794,128.1177079
전라남도,순천시,덕암동,169호 외 4필지,(주)이마트 순천점,대형마트,34.9424182,127.5087398
전라남도,순천시,풍덕동,300번지,홈플러스(주)순천풍덕점,대형마트,34.9400589,127.5090201
서울특별시,강남구,논현동,140번지,(주)지에스리테일 GS슈퍼 강남 논현점,구분없음,37.5099472,127.0236926
경기도,광명시,광명동,739-8 유.자.인.주상복합아파트,GS수퍼마켓 광명점,구분없음,37.4686318,126.8517214
서울특별시,동작구,상도동,531번지 상가2동 지상1층 101~105호,(주)지에스리테일 상도 엠코타운점,구분없음,37.4954101,126.9508939
경상남도,진주시,정촌면,예하리 1277번지 3호,모다아울렛 진주2호점,전문점,35.1312142,128.0983284
경상남도,진주시,정촌면,예하리 1276번지 1호,모다아울렛 진주1호점,전문점,35.1323509,128.0984731
부산광역시,남구,문현동,1229번지 1호,비아이에프씨몰(BIFC Mall),그 밖의 대규모점포,35.1467939,129.0657506
서울특별시,용산구,남영동,93번지 30호,롯데프레시 갈월점,구분없음,37.5423768,126.9734820
세종특별자치시,어진동,503번지,홈플러스 세종점,홈플러스(주) 세종점,쇼핑센터,36.5073187,127.2588542
서울특별시,송파구,신천동,29번지,롯데하이마트 월드타워점,전문점,37.5131119,127.1034576
경상남도,진주시,평거동,921 탑마트 진주평거점,(주)서원유통 탑마트 서진주점,쇼핑센터,35.1703696,128.0619125
서울특별시,송파구,신천동,29번지,롯데월드몰,쇼핑센터,37.5131119,127.1034576
서울특별시,송파구,신천동,29번지 롯데월드타워앤드롯데월드몰,롯데쇼핑(주) 롯데마트 월드타워점,대형마트,37.5131119,127.1034576
서울특별시,송파구,신천동,29번지,롯데백화점 에비뉴엘 월드타워점,백화점,37.5131119,127.1034576
인천광역시,연수구,송도동,168번지 3호,홈플러스 인천송도점,쇼핑센터,37.3823800,126.6585590
부산광역시,강서구,대저2동,3154번지 2호,부산 자동차부품 유통단지,전문점,35.1677487,128.9546897
경기도,김포시,구래동,6880번지 9호,이마트 김포한강점,대형마트,37.6462212,126.6281414
충청북도,청주시,흥덕구,복대동 288-14번지,지웰시티몰 Ⅱ,복합쇼핑몰,36.6425776,127.4292020
경상북도,김천시,신음동,470번지,롯데쇼핑(주) 롯데마트 김천점,쇼핑센터,36.1360228,128.1177695
서울특별시,관악구,대학동,1523번지,일성트루엘상가,그 밖의 대규모점포,37.4703693,126.9346983
대전광역시,서구,월평동,510,(주)이마트 트레이더스 월평점,구분없음,36.3576802,127.3629735
대전광역시,중구,선화동,3번지 14 호,이랜드리테일 NC 중앙로역점,백화점,36.3289838,127.4250358
경기도,구리시,인창동,419번지 7호 구리 복합몰(롯데아울렛 구리점),롯데 아울렛 구리점,쇼핑센터,37.6118729,127.1405367
부산광역시,강서구,대저2동,3141번지 8호,BMCO,전문점,35.1661090,128.9544622
경기도,오산시,외삼미동,562번지 30호,모다아울렛 A동 오산점,전문점,37.1905171,127.0466181
인천광역시,연수구,송도1동,6번지 11호,롯데쇼핑(주) 롯데마트 송도점,대형마트,37.3881142,126.6460790
서울특별시,동대문구,회기동,346번지 18호,베라체캠퍼스 에비뉴,그 밖의 대규모점포,37.5906381,127.0547646
경상북도,경주시,노동동,140번지 6호,(주)준성공,백화점,35.8437253,129.2135234
경기도,이천시,창전동,152번지 5호,(주)이랜드리테일NC이천점,쇼핑센터,37.2822732,127.4409637
경기도,안산시,단원구,원곡동 994번지 8호,트리플렉스 B단지,그 밖의 대규모점포,37.3266957,126.7867999
경기도,안산시,단원구,원곡동 994번지 6호,트리플렉스 A단지,그 밖의 대규모점포,37.3266957,126.7867999
서울특별시,금천구,가산동,60번지 22호,마리오아울렛 1관,쇼핑센터,37.4809927,126.8863434
서울특별시,영등포구,대림동,717 대림동 쌍용 플래티넘-S,두암상가,그 밖의 대규모점포,37.4953094,126.8980837
경기도,이천시,호법면,단천리 산 48번지 1호,이천 롯데프리미엄 아울렛,복합쇼핑몰,37.2399417,127.3981731
경상북도,경주시,천군동,205-46,롯데슈퍼 보문점,그 밖의 대규모점포,35.8369587,129.2853649
경기도,고양시,일산동구,백석동 1242번지,롯데아울렛 고양터미널점,복합쇼핑몰,37.6432565,126.7897258
경기도,수원시,영통구,신동 941번지,트레이더스 홀세일클럽 수원점,대형마트,37.2460787,127.0486497
경상남도,김해시,부원동,부원역세권지구 A-1블럭,롯데쇼핑(주) 롯데마트 김해점,대형마트,35.180097,128.111759
서울특별시,관악구,남현동,산 69번지 51호,홈플러스 서울남현점,대형마트,37.4704449,126.9809927
서울특별시,송파구,잠실3동,40번지 1호 롯데월드,롯데하이마트잠실점,전문점,37.5111085,127.0939534
서울특별시,강서구,화곡1동,1071번지 19호,강서 뉴타워,그 밖의 대규모점포,37.5391505,126.8343610
서울특별시,서대문구,북가좌동,279번지 11호,홈플러스(주) 익스프레스 북가좌점,구분없음,37.5824169,126.9145170
경기도,성남시,수정구,수진동 2번지,홈플러스(주) 익스프레스 수진점,구분없음,37.4418399,127.1356762
경기도,성남시,분당구,수내동 83번지 3호,홈플러스(주) 익스프레스 푸른마을점,구분없음,37.3671114,127.1268035
경기도,성남시,분당구,서현동 306번지 1호,홈플러스(주) 익스프레스 서현점,구분없음,37.3742005,127.1371600
경기도,성남시,분당구,정자동 117번지 1호 스포라이프 스포츠센터 101~105,홈플러스(주) 익스프레스 분당정자점,구분없음,37.3648416,127.1159219
경기도,성남시,분당구,수내동 29번지 양지마을상가 B01호,홈플러스(주) 익스프레스 수내점,그 밖의 대규모점포,37.3747978,127.1184232
전북특별자치도,김제시,검산동,841번지 16호,홈플러스(주) 김제점,대형마트,35.8000317,126.9031946
충청남도,천안시,서북구,차암동 제3일반산업단지내 지원시설 B1블럭,코스트코 홀세일 천안점,대형마트,35.142542,129.071319
충청남도,논산시,내동,436번지 8호,홈플러스(주) 논산점,대형마트,36.1827351,127.0991647
경기도,고양시,덕양구,토당동 387번지 1호,홈플러스(주) 익스프레스 고양토당점,구분없음,37.6208738,126.8235572
인천광역시,남동구,간석동,616번지 3호 외 2필지,홈플러스(주) 간석점,대형마트,37.4707094,126.6869904
인천광역시,남동구,논현동,650번지 1호,홈플러스(주) 인천논현점,쇼핑센터,37.4005338,126.7256320
인천광역시,남동구,구월1동,1214번지 1호,홈플러스(주)익스프레스 구월점,구분없음,37.4526334,126.7111410
경기도,고양시,일산서구,탄현동 1640번지 위브더제니스 스퀘어,(주)이마트에브리데이 탄현역점,구분없음,37.6942704,126.7627694
경상북도,김천시,아포읍,송천리 산 31번지 1호,모다아울렛 김천구미점,전문점,36.1547409,128.2822675
울산광역시,남구,삼산동,1569번지 1호,업스퀘어,복합쇼핑몰,35.5419627,129.3388287
경상북도,경산시,중방동,896번지,홈플러스 경산점,대형마트,35.8328437,128.7356743
경상남도,양산시,평산동,96번지,트레이더스 홀세일클럽 양산점,그 밖의 대규모점포,35.3822849,129.1527963
부산광역시,강서구,대저2동,3153번지 1호,부산 T-plex 산업용품단지,전문점,35.1676139,128.9547649
인천광역시,계양구,작전서운동,648번지 5호,(주)이마트에브리데이 작전점,그 밖의 대규모점포,37.5277247,126.7347664
경상북도,경산시,하양읍,금락리 35번지 6호,하양공설시장,그 밖의 대규모점포,35.9089675,128.8074211
서울특별시,금천구,가산동,60번지 8호,현대아울렛,쇼핑센터,37.4809927,126.8863434
경기도,고양시,일산서구,대화동 300번지,고양 원마운트,복합쇼핑몰,37.646479,126.62368
대구광역시,중구,대신동,2105번지,서문시장2지구종합상가,그 밖의 대규모점포,35.8688302,128.5795372
충청남도,천안시,서북구,불당동 1289번지 펜타포트(1~3층),펜타포트 복합쇼핑몰,복합쇼핑몰,36.7982840,127.1013630
경기도,양주시,회정동,453번지 19호,(주)LF네트웍스 양주점,쇼핑센터,37.8321553,127.0520618
경기도,고양시,일산서구,대화동 2703번지,더 타운몰 킨텍스점,대형마트,37.6615615,126.7440899
인천광역시,남구,주안동,929번지 16호,보미리즌빌,그 밖의 대규모점포,37.4628675,126.6905549
경기도,성남시,분당구,삼평동 741번지,롯데마트 판교점,대형마트,37.3955160,127.1136689
대전광역시,동구,용전동,63번지 3호,(주)이마트 대전터미널점,,36.3522378,127.4359060
충청남도,예산군,응봉면,송석리 205번지 3호 외 5필지,내포패션아울렛,그 밖의 대규모점포,36.6668241,126.7614212
경기도,안성시,석정동,149번지 3호,(주)이마트안성,대형마트,37.0132732,127.2560141
경기도,포천시,설운동,2번지,(주)이마트 포천점,대형마트,37.8479751,127.1601348
경상북도,영주시,풍기읍,창락리 160번지 6호,소백산인삼시장,그 밖의 대규모점포,36.8854348,128.4803433
경기도,용인시,기흥구,공세동 734번지 1호,코스트코 홀세일 공세점,대형마트,37.2382578,127.1089277
인천광역시,서구,오류동,1640-2 검단종합공구상가,검단공구상가,그 밖의 대규모점포,37.5939328,126.6126617
서울특별시,중구,봉래동2가,122번지 11호,롯데아울렛 서울역점,쇼핑센터,37.5582052,126.9695857
대전광역시,서구,만년동,301번지,테크노월드,구분없음,36.3693182,127.3800094
경상남도,창원시,성산구,상남동 80번지,롯데백화점 창원점 신관,백화점,35.2245846,128.6830106
경기도,수원시,영통구,매탄3동 신매탄위브하늘채아파트 303상가 제비동동 제지호,(주)지에스리테일 GS 수퍼 수원매탄점,구분없음,37.2715797,127.0570025
경상남도,김해시,외동,1249번지,(주)프리마건설,그 밖의 대규모점포,35.2321577,128.8611435
경기도,고양시,일산동구,중산동 1809번지,이마트 풍산점,대형마트,37.6739206,126.7871318
경기도,오산시,수청동,610번지,홈플러스(주)오산점,대형마트,37.1701304,127.0618050
충청남도,아산시,모종동,555번지 5호 아산시외버스터미널복합시설,롯데마트 터미널점,대형마트,36.7899237,127.0227026
부산광역시,기장군,장안읍,좌동리 산 32번지 일원,신세계사이먼,전문점,35.3235301,129.2367872
서울특별시,성북구,돈암동,609번지 1호,동소문스카이상가,복합쇼핑몰,37.5956561,127.0117268
충청북도,청주시,흥덕구,비하동 332-1번지 외21필지,롯데쇼핑(주)롯데쇼핑프라자 청주점,복합쇼핑몰,36.6446565,127.4213918
경기도,광주시,초월읍,산이리 77번지 6호,(주)모다이노칩 곤지암점,전문점,37.3640008,127.3125766
서울특별시,금천구,가산동,60번지 20호,마리오아울렛 3관,쇼핑센터,37.4809927,126.8863434
서울특별시,중구,을지로6가,21번지 31호,던던 동대문점,쇼핑센터,37.5658045,127.0074105
충청북도,청주시,흥덕구,복대동 3380번지,현대백화점 충청점,백화점,36.6447692,127.4262731
경기도,구리시,동구동,677번지,롯데쇼핑(주)구리점,백화점,37.6042379,127.1426034
인천광역시,계양구,계산동,1059번지 1호,롯데쇼핑(주) 롯데마트 계양점,대형마트,37.5408807,126.7360055
경상남도,김해시,삼정동,426번지 메가마트 김해점,메가마트 김해점,대형마트,35.2260780,128.9003717
경기도,남양주시,별내동,989번지 이마트,이마트 별내점,대형마트,37.6427830,127.1260432
서울특별시,강남구,신사동,660번지 18호,홈플러스 익스프레스 압구정점,구분없음,37.5284588,127.0370077
경기도,성남시,중원구,금광1동 146번지,홈플러스(주) 익스프레스 성남금광점,복합쇼핑몰,37.4407770,127.1626242
전북특별자치도,남원시,향교동,2-6 롯데마트,롯데쇼핑(주) 롯데마트 남원점,대형마트,35.4233334,127.3927762
강원특별자치도,원주시,관설동,1453번지,홈플러스 원주점,대형마트,37.3177381,127.9673569
울산광역시,동구,동부동,150번지,GS THE FRESH 울산동부점,구분없음,35.5426689,129.4316302
경기도,김포시,걸포동,1563번지 2호,(주)이마트에브리데이 걸포동점,구분없음,37.6321049,126.7055334
경기도,파주시,목동동,927번지 (파주운정택지개발지구 F3-8 블럭),더콜로니운정몰,쇼핑센터,37.7295278,126.7367686
경기도,이천시,중리동,21번지 1호,(주)이마트에브리데이(이천점),구분없음,37.2802774,127.4401319
경기도,이천시,중리동,21-1,(주)이마트에브리데이(이천점),구분없음,37.2800608,127.4398074
서울특별시,구로구,구로1동,"650번지 4호 SK허브수 제B동 제118호,제119호,제121호~126호",홈플러스 익스프레스 서울구로점,구분없음,37.4958866,126.8727266
경상남도,김해시,외동,1251 대동아파트 주상가 111동 109호,메가마트 외동점,구분없음,35.2336123,128.8642126
경상남도,진주시,주약동,156번지 5호,롯데쇼핑(주) 롯데슈퍼 주약가맹점,구분없음,35.1763998,128.0908737
서울특별시,영등포구,여의도동,23번지,아이에프씨몰(IFC Mall),복합쇼핑몰,37.5249915,126.9253126
경기도,오산시,외삼미동,562번지 10호,모다아울렛 B동 오산점,전문점,37.1905171,127.0466181
경상남도,진주시,문산읍,삼곡리 1279번지 1호,롯데쇼핑(주) 롯데슈퍼문산가맹점,구분없음,35.1673043,128.1632738
인천광역시,연수구,동춘3동,926번지,스퀘어원,복합쇼핑몰,37.4059842,126.6837019
인천광역시,서구,청라동,157-22 홈플러스 인천청라점,홈플러스 인천 청라점,복합쇼핑몰,37.5323305,126.6486385
경상북도,성주군,성주읍,성산리 661번지 5호,이마트에브리데이 성주점,복합쇼핑몰,35.9177486,128.2891377
경상북도,구미시,봉곡동,33번지 3호 외 7필지,금오G7 스퀘어,대형마트,36.1614255,128.3065948
경기도,고양시,일산서구,일산동 588번지 1호,(주)이마트에브리데이 일산2호점,구분없음,37.6877237,126.7728649
서울특별시,양천구,목5동,904번지 목동4단지아파트 관리동 105호,(주)이마트에브리데이 목동점,구분없음,37.5319324,126.8715883
서울특별시,양천구,신월5동,26번지,(주)이마트 신월점,백화점,37.5397713,126.8287708
부산광역시,해운대구,좌3동,1270번지 6호,롯데슈퍼 좌동점,대형마트,35.1734464,129.1676206
서울특별시,양천구,신정동,1290-4 대우미래사랑5차아파트,롯데프레시 신정점,그 밖의 대규모점포,37.5098191,126.8432614
서울특별시,양천구,신월5동,20번지 28호 외 1필지,롯데쇼핑(주)롯데슈퍼 신월점,구분없음,37.5410972,126.8313100
경기도,파주시,광탄면,신산리 188번지 11호,이마트에브리데이 광탄점,구분없음,37.7808283,126.8478307
경기도,구리시,인창동,666번지 2호,익스프레스 구리 인창점,복합쇼핑몰,37.6078233,127.1434542
서울특별시,동대문구,이문동,324번지 10호,롯데쇼핑(주) 롯데마켓 999 이문점,복합쇼핑몰,37.5940568,127.0588764
서울특별시,성북구,장위동,316번지 3호,롯데슈퍼 장위점,그 밖의 대규모점포,37.6220069,127.0470857
경상북도,영주시,휴천동,698번지 13호,영주농협남부지점 하나로마트,구분없음,36.8177368,128.6295816
서울특별시,성북구,정릉3동,1034번지,롯데슈퍼 정릉점,그 밖의 대규모점포,37.6069331,127.0069139
서울특별시,성북구,보문동7가,25번지 1호,홈플러스익스프레스 보문점,그 밖의 대규모점포,37.5807726,127.0214676
경기도,과천시,원문동,4번지 래미안슈르 상가 지하 1층,(주)지에스리테일 과천3점,그 밖의 대규모점포,37.4206761,126.9922984
서울특별시,성북구,길음동,1285번지 두산아파트상가,홈플러스익스프레스 길음점,그 밖의 대규모점포,37.6097692,127.0188371
경상북도,영주시,영주동,549번지 4호,영주농협하나로마트중앙점,구분없음,36.8238289,128.6227370
울산광역시,울주군,온양읍,운화리 7-14,탑마트 울산남창점,복합쇼핑몰,35.4119393,129.2786088
울산광역시,울주군,언양읍,서부리 155번지 3호,탑마트 언양점,그 밖의 대규모점포,35.5655396,129.1206259
서울특별시,서초구,방배본동,755번지 5호,롯데쇼핑(주)롯데슈퍼 방배점,전문점,37.4970441,126.9856004
서울특별시,서초구,잠원동,70번지 5호 뉴코아백화점빌딩,뉴코아백화점,백화점,37.5083534,127.0060054
서울특별시,서초구,잠원동,70번지 2호,뉴코아아울렛,전문점,37.5083534,127.0060054
경기도,의정부시,의정부1동,235번지 17호,롯데쇼핑(주) 롯데슈퍼 가능역점,구분없음,37.7503225,127.0439687
경기도,평택시,이충동,667번지,(주)지에스리테일 평택이충점,그 밖의 대규모점포,37.0598665,127.0659725
서울특별시,성북구,삼선동1가,21,홈플러스익스프레스 삼선점,그 밖의 대규모점포,37.5878792,127.0065528
경상북도,성주군,성주읍,예산리 339번지 3호,롯데쇼핑(주)롯데슈퍼 성주점,그 밖의 대규모점포,35.9217764,128.2889290
경상북도,안동시,운흥동,247-28 홈플러스,홈플러스(주) 안동점,대형마트,36.5625739,128.7295500
경상북도,안동시,운흥동,247번지 58호,홈플러스(주) 안동점,대형마트,36.5631449,128.7301173
인천광역시,중구,인현동,1번지,중앙로지하상가,그 밖의 대규모점포,37.4762891,126.6314744
경상남도,사천시,동금동,88번지 4호,(주)서원유통 탑마트 삼천포점,그 밖의 대규모점포,34.9328363,128.0783082
경상남도,진주시,신안동,582-8,홈플러스(주)익스프레스 신안점,구분없음,35.1776516,128.0638148
부산광역시,연제구,연산9동,490번지 7호,롯데쇼핑(주)롯데슈퍼 연산점,그 밖의 대규모점포,35.1829411,129.1067877
경상남도,합천군,합천읍,합천리 698번지 2호,롯데쇼핑(주)롯데슈퍼 합천점,그 밖의 대규모점포,35.5639006,128.1604809
경상남도,밀양시,삼문동,203번지 12호,(주)서원유통 탑마트 밀양삼문점,쇼핑센터,35.4842384,128.7539787
경기도,용인시,기흥구,신갈동 62번지,롯데쇼핑(주) 롯데마트 신갈점,대형마트,37.2721717,127.1074309
경상남도,창원시,마산회원구,양덕동 84번지 14호,롯데쇼핑(주) 롯데마트 양덕점,대형마트,35.2268359,128.5827043
인천광역시,연수구,연수1동,568번지,롯데마켓999 연수1동점,,37.4196252,126.6776116
경기도,동두천시,지행동,"718번지 2호 성지에스엔비타워 103,104호",홈플러스(주)익스프레스동두천지행점,구분없음,37.8914825,127.0524929
부산광역시,남구,문현4동,358번지 9호,롯데쇼핑(주)롯데슈퍼 문현점,그 밖의 대규모점포,35.1361159,129.0712792
인천광역시,연수구,청학동,502번지 4호,롯데마트연수점,대형마트,37.4160339,126.6741199
인천광역시,남동구,만수1동,935번지 1호,롯데슈퍼 인천만수가맹점,구분없음,37.4511393,126.7277903
인천광역시,연수구,연수1동,568번지,롯데마켓999 연수1동점,,37.4196252,126.6776116
전라남도,나주시,송월동,1106번지 2호,롯데쇼핑(주) 롯데마트 나주점,대형마트,35.0136517,126.7133512
경기도,성남시,분당구,백현동 551번지 B101호,홈플러스(주) 익스프레스 분당동판교점,구분없음,37.3883796,127.1150214
대전광역시,대덕구,송촌동,460번지 4호,홈플러스 주식회사 익스프레스 송촌점,구분없음,36.3666202,127.4386744
서울특별시,성북구,동선동1가,1번지 2호,유타쇼핑몰,쇼핑센터,37.5928289,127.0173413
서울특별시,서초구,방배1동,816번지 1호,롯데슈퍼 방배2점,그 밖의 대규모점포,37.3069,127.986
서울특별시,동작구,상도동,530번지,홈플러스 익스프레스 상도3점,구분없음,37.4968414,126.9435922
서울특별시,동작구,상도2동,414번지,홈플러스 익스프레스 상도2점,구분없음,37.5071667,126.9497861
울산광역시,남구,옥동,154번지 4호,GS슈퍼 울산옥동점,구분없음,35.5216343,129.2870543
경상남도,진주시,평안동,195번지 한화갤러리아백화점,갤러리아백화점 진주점,백화점,35.1966901,128.0823418
경상북도,영주시,휴천동,693번지 9호,롯데쇼핑(주)롯데슈퍼 영주점,구분없음,36.8164977,128.6278469
충청북도,증평군,증평읍,신동리 424번지,(주)지에스리테일 증평점,그 밖의 대규모점포,36.7811237,127.5784258
서울특별시,성북구,월곡1동,62번지 1호,롯데슈퍼하월곡점,,37.6034724,127.0369817
서울특별시,구로구,개봉1동,156번지 18호 외 1필지 대림프라자 101호,홈플러스 익스프레스 개봉점,구분없음,37.4976754,126.8554061
서울특별시,구로구,오류2동,160번지 외 2필지,홈플러스 익스프레스 서울오류점,복합쇼핑몰,37.4915286,126.8397165
광주광역시,서구,풍암동,423번지 2호,롯데아울렛 광주 월드컵점,쇼핑센터,35.1358197,126.8742932
경기도,화성시,봉담읍,동화리 133번지 1호 외 25필지,이마트 봉담점,대형마트,37.2225045,126.9720972
충청북도,청주시,서원구,수곡동 334번지,홈플러스(주)익스프레스 수곡점,구분없음,36.6187028,127.4802289
충청북도,청주시,상당구,용암동 1592-2번지 1층,홈플러스 익스프레스 청주 용암점,구분없음,36.6104675,127.5037113
충청북도,청주시,흥덕구,봉명동 189-1번지,(주)지에스리테일 청주봉명점,구분없음,36.6419356,127.4611592
충청북도,청주시,서원구,개신동 616번지,홈플러스(주)익스프레스 청주개신점,구분없음,36.6212254,127.4469458
경기도,시흥시,정왕2동,2319번지 3호 101호,롯데마켓 999 시흥정왕역점,,37.677991,126.745289
경상남도,양산시,북부동,228번지 8호,(주)서원유통 탑마트 양산북부점,대형마트,35.3495451,129.0424270
경상남도,양산시,삼호동,861번지 웅상신도시푸르지오 116(주상가)동 101호,홈플러스(주) 익스프레스 삼호점,전문점,35.4056665,129.1727592
경상남도,양산시,북정동,903번지 3호,(주)서원유통 탑마트 양산북정점,대형마트,35.3573983,129.0415362
경상남도,양산시,덕계동,732번지,(주)메가마트 덕계점,구분없음,35.3738472,129.1513125
부산광역시,해운대구,반여1동,1199번지 21호,(주)이마트에브리데이 부산반여점,구분없음,35.2025923,129.1184699
부산광역시,해운대구,재송1동,"1200번지 더샵센텀파크1차아파트 상가5동 201, 203호",GS수퍼 해운대센텀점,대형마트,35.1782703,129.1220004
서울특별시,마포구,연남동,573번지 코오롱아파트,홈플러스익스프레스 연남점,복합쇼핑몰,37.5645044,126.9204332
충청북도,충주시,용산동,1639번지,지에스더프레시(충주용산점),그 밖의 대규모점포,36.9612395,127.9400395
전라남도,고흥군,고흥읍,남계리 231번지 1호,(주)이마트에브리데이 고흥점,그 밖의 대규모점포,34.6162869,127.2916800
경기도,광주시,삼동,"443번지 외 3필지(440,441,442-1)",TOP PRICE WHOLESALE,대형마트,37.4110331,127.1954220
경기도,의왕시,오전동,892 의왕서해그랑블(블루스퀘어),(주)이마트 의왕점,대형마트,37.3503562,126.9735569
서울특별시,성북구,길음1동,1284번지 삼성래미안3차아파트,GS슈퍼마켓 길음뉴타운점,그 밖의 대규모점포,37.6075476,127.0179395
서울특별시,성북구,길음1동,1280번지 6호,GS수퍼마켓 길음점,그 밖의 대규모점포,37.6117972,127.0161541
대구광역시,북구,구암동,652번지 1호,홈플러스(주)익스프레스 구암2점,그 밖의 대규모점포,35.9312425,128.5567950
충청북도,청주시,서원구,산남동 492번지,(주)농협유통 하나로마트 산남점,구분없음,36.6120618,127.4724120
충청북도,청주시,상당구,탑동 34-8번지,(주)이마트에브리데이 탑동점,구분없음,36.6318666,127.5007758
충청북도,청주시,서원구,분평동 1387번지 1층,(주)농협유통 하나로마트 분평점,구분없음,36.6080878,127.4879980
충청북도,청주시,서원구,모충동 128-1번지,(주)이마트에브리데이 모충동점,구분없음,36.6220563,127.4850824
서울특별시,양천구,신정7동,324번지 10호 굿모닝탑 103~108호,홈플러스(주)익스프레스 신정3점,구분없음,37.5152299,126.8591259
경기도,성남시,분당구,이매동 131번지 2호 명건빌딩 101~103호,홈플러스(주)익스프레스 이매점,복합쇼핑몰,37.4051581,127.1217235
경기도,부천시,원미구,중2동 1110번지 위브더스테이트아파트 1층,홈플러스(주)익스프레스중동점,구분없음,37.4990988,126.7778577
경기도,부천시,원미구,중1동 1145번지 2호,홈플러스(주)익스프레스부천중동2점,복합쇼핑몰,37.5013106,126.7708204
경기도,부천시,원미구,도당동 131번지 1호,홈플러스(주)익스프레스도당점,구분없음,37.5199866,126.7940341
경기도,부천시,원미구,상1동 401번지 1호,홈플러스(주)익스프레스부천상동점,구분없음,37.4913176,126.7528734
경기도,부천시,원미구,중4동 1034번지 4호,홈플러스(주)익스프레스부천중동4점,구분없음,37.5050082,126.7653828
서울특별시,강서구,화곡동,970번지 2호,홈플러스익스프레스 화곡2점,그 밖의 대규모점포,37.5474724,126.8494996
부산광역시,해운대구,재송1동,1200번지 더샵센텀파크1차아파트 상가7동 101호,홈플러스 익스프레스 부산센텀점,구분없음,35.1782703,129.1220004
부산광역시,해운대구,좌3동,1270번지 2호 건우빌딩 1층,홈플러스 익스프레스 좌동점,구분없음,35.1734464,129.1676206
부산광역시,해운대구,좌2동,1485번지 5호,홈플러스 익스프레스 좌동2점,구분없음,35.1684917,129.1786507
부산광역시,해운대구,좌2동,1443번지 3호,홈플러스 익스프레스 부산좌산점,구분없음,35.1692993,129.1832457
충청남도,당진시,읍내동,250번지,(주)지에스리테일 당진점,복합쇼핑몰,36.8970195,126.6340295
부산광역시,사하구,괴정1동,1016번지 1호,괴정시장 종합상가,그 밖의 대규모점포,35.184485,128.068982
강원특별자치도,원주시,단계동,1123번지 원주시티쇼핑몰,에이케이플라자(주) 원주점,쇼핑센터,37.3457109,127.9275785
충청북도,청주시,청원구,율량동 883번지,롯데쇼핑(주)롯데슈퍼율량점,구분없음,36.6693228,127.4884187
서울특별시,송파구,석촌동,235번지 17호,롯데쇼핑(주)롯데슈퍼석촌점,구분없음,37.5023634,127.0989137
서울특별시,송파구,송파2동,"121번지 한양2차아파트 1층 6,7호호",롯데쇼핑(주)롯데슈퍼송파점,구분없음,37.28045,127.114662
서울특별시,양천구,목5동,903번지 목동3단지아파트 관리동상가 105호,롯데슈퍼 목동2점,구분없음,37.5343613,126.8729411
서울특별시,송파구,오금동,615번지,농협하나로마트방이역점,구분없음,37.5101642,127.1276757
경상북도,문경시,점촌동,272번지 36호,(주)지에스리테일 문경점,그 밖의 대규모점포,36.5943457,128.1999248
부산광역시,동구,좌천1동,688번지 1호,홈플러스 익스프레스 좌천점,구분없음,35.136394,129.069197
부산광역시,사하구,다대1동,1548번지 18호,홈플러스(주) 익스프레스 다대포점,대형마트,35.0530056,128.9615541
경기도,고양시,일산서구,일산3동 1060번지 뉴시티프라자 1층,홈플러스 익스프레스 후곡2점,구분없음,37.6788513,126.7644641
경기도,고양시,덕양구,성사1동 501번지 2호 명지캐럿 101호,홈플러스 익스프레스 고양성사점,구분없음,37.6585050,126.8388481
경기도,부천시,원미구,중2동 1107번지 위브더스테이트아파트,롯데슈퍼 중동점,그 밖의 대규모점포,37.5010551,126.7779572
경기도,부천시,소사구,"소사본3동 197번지 2,4,5호",롯데슈퍼 소사점,구분없음,35.017178,126.717069
경기도,안성시,영동,410번지 외4필지,(주)지에스리테일 안성점,그 밖의 대규모점포,37.0061212,127.2743025
서울특별시,송파구,풍납동,163번지,홈플러스(주)익스프레스 풍납점,구분없음,37.5334343,127.1182161
서울특별시,송파구,풍납2동,400번지 5호 101호,롯데쇼핑(주)롯데슈퍼풍납점,구분없음,37.5282474,127.1170358
부산광역시,서구,서대신동2가,3번지 1호,홈플러스(주)익스프레스 서대신점,복합쇼핑몰,35.1122454,129.0164698
경상남도,거제시,상동동,34번지,홈플러스(주)익스프레스 거제상동점,구분없음,34.8643612,128.6401692
경상남도,거제시,고현동,988번지 32호,홈플러스(주)익스프레스 거제고현점,구분없음,34.8961817,128.6287820
경기도,고양시,일산서구,일산3동 1080번지 모아프라자 104호,홈플러스(주) 익스프레스 후곡점,구분없음,37.6774888,126.7691255
서울특별시,광진구,구의3동,212번지 2호,홈플러스익스프레스 구의2점,구분없음,37.5407137,127.0941124
서울특별시,강서구,방화1동,187번지 1호,롯데쇼핑(주)롯데슈퍼 방화점,그 밖의 대규모점포,35.197618,128.083188
서울특별시,강서구,내발산동,719번지 6호,롯데쇼핑(주)롯데슈퍼 우장산점,그 밖의 대규모점포,37.5506818,126.8358056
경기도,포천시,영북면,운천리 345번지 6호,(주)이마트에브리데이 영북점,구분없음,38.0906998,127.2752768
충청남도,천안시,서북구,불당동 1289번지 외1,펜타포트 복합쇼핑몰,그 밖의 대규모점포,36.7982840,127.1013630
서울특별시,동작구,대방동,341번지 2호,(주)홈플러스 대방점,그 밖의 대규모점포,37.5120005,126.9259445
경기도,수원시,영통구,"이의동 1332 광교C1 호반베르디움, Summit Place광교",롯데쇼핑(주) 롯데마트 광교점,대형마트,37.2906758,127.0504755
경기도,안양시,동안구,"호계동 1039번지 1039, 1039-1, 1053-1",롯데쇼핑(주)롯데백화점 평촌점,쇼핑센터,37.3902376,126.9504777
서울특별시,노원구,공릉동,323번지 35호,홈플러스(주)익스프레스 공릉점,구분없음,37.6285335,127.0711080
경기도,고양시,일산동구,중산동 1669번지 3호,롯데쇼핑(주) 롯데슈퍼일산점,구분없음,37.6822106,126.7783252
서울특별시,도봉구,창동,628번지 20호,(주)이마트에브리데이 창동점,구분없음,37.6446690,127.0351757
경상남도,거제시,장승포동,342번지,(주)서원유통 탑마트 장승포점,구분없음,34.8710902,128.7303438
전북특별자치도,군산시,나운동,155번지 세경아파트상가 지하 1층,이마트에브리데이 나운동점,그 밖의 대규모점포,35.9608189,126.7016665
강원특별자치도,춘천시,후평2동,692번지 6호,GS수퍼마켓 춘천후평점,그 밖의 대규모점포,37.8810167,127.7462533
부산광역시,북구,만덕1동,"216번지 7호 그린코아상가 1,2,3",홈플러스(주) 익스프레스 부산만덕점,그 밖의 대규모점포,36.628968,127.375864
서울특별시,용산구,한남동,631번지 5호 허준빌딩,롯데슈퍼 한남점(가맹점),구분없음,37.5325795,127.0056784
서울특별시,은평구,갈현2동,527번지 13호,홈플러스 익스프레스 갈현점,그 밖의 대규모점포,37.6150427,126.9100111
서울특별시,마포구,구수동,61번지,롯데슈퍼 마포점,복합쇼핑몰,37.5459573,126.9326725
대구광역시,달성군,현풍읍,원교리 113번지,(주)서원유통 탑마트 현풍점,대형마트,35.6920942,128.4451222
대전광역시,서구,괴정동,91번지 6호,홈플러스(주) 익스프레스 괴정점,대형마트,36.3342707,127.3816736
경기도,고양시,일산서구,탄현동 139번지 32호,홈플러스(주)익스프레스 탄현점,구분없음,37.6979365,126.7654095
경기도,고양시,일산서구,탄현동 1576번지 5호,홈플러스(주) 익스프레스 탄현2점,구분없음,37.6905254,126.7631223
부산광역시,사하구,장림1동,312번지,(주)서원유통 탑마트 장림점,그 밖의 대규모점포,35.0807388,128.9764760
부산광역시,사하구,감천1동,577번지,(주)서원유통 탑마트 감천점,그 밖의 대규모점포,35.0921028,128.9958676
광주광역시,광산구,신가동,1012번지 우미이노스빌 상가동,롯데쇼핑(주) 롯데슈퍼 신가점,그 밖의 대규모점포,35.1842220,126.8358442
부산광역시,해운대구,우1동,1407번지 해운대두산위브제니스,제니스 스퀘어,그 밖의 대규모점포,35.1566334,129.1450681
서울특별시,광진구,구의2동,49번지 4호,롯데 FRESH 아차산점,구분없음,37.5527158,127.0919682
서울특별시,성동구,금호동1가,481번지 5호,홈플러스(주) 익스프레스 금호점,구분없음,37.5546755,127.0209889
충청남도,천안시,동남구,원성동 126번지 3호,(주)지에스리테일 천안점,그 밖의 대규모점포,36.8054318,127.1577383
충청남도,천안시,동남구,신부동 84번지 1호,롯데쇼핑(주)롯데슈퍼 신부점,복합쇼핑몰,36.8152893,127.1585740
경기도,의정부시,민락동,849번지,이마트 의정부점,대형마트,37.7431637,127.1023459
경기도,의정부시,신곡동,560번지,롯데슈퍼 신곡점,복합쇼핑몰,37.7402249,127.0560477
경상남도,김해시,진영읍,진영리 1612-1,홈플러스 익스프레스 김해진영점,구분없음,35.3083267,128.7306218
서울특별시,은평구,역촌동,17번지 1호,롯데쇼핑(주) 롯데슈퍼 역촌점,그 밖의 대규모점포,37.6061222,126.9224702
부산광역시,서구,서대신동2가,213번지 7호,(주)서원유통 탑마트 서대신점,그 밖의 대규모점포,35.1111882,129.0135027
부산광역시,서구,남부민1동,685번지,(주)서원유통 탑마트 남부민점,그 밖의 대규모점포,35.0926393,129.0244370
서울특별시,도봉구,창1동,651번지 36호,롯데프레쉬 창동점,구분없음,37.6467251,127.0355494
부산광역시,해운대구,반여1동,1406번지 1호,홈플러스(주) 부산반여점,대형마트,35.1965177,129.1157094
서울특별시,도봉구,쌍문2동,19번지,롯데슈퍼 쌍문점,구분없음,37.6592018,127.0353611
서울특별시,도봉구,방학3동,271번지 2호,롯데슈퍼 방학점,구분없음,37.6608963,127.0266906
부산광역시,사하구,다대1동,1624번지 다대롯데캐슬몰운대아파트 제주상가동 지하1층호,(주)지에스리테일 다대점,그 밖의 대규모점포,35.0566514,128.9656430
경상남도,양산시,중부동,685번지 2호,(주)모다이노칩 양산점,전문점,35.3389181,129.0279689
부산광역시,남구,문현3동,205번지 2호,(주)메가마트 문현점,그 밖의 대규모점포,35.1375621,129.0726385
경기도,부천시,원미구,역곡동 33번지 5호,홈플러스(주)익스프레스 부천역곡점,복합쇼핑몰,37.4869981,126.8054488
부산광역시,북구,만덕3동,774번지 7호,(주)지에스리테일 만덕점,그 밖의 대규모점포,35.2107543,129.0255958
부산광역시,북구,덕천1동,370번지,(주)메가마트 덕천점,구분없음,35.2141870,129.0224357
부산광역시,북구,구포동,654번지 11호,(주) 지에스리테일 구포점,그 밖의 대규모점포,35.2055884,129.0038547
인천광역시,부평구,부개동,210번지 송신빌딩,홈플러스 익스프레스 부개역점,그 밖의 대규모점포,37.4890051,126.7396721
충청남도,공주시,옥룡동,338번지 1호,(주)지에스리테일 공주점,그 밖의 대규모점포,36.4555769,127.1343134
서울특별시,광진구,중곡2동,157번지 1호,홈플러스(주)익스프레스 중곡점,구분없음,37.5576316,127.0800453
전북특별자치도,임실군,관촌면,관촌리 497번지,오수관촌농협관촌지점하나로마트,그 밖의 대규모점포,35.6744265,127.2705264
서울특별시,성동구,금호동3가,1331번지,홈플러스(주) 익프스레스 금호2점,구분없음,37.5499725,127.0164481
서울특별시,성북구,하월곡동,230번지 동일하이빌뉴시티아파트,이마트 하월곡점,대형마트,37.6050598,127.0310039
광주광역시,광산구,장덕동,1678번지,롯데쇼핑(주)롯데아울렛 수완점,쇼핑센터,35.1891968,126.8193677
경기도,성남시,분당구,이매동 123번지 이매촌아파트 상가동 비01호,(주)이마트에브리데이 이매동점,구분없음,37.3923994,127.1269432
서울특별시,성동구,왕십리2동,966번지 11호,홈플러스(주) 익스프레스 왕십리점,구분없음,37.5629181,127.0321213
경상북도,포항시,북구,우현동 115번지 2호,(주)서원유통 탑마트 포항우현점,구분없음,36.0504633,129.3594458
부산광역시,기장군,기장읍,서부리 76번지 1호,주식회사 서원유통 탑마트 기장서부점,대형마트,35.2456672,129.2100073
부산광역시,기장군,기장읍,청강리 297번지,주식회사 서원유통 탑마트 기장점,대형마트,35.2370880,129.2172545
경기도,김포시,북변동,824번지,홈플러스(주)익스프레스 북변점,구분없음,37.6216384,126.7203090
서울특별시,서대문구,홍제동,469번지 인왕산 한신휴플러스,롯데슈퍼 홍제2점,구분없음,37.5852286,126.9473673
경기도,김포시,사우동,237번지 2호 외 2필지,(주)지에스리테일 GS수퍼 김포사우점,구분없음,37.6192868,126.7174297
서울특별시,은평구,신사1동,20번지 7호,홈플러스(주)익스프레스 신사점,그 밖의 대규모점포,37.5984713,126.9113265
경기도,안양시,만안구,안양8동 559번지 2호,홈플러스(주)익스프레스 안양점,구분없음,37.3827008,126.9290186
서울특별시,동작구,사당동,"105번지 신동아상가 제1층 101~105, 110호",(주)이마트에브리데이 사당동점,그 밖의 대규모점포,37.4896372,126.9759646
광주광역시,북구,두암동,985번지 1호,롯데쇼핑(주)롯데슈퍼두암점,구분없음,35.1624984,126.9349422
인천광역시,남구,학익2동,663번지 1호,홈플러스 익스프레스 인천학익점,그 밖의 대규모점포,37.4389203,126.6751784
인천광역시,남구,주안8동,1523번지 7호,홈플러스익스프레스 인천주안2점,복합쇼핑몰,37.4479082,126.6861637
서울특별시,송파구,가락동,88번지 2호,(주)이마트에브리데이 가락동점,구분없음,37.4957098,127.1185036
경기도,용인시,처인구,김량장동 13번지,롯데슈퍼 용인점,구분없음,37.2306636,127.2104965
대전광역시,대덕구,법동,191번지 1호 보람아파트 상가동 지층 30호,(주)이마트에브리데이 법동점,구분없음,36.3690528,127.4310902
경기도,김포시,감정동,676번지,(주)지에스리테일 GS수퍼 김포감정점,구분없음,37.6260589,126.6998740
서울특별시,중랑구,면목7동,650번지 카멜리아 쇼핑센타 1층,(주)이마트에브리데이 면목동점,그 밖의 대규모점포,37.5795530,127.0863140
인천광역시,서구,청라동,159번지 1호 롯데마트,롯데쇼핑 (주) 롯데마트 청라점,대형마트,37.5309167,126.6469679
충청남도,아산시,모종동,555번지 9호,주식회사엠지엘,복합쇼핑몰,36.7899237,127.0227026
서울특별시,도봉구,창2동,628번지 20호,(주)에브리데이리테일 창동점,구분없음,37.6446690,127.0351757
경기도,군포시,산본동,1155번지 1호 가야아파트 종합상가,홈플러스(주)익스프레스 군포오금점,구분없음,37.3515081,126.9242610
서울특별시,노원구,공릉2동,89번지 1호 대덕프라자 지층 101~102호,(주)이마트에브리데이 공릉동점,구분없음,37.6205653,127.0832680
서울특별시,노원구,월계3동,18번지 그랑빌아파트주상가 지층동 101호,(주)지에스리테일 GS슈퍼 노원월계점,구분없음,37.6178054,127.0685797
경기도,안양시,만안구,석수3동 787번지 3호,홈플러스(주)익스프레스 안양석수점,복합쇼핑몰,37.624874,127.073838
서울특별시,동대문구,장안동,580번지,노브랜드 동대문 장안점,대형마트,37.5662790,127.0622143
강원특별자치도,원주시,단계동,1123번지,롯데쇼핑(주)롯데마트 원주점,대형마트,37.3457109,127.9275785
경기도,하남시,신장동,427번지 53호,(주)지에스리테일 하남점,구분없음,37.5402888,127.2078853
충청남도,아산시,둔포면,신항리 17번지 3호,퍼스트빌리지 아울렛,쇼핑센터,36.8967460,127.0307396
서울특별시,종로구,신문로1가,24번지 고려빌딩 1층,홈플러스(주)익스프레스 광화문점,복합쇼핑몰,37.5704982,126.9747578
서울특별시,은평구,불광1동,239번지 9호,홈플러스(주)익스프레스 불광점,그 밖의 대규모점포,37.6179720,126.9327978
서울특별시,마포구,도화동,353번지,홈플러스익스프레스 도화점,그 밖의 대규모점포,37.5377843,126.9517973
경기도,수원시,권선구,금곡동 1116번지 홈플러스,홈플러스(주) 서수원점,대형마트,37.2743450,126.9553045
전북특별자치도,임실군,임실읍,이도리,임실축협하나로마트,그 밖의 대규모점포,35.618013,127.280298
대구광역시,수성구,황금동,366번지 캐슬골드파크 2단지,롯데 프리미엄 푸드마켓 황금점,구분없음,35.8416113,128.6337874
충청북도,진천군,진천읍,교성리 206번지 1호,(주)지에스리테일 진천점,그 밖의 대규모점포,36.8537459,127.4436819
대구광역시,수성구,중동,333번지 7호,롯데쇼핑(주)롯데슈퍼 수성점,구분없음,35.8455543,128.6119485
전북특별자치도,임실군,강진면,갈담리 279번지,임실농협 강진하나로마트,그 밖의 대규모점포,35.5298714,127.1630800
전북특별자치도,임실군,오수면,오수리 328번지,오수관촌농협 오수하나로마트,그 밖의 대규모점포,35.5376453,127.3285632
전북특별자치도,임실군,임실읍,이도리 233번지 3호,임실농협 임실하나로마트,그 밖의 대규모점포,35.6144317,127.2830643
서울특별시,강북구,미아동,1351번지,(주)이마트에브리데이 미아동점,구분없음,37.6227405,127.0270191
서울특별시,송파구,거여2동,27번지 5호 B101호,홈플러스(주)익스프레스 거여점,구분없음,37.4928413,127.1446622
경기도,오산시,오산동,877번지 21호,롯데쇼핑(주)롯데슈퍼 오산점,구분없음,37.1482908,127.0686462
부산광역시,중구,남포동6가,1번지,(주)농협유통 하나로마트 자갈치점,복합쇼핑몰,35.0973083,129.0276365
충청남도,금산군,금산읍,신대리 677번지 1호,금산수삼시장(주),그 밖의 대규모점포,36.0997247,127.4998570
서울특별시,영등포구,대림3동,784번지,롯데슈퍼 대림점,구분없음,37.5033119,126.8958571
경상남도,진주시,평거동,204번지 1호,(주)지에스리테일 진주평거점,구분없음,35.1730105,128.0608661
경기도,의정부시,의정부2동,168번지 54호 외 7필지,(주)신세계 의정부점,복합쇼핑몰,37.7401844,127.0454534
경상남도,김해시,어방동,499 대우유토피아아파트상가 B102호,홈플러스 익스프레스 김해어방점,구분없음,35.2432877,128.9013347
강원특별자치도,평창군,진부면,하진부리 206번지 9호,롯데쇼핑(주)롯데슈퍼평창진부점,전문점,37.6524606,128.5170866
경기도,용인시,처인구,김량장동 254번지 1호,(주)지에스리테일 용인점,구분없음,37.2359539,127.2028517
경기도,수원시,영통구,매탄동 1352번지,홈플러스(주)익스프레스 매탄점,구분없음,37.2618297,127.0414073
경기도,수원시,팔달구,화서동 212번지,홈플러스(주)익스프레스 화서점,구분없음,37.2813831,126.9964723
전북특별자치도,진안군,진안읍,군하리 309번지 4호,롯데쇼핑(주)롯데슈퍼 진안점,쇼핑센터,35.7858643,127.4225472
경기도,파주시,문발동,104번지 1호 외,롯데프리미엄아울렛파주점,복합쇼핑몰,37.7216913,126.7045417
서울특별시,관악구,은천동,937번지 6호 동영빌딩 1층,(주)이마트에브리데이 봉천동점,구분없음,37.4864847,126.9418041
경상북도,청도군,청도읍,고수8리 817번지 1호,(주)서원유통 탐마트 청도점,그 밖의 대규모점포,35.092759,129.023299
서울특별시,관악구,중앙동,463번지 4호 메카플러스 지하1층,홈플러스 익스프레스 봉천점,구분없음,37.4867214,126.9474877
전라남도,목포시,연산동,346번지,유한회사 롯데프레쉬연산가맹점,그 밖의 대규모점포,34.8121656,126.3848606
경상남도,함양군,함양읍,교산리 167번지 2호,롯데쇼핑(주)롯데슈퍼함양점,복합쇼핑몰,35.5213429,127.7309058
경기도,부천시,오정구,오정동 543번지 1호,홈플러스(주)익스프레스오정점,구분없음,37.5295482,126.7865701
경기도,부천시,원미구,중동 771번지,홈플러스(주)익스프레스중동3점,구분없음,37.4927256,126.7665675
경기도,광명시,일직동,163번지 3호,코스트코 홀세일 광명점,대형마트,37.4207191,126.8864559
경상북도,포항시,남구,구룡포읍 구룡포리 963번지 1호 외 1필지,구룡포농협 하나로마트,그 밖의 대규모점포,35.9902891,129.5544245
경상북도,포항시,북구,죽도동 580번지 4호,포항농협 하나로마트 동부점,그 밖의 대규모점포,36.0343518,129.3694560
경상북도,포항시,북구,죽도동 20번지 113호 외 2필지,(주)서원유통 탑마트 포항죽도점,구분없음,36.0334658,129.3687985
대구광역시,동구,방촌동,907번지 7호,(주)이마트에브리데이 방촌동점,쇼핑센터,35.8818802,128.6650701
서울특별시,강동구,길동,384번지 1호,롯데쇼핑㈜롯데슈퍼길동점,구분없음,37.5385286,127.1363996
서울특별시,강동구,길동,391번지 2호,홈플러스(주)익스프레스 길동점,구분없음,37.5385522,127.1406200
서울특별시,강동구,성내1동,451번지,(주)농협유통 하나로마트 성내점,구분없음,37.5287986,127.1203201
경상북도,포항시,북구,기계면 현내리 473번지 1호,서포항농협 하나로마트 기동점,그 밖의 대규모점포,36.0696053,129.2097368
경상북도,포항시,북구,청하면 미남리 385번지 2호,신포항농협 하나로마트,그 밖의 대규모점포,36.1974769,129.3389573
경기도,부천시,원미구,약대동 122번지,(주)지에스리테일부천약대점,구분없음,37.5136160,126.7716220
서울특별시,강서구,화곡3동,1051번지 27호,롯데쇼핑(주)롯데슈퍼화곡3동점,그 밖의 대규모점포,37.5428620,126.8385710
서울특별시,광진구,중곡4동,93번지 2호,홈플러스익스프레스 중곡2점,구분없음,37.5549114,127.0890929
서울특별시,강서구,화곡1동,343번지 52호,롯데쇼핑(주)롯데슈퍼화곡점,그 밖의 대규모점포,37.5323257,126.8460967
인천광역시,남구,"용현1,4동",92번지 17호,롯데쇼핑(주)롯데슈퍼 인하대점,그 밖의 대규모점포,37.4503552,126.6610293
서울특별시,동작구,대방동,335번지 17호,(주)이마트에브리데이 대방동점,복합쇼핑몰,37.4997764,126.9300068
경기도,포천시,일동면,기산리 82번지 35호,롯데쇼핑(주) 롯데슈퍼 포천일동점,그 밖의 대규모점포,37.9518411,127.3113714
서울특별시,동작구,사당동,147번지 29호 이수자이,(주)이마트에브리데이 이수점,복합쇼핑몰,37.4861382,126.9818110
서울특별시,동작구,상도동,527번지,(주)이마트에브리데이 상도동점,그 밖의 대규모점포,37.5060030,126.9438317
서울특별시,강서구,방화2동,533번지 9호,롯데쇼핑(주)롯데슈퍼개화산점,그 밖의 대규모점포,37.5716934,126.8076439
서울특별시,광진구,화양동,10번지 1호,(주)지에스리테일GS수퍼 광진화양점,구분없음,37.5435080,127.0699118
서울특별시,영등포구,신길3동,259번지 4호,홈플러스(주) 익스프레스 신길3점,구분없음,37.5063577,126.9095682
서울특별시,영등포구,신길동,101번지 7호,홈플러스(주) 익스프레스 신길2점,구분없음,37.5142347,126.9185445
경상북도,포항시,북구,죽도동 641번지 1호 외 8필지,롯데쇼핑(주)롯데슈퍼 포항점,복합쇼핑몰,36.0213455,129.3549523
대구광역시,북구,복현2동,539번지 123호,롯데쇼핑(주)롯데슈퍼 복현점,그 밖의 대규모점포,35.9048139,128.6182730
경상남도,창원시,의창구,팔용동 164-13,(주)서원유통 탑마트 뉴창원점,복합쇼핑몰,35.2575270,128.6094744
경상남도,창원시,성산구,남양동 24번지 피오르빌아파트상가 지하1층,홈플러스익스프레스 창원남양점,구분없음,35.2095950,128.7017486
경상남도,창원시,마산회원구,석전1동 259번지 4호,(주)서원유통 탑마트 마산석전점,그 밖의 대규모점포,37.446579,126.667463
부산광역시,해운대구,중1동,301번지 1호,(주)서원유통 탑마트 해운대점,대형마트,35.1688636,129.1709264
부산광역시,해운대구,반송3동,278번지 1호,(주)서원유통 탑마트 반송점,대형마트,37.495557,127.121786
경상남도,창원시,마산회원구,내서읍 호계리 385번지 2호 외 1필지,(주)서원유통 탑마트 마산호계점,그 밖의 대규모점포,35.2592673,128.5219690
부산광역시,동래구,사직동,43-9,(주)농협유통 하나로마트 사직점,구분없음,35.1979108,129.0576527
부산광역시,동래구,온천3동,1250번지 1호,(주)서원유통 탑마트 온천점,구분없음,35.2036658,129.0660245
부산광역시,동래구,사직2동,28번지 9호,(주)서원유통 탑마트 사직점,구분없음,35.1999909,129.0577148
경상남도,창원시,마산합포구,오동동 18번지 61호 기산프라자,(주)서원유통 탑마트 마산점,그 밖의 대규모점포,35.2066891,128.5805769
경상남도,창원시,성산구,반지동 23 대동아파트,탑마트 창원반지점,그 밖의 대규모점포,35.2446908,128.6699975
경상북도,구미시,형곡1동,143번지 19호 외 2필지,(주)이마트에브리데이 형곡동점,그 밖의 대규모점포,36.1144009,128.3373890
경상남도,창원시,성산구,상남동 45번지 1호 스카이웰빙파크,롯데쇼핑(주)롯데슈퍼상남점,구분없음,35.2166948,128.6920668
서울특별시,강동구,명일1동,312번지 99호,(주)지에스리테일 명일점,구분없음,37.5512570,127.1440039
서울특별시,강동구,명일동,15 삼익그린맨션,(주)이마트에브리데이 명일동점,구분없음,37.5533012,127.1484774
서울특별시,강동구,암사3동,414번지 18호 강동롯데캐슬퍼스트아파트,(주)지에스리테일 암사캐슬점,구분없음,37.5552245,127.1378184
서울특별시,강동구,암사1동,473번지 3호,홈플러스(주) 익스프레스 암사점,구분없음,37.5524093,127.1338631
서울특별시,강동구,성내1동,521번지,홈플러스(주) 익스프레스 성내점,구분없음,37.5312225,127.1273553
서울특별시,동대문구,답십리1동,530번지 11호 외1필지 지층1호~13호,이마트에브리데이 답십리점,구분없음,37.5706407,127.0501344
인천광역시,남구,숭의동,393번지 3호,홈플러스 인천숭의점,대형마트,37.4633216,126.6411238
울산광역시,북구,진장동,283번지 3호,코스트코 홀세일 울산점,대형마트,35.5706880,129.3540208
서울특별시,도봉구,창2동,628번지 20호,(주)에브리데이리테일 창동점,구분없음,37.6446690,127.0351757
경기도,성남시,수정구,수진2동 4518번지,롯데쇼핑(주)롯데슈퍼수진점(Mareket999),구분없음,37.4342641,127.1295777
경기도,성남시,분당구,서현동 94번지 3호 우성종합상가 49동 지층2호호,롯데쇼핑(주)롯데슈퍼분당서현점,구분없음,37.3797355,127.1302402
인천광역시,남동구,논현동,680번지 1호,소래포구종합어시장,그 밖의 대규모점포,37.3987743,126.7371526
서울특별시,광진구,중곡1동,229번지 5호,(주)이마트에브리데이 중곡동점,구분없음,37.5645949,127.0819286
부산광역시,사상구,주례2동,55번지 139호,(주)농협유통 하나로마트 주례점,복합쇼핑몰,35.1505364,129.0132407
부산광역시,사상구,학장동,573-1 학장반도보라타운 상가동 121호,롯데쇼핑(주) 롯데슈퍼부산학장점,구분없음,35.1375942,128.9790716
서울특별시,구로구,개봉동,"324-1, 324-11,324-13 1층",(주)이마트에브리데이 개봉동점,구분없음,37.4916943,126.8539000
서울특별시,강서구,등촌3동,689번지 외 2,(주) 이랜드리테일 강서점,백화점,37.5599794,126.8403422
충청남도,천안시,서북구,성성동 천안물류단지 상A4-1,이마트 서북점,대형마트,35.530363,127.163519
부산광역시,해운대구,좌1동,1289번지 4호,롯데슈퍼 좌1동점,대형마트,35.1776820,129.1749522
부산광역시,해운대구,좌1동,1467번지 2호,롯데슈퍼 해운대점,대형마트,35.1705351,129.1763756
인천광역시,남동구,구월동,23번지 힐캐슬프라자,(주)지에스리테일 구월점,구분없음,37.4545668,126.7118067
서울특별시,은평구,불광1동,308번지 1호,롯데쇼핑(주)롯데슈퍼범서점,그 밖의 대규모점포,37.6186194,126.9219146
서울특별시,양천구,목3동,657번지 21호,홈플러스(주)익스프레스 목동2점,구분없음,37.5449461,126.8629834
서울특별시,양천구,신정동,201번지 1호 세양청마루2차 지상1층,(주)지에스리테일 신정2점,구분없음,37.5082538,126.8645649
충청남도,아산시,배방읍,장재리 1760번지,트레이더스 홀세일 클럽 천안아산점,대형마트,36.7964976,127.1056618
서울특별시,강북구,미아동,1359번지,롯데쇼핑(주) 롯데마트 삼양점,복합쇼핑몰,37.6255909,127.0177326
부산광역시,수영구,광안동,491번지 1호,홈플러스(주) 광안점,복합쇼핑몰,35.1617712,129.1135980
서울특별시,동대문구,전농동,10번지 외7필지 전농sk아파트 주상가동,롯데쇼핑(주) 롯데슈퍼 전농점,구분없음,37.5766546,127.0604664
부산광역시,금정구,금사동,85번지 7호,(주)서원유통 탑마트 금사점,구분없음,35.2312889,129.1295073
서울특별시,동대문구,장안동,94번지 27호 외1필지 예신프라자,롯데쇼핑(주) 롯데슈퍼 장안점,구분없음,37.5808406,127.0698952
서울특별시,송파구,잠실4동,44번지 1호,홈플러스(주)익스프레스 잠실점,구분없음,37.637422,128.553141
서울특별시,송파구,방이2동,63번지 11호,롯데쇼핑(주)롯데슈퍼방이점,구분없음,37.5138518,127.1081314
부산광역시,남구,용호4동,541번지 18호,농협하나로마트 용호점,그 밖의 대규모점포,35.1129478,129.1103479
서울특별시,성북구,돈암2동,636번지,GS슈퍼마켓 돈암점,그 밖의 대규모점포,37.5978758,127.0177950
대전광역시,중구,유천동,322번지 13호 동양빌딩,홈플러스(주)익스프레스 유천점,구분없음,36.3212938,127.3942794
대전광역시,중구,오류동,175번지 8호,홈플러스(주)익스프레스 오류점,구분없음,36.3244427,127.4054851
경기도,안양시,만안구,안양3동 900번지 10호 101,롯데쇼핑(주)롯데슈퍼 안양점,복합쇼핑몰,37.4011635,126.9134571
서울특별시,관악구,봉천동,1629번지 2호,(주)지에스리테일 낙성대점,구분없음,37.4772014,126.9608011
부산광역시,사하구,다대1동,943번지 8호,(주)서원유통 탑마트 다대점,그 밖의 대규모점포,35.0567632,128.9697931
부산광역시,사하구,당리동,115번지,롯데쇼핑(주)롯데슈퍼 당리점,그 밖의 대규모점포,35.1064168,128.9753935
경상북도,안동시,송현동,564번지,안동봉화축산업협동조합 하나로마트,대형마트,36.5731298,128.6854944
경상남도,창원시,성산구,반림동 17번지 9호,반송아이필프라자,그 밖의 대규모점포,35.2360475,128.6710769
서울특별시,송파구,잠실2동,19번지 8호,롯데쇼핑(주)롯데슈퍼신천점,구분없음,37.5141177,127.0793471
서울특별시,송파구,잠실3동,35번지 2호,롯데쇼핑(주)롯데슈퍼잠실3동점,구분없음,37.5096702,127.0912978
서울특별시,동작구,사당3동,252번지 22호,홈플러스(주) 익스프레스 남성점,복합쇼핑몰,37.4842369,126.9722712
서울특별시,강북구,미아동,1357번지 6호,(주)지에스리테일GS수퍼 강북미아점,대형마트,37.6152292,127.0181322
대구광역시,달서구,본동,619번지,롯데쇼핑(주)롯데슈퍼 월성점,시장,35.8315834,128.5340987
대구광역시,중구,남산4동,2971번지 11호,롯데쇼핑(주) 롯데슈퍼남산점,구분없음,35.8629081,128.5758703
서울특별시,종로구,숭인동,76번지 롯데캐슬천지인 1층,홈플러스(주)익스프레스 숭인점,구분없음,37.5738554,127.0161891
인천광역시,남동구,만수4동,18번지 제가동 제121호 제207호 제109호 제119호,(주)지에스리테일 만수점,구분없음,37.4590620,126.7363129
부산광역시,남구,문현1동,127번지 59호,홈플러스(주) 익스프레스 문현점,그 밖의 대규모점포,35.1433810,129.0728949
경기도,성남시,분당구,"서현동 89번지 서현파크 제158호,제159호",GS수퍼마켓 분당시범단지점,구분없음,37.3831089,127.1254986
경기도,군포시,산본동,1060번지 2호,홈플러스(주)익스프레스 산본점,구분없음,37.3721878,126.9352672
경기도,성남시,분당구,서현동 312번지 3호 (312-4),GS수퍼마켓 미래점,구분없음,37.3720449,127.1401410
서울특별시,은평구,응암3동,124번지 17호,홈플러스(주)익스프레스응암점,그 밖의 대규모점포,37.5948020,126.9179746
서울특별시,관악구,봉천동,1567번지 1호,(주)지에스리테일 관악점,구분없음,37.4792573,126.9491467
서울특별시,구로구,신도림동,692번지,주식회사 현대백화점 디큐브시티,백화점,37.5086046,126.8889310
경상남도,창원시,마산합포구,해운동 34번지,(주)GS지에스리테일 마산점,그 밖의 대규모점포,35.1799131,128.5608229
경상남도,창원시,마산회원구,회원동 50번지 5호 천지리치빌,(주)GS지에스리테일 마산회원점,구분없음,35.2201177,128.5710473
서울특별시,중랑구,망우3동,410번지 1호,홈플러스(주)익스프레스 망우점,그 밖의 대규모점포,37.5949434,127.1002405
경상남도,창원시,진해구,여좌동 761번지 46호,(주)GS지에스리테일 진해여좌점,그 밖의 대규모점포,35.1535024,128.6619343
서울특별시,중랑구,면목3.8동,499번지 4호,홈플러스(주)익스프레스 면목점,그 밖의 대규모점포,37.5841153,127.0876175
부산광역시,동래구,명장2동,23번지 2호,(주)지에스리테일 명장점,구분없음,35.2067495,129.1020351
경상남도,창원시,성산구,대방동 363번지 2호,(주)지에스리테일 대방점,그 밖의 대규모점포,35.2087276,128.7071536
인천광역시,남구,학익1동,256번지 19호,(주)지에스리테일 학익점,그 밖의 대규모점포,37.4425213,126.6648194
부산광역시,남구,용호1동,176번지 30호 LG메트로시티 1005동 201호,홈플러스(주) 익스프레스 메트로시티점,그 밖의 대규모점포,35.1281534,129.1074741
경상남도,창원시,성산구,상남동 45번지 1호 성원주상가,지에스 더프레시(GS THE FRESH) 토월점,그 밖의 대규모점포,35.2166948,128.6920668
경상북도,포항시,북구,두호동 1103번지 2호,(주)지에스리테일 포항창포점,구분없음,36.0639321,129.3714994
경상북도,포항시,북구,죽도동 607번지 1호,(주)지에스리테일 포항죽도점,구분없음,36.0248831,129.3601631
경상북도,포항시,북구,두호동 1087번지,(주)지에스리테일 포항두호점,구분없음,36.0641957,129.3826034
부산광역시,해운대구,좌동,1228번지 대동타운상가 지하1층,(주)지에스리테일 대동점,대형마트,35.2004744,129.1732834
서울특별시,마포구,동교동,166번지 15호,YZ Park 홍대점,전문점,37.5575421,126.9251382
전북특별자치도,전주시,완산구,효자동1가 431번지 5호,홈플러스(주) 전주효자점,대형마트,35.8085217,127.1146897
강원특별자치도,홍천군,홍천읍,신장대리 62번지 1호,(주)지에스리테일홍천점,그 밖의 대규모점포,37.6883023,127.8836235
경상남도,거제시,고현동,970번지 10호,(주)지에스리테일거제신현점,구분없음,34.8895507,128.6207403
경상남도,거제시,옥포동,533번지 3호 외 5필지,(주)서원유통 탑마트 거제 옥포점,구분없음,34.8939147,128.6940332
충청남도,태안군,안면읍,승언리 1277번지 1호,롯데슈퍼안면도점,그 밖의 대규모점포,36.5142799,126.3432433
부산광역시,사상구,주례동,595번지 럭키종합상가 제18동 제지하층,(주)지에스리테일주례점,그 밖의 대규모점포,35.1487112,129.0027505
부산광역시,사상구,주례2동,10번지 4호 엘지신주례아파트 상가동 제지하층 제1호,(주)지에스리테일신주례점,구분없음,35.1531364,129.0123192
부산광역시,부산진구,초읍동,275번지 4호,(주)지에스리테일 초읍점,구분없음,35.1786312,129.0484409
부산광역시,부산진구,개금3동,53번지 3호 지하 1층,(주)지에스리테일 개금점,구분없음,35.1598690,129.0291874
부산광역시,부산진구,부암동,500번지 외 4필지,(주)지에스리테일 부암점,구분없음,35.1689032,129.0376310
부산광역시,부산진구,전포2동,876번지 4호,홈플러스(주)익스프레스 부전점,구분없음,35.1621759,129.0630987
울산광역시,중구,태화동,37-29,(주)지에스리테일 GS더프레시 울산태화점,구분없음,35.5543889,129.3087423
부산광역시,금정구,부곡동,333번지 1호,(주)서원유통 부곡점,구분없음,35.2231186,129.0905514
서울특별시,은평구,구산동,1번지 24호,홈플러스(주)익스프레스구산점,그 밖의 대규모점포,37.6112121,126.9171827
충청남도,서산시,잠홍동,463번지 외 7필지,이마트 서산점,대형마트,36.7883408,126.4787562
대구광역시,달서구,본리동,76번지 2호,(주)지에스리테일 GS수퍼 본리점,대형마트,35.8421427,128.5431664
대구광역시,달서구,상인동,1527번지 3호,(주)지에스리테일 GS수퍼 대구월곡점,대형마트,35.8137936,128.5462773
서울특별시,동작구,상도4동,255번지 4호,홈플러스(주) 익스프레스 상도점,쇼핑센터,37.4991561,126.9337989
서울특별시,강서구,화곡4동,830번지 1호,씨에스유통 (롯데슈퍼화곡2점),구분없음,37.5330747,126.8589653
서울특별시,동작구,흑석동,332번지,해가든프라자,그 밖의 대규모점포,37.5066777,126.9621949
전북특별자치도,전주시,완산구,효자동1가 197번지 2호,롯데쇼핑(주)롯데수퍼효자점,그 밖의 대규모점포,35.8057862,127.1275556
부산광역시,사상구,모라1동,425번지 2호,홈플러스(주)익스프레스모라점,그 밖의 대규모점포,35.1858007,128.9922428
충청북도,청주시,서원구,수곡동 904번지,(주)지에스리테일 청주점,구분없음,36.6159645,127.4721824
충청북도,청주시,서원구,사창동 357-8번지,(주)지에스리테일 청주사직점,구분없음,36.6309606,127.4674549
서울특별시,중랑구,중화2동,314번지 1호,홈플러스(주) 익스프레스 태릉점,그 밖의 대규모점포,37.5993004,127.0774767
서울특별시,서대문구,홍제동,294번지 46호 유진상가,롯데슈퍼 유진점,구분없음,37.5914096,126.9429552
서울특별시,강서구,화곡3동,1065번지 8호,홈플러스(주) 익스프레스 화곡점,그 밖의 대규모점포,37.5415874,126.8383156
서울특별시,영등포구,도림동,251번지 5호,홈플러스(주) 익스프레스 도림점,구분없음,37.5065123,126.8999696
인천광역시,미추홀구,주안동,892-1 두산주상복합아파트,홈플러스(주)익스프레스 주안점,그 밖의 대규모점포,37.4614126,126.6966454
서울특별시,양천구,신정3동,1183번지 12호,홈플러스(주)익스프레스 신정점,구분없음,37.5200552,126.8522246
경상남도,창원시,마산회원구,내서읍 호계리 65번지,홈플러스(주) 익스프레스 마산호계점,구분없음,35.2665702,128.5235756
경상남도,창원시,마산회원구,석전2동 245번지 3호,홈플러스(주) 익스프레스 석전점,구분없음,35.170909,129.174187
경상북도,경주시,현곡면,금장리 442-1 gs슈퍼마켓,GS슈퍼 경주현곡점,그 밖의 대규모점포,35.8682601,129.2027304
인천광역시,서구,신현동,134번지 25호,롯데쇼핑(주)롯데슈퍼신현점,그 밖의 대규모점포,37.5170070,126.6681840
인천광역시,서구,가좌동,가좌한신휴플러스2차아파트 단지내상가,(주)농협유통 하나로마트 가좌점,그 밖의 대규모점포,37.544801,126.864443
전라남도,무안군,무안읍,성남리 813번지 18호,주식회사 롯데슈퍼 무안점,그 밖의 대규모점포,34.9872668,126.4716616
강원특별자치도,영월군,영월읍,하송리 251번지 2호,롯데쇼핑(주) 롯데슈퍼 영월점,그 밖의 대규모점포,37.1853947,128.4647213
서울특별시,강남구,논현1동,140번지 외 44필지,영동전통시장,그 밖의 대규모점포,37.5099472,127.0236926
부산광역시,연제구,연산9동,399번지 10호,홈플러스(주) 익스프레스 토곡점,그 밖의 대규모점포,35.1881899,129.1012103
경기도,안산시,단원구,신길동 1687번지 이마트트레이더스,트레이더스 홀세일클럽 안산점,대형마트,37.3312608,126.7849714
대구광역시,달서구,감삼동,206-75,홈플러스(주) 익스프레스 감삼점,대형마트,35.8450008,128.5442632
대구광역시,달서구,용산동,934번지 1호,홈플러스(주) 익스프레스 용산점,대형마트,35.8574235,128.5308671
대구광역시,달서구,상인1동,860번지 3호,홈플러스(주) 익스프레스 상인점,대형마트,35.8206030,128.5483904
대구광역시,달서구,용산1동,414번지 5호,홈플러스(주) 익스프레스 용산2점,대형마트,35.8491553,128.5249767
대구광역시,달서구,월성1동,89번지 2호,홈플러스(주)익스프레스 월성점,대형마트,35.824818,128.526019
서울특별시,노원구,상계동,684번지,(주)지에스리테일 GS수퍼상계점,구분없음,37.6641187,127.0655834
서울특별시,노원구,공릉동,238번지 53호,롯데쇼핑(주) 롯데슈퍼공릉점,구분없음,37.6235568,127.0808915
부산광역시,연제구,연산6동,2133번지 8호,홈플러스(주) 익스프레스 부산연제점,구분없음,35.1743627,129.0924554
대구광역시,달서구,도원동,1442번지 1호,홈플러스(주) 익스프레스 도원점,복합쇼핑몰,35.8056676,128.5346301
경기도,고양시,일산동구,백석동 1242번지,홈플러스(주) 고양터미널점,대형마트,37.6432565,126.7897258
충청북도,청주시,청원구,율량동 500-3번지,홈플러스(주) 동청주점,대형마트,36.6667230,127.4950423
충청남도,아산시,풍기동,192번지 2호 외 7필지,(주)이마트 아산점,대형마트,36.7764537,127.0246339
인천광역시,연수구,동춘3동,926번지,홈플러스 인천연수점,대형마트,37.4059842,126.6837019
충청남도,아산시,배방읍,택지개발지구 M-1블럭 Y시티주상복합상가1층,롯데쇼핑(주)롯데마트 아산점,대형마트,35.104012,128.974569
충청남도,아산시,배방읍,택지개발지구 M-1블럭 Y시티주상복합상가1층,롯데쇼핑(주)롯데마트 아산점,대형마트,37.557576,126.925119
서울특별시,양천구,목1동,962번지 1호 목동트라팰리스 내,(주)이마트 목동점,대형마트,37.5260134,126.8703992
충청북도,제천시,강제동,684번지,(주)이마트 제천점,대형마트,37.1234589,128.2229366
대전광역시,서구,월평동,510번지,트레이더스 홀세일 클럽 월평점,복합쇼핑몰,36.3576802,127.3629735
경기도,군포시,산본동,1123번지,(주)이마트 산본점,대형마트,37.3611247,126.9315048
대구광역시,동구,봉무동,1545번지,롯데아울렛 이시아폴리스점,쇼핑센터,35.9215564,128.6373451
부산광역시,부산진구,부암1동,257번지,롯데쇼핑(주) 롯데키즈마트 부산점,대형마트,35.1632845,129.0493266
충청남도,홍성군,홍성읍,고암리 1042번지,롯데쇼핑(주)롯데마트 홍성점,대형마트,36.6010812,126.6762899
서울특별시,강남구,청담동,4번지 1호 외 9필지,SSG Food Market 백화점,백화점,37.5234165,127.0433469
경기도,평택시,안중읍,현화리 산 274번지,홈플러스 평택안중,대형마트,36.9896332,126.9183888
충청남도,보령시,명천동,129번지,홈플러스(주)보령점,복합쇼핑몰,36.3437867,126.6148712
대전광역시,동구,용전동,65번지 1호,홈플러스(주) 동대전점,대형마트,36.3538300,127.4373617
서울특별시,동대문구,장안동,580번지,장안위더스빌,그 밖의 대규모점포,37.5662790,127.0622143
대구광역시,중구,계산동2가,200 현대백화점,현대백화점 대구점,복합쇼핑몰,35.8667667,128.5906226
경기도,안산시,단원구,고잔동 729번지 2호,중앙제일시장,그 밖의 대규모점포,37.3145110,126.8369995
광주광역시,광산구,하남동,831번지,홈플러스(주) 광주하남점,대형마트,35.1779509,126.8054079
강원특별자치도,춘천시,소양로2가,172번지 1호,춘천서부시장,그 밖의 대규모점포,37.8845974,127.7247862
부산광역시,부산진구,부전2동,537번지 9호,부산 서면 센트럴스퀘어,그 밖의 대규모점포,35.1514671,129.0610993
경상북도,구미시,임수동,92-28,(주)이마트 동구미점,대형마트,36.1063736,128.4046861
경기도,화성시,향남읍,행정리 487번지 1호,홈플러스(주) 화성향남점,대형마트,37.1307750,126.9218274
전북특별자치도,전주시,완산구,서노송동 627번지 1호,(주)세이브존아이앤씨 전주코아점,쇼핑센터,35.8255328,127.1447885
경기도,안산시,단원구,고잔동 681번지 2호,부일프라자,그 밖의 대규모점포,37.3152974,126.8222228
경기도,수원시,팔달구,매산로1가 23번지,팅스(tings),쇼핑센터,37.2696886,127.0014937
서울특별시,강북구,번1동,413번지 3호,강북 북부시장,그 밖의 대규모점포,37.6371193,127.0293926
서울특별시,강서구,방화2동,886번지 외6필지,롯데몰 김포공항,쇼핑센터,37.5650640,126.8030045
서울특별시,마포구,서교동,490번지 1호,홈플러스 합정점,대형마트,37.5509421,126.9137874
부산광역시,중구,중앙동7가,20번지 1호,롯데마트 광복점,대형마트,35.0980088,129.0361016
서울특별시,강북구,수유3동,179번지 5호,강북종합시장,그 밖의 대규모점포,37.6429579,127.0247085
경기도,군포시,산본동,1156번지 8호 한라1차아파트 상가,홈플러스(주)익스프레스 군포수리산역점,구분없음,37.3524811,126.9271369
서울특별시,강남구,삼성2동,121번지 38호,삼성동 신도브래뉴 주상복합 상가,그 밖의 대규모점포,37.5111453,127.0524684
서울특별시,중랑구,상봉1동,500번지,홈플러스(주) 서울 상봉점,대형마트,37.5981105,127.0905253
서울특별시,마포구,공덕동,173번지 대우월드마크마포,(주)이마트 마포점,대형마트,37.5490330,126.9536495
서울특별시,마포구,신공덕동,173번지,(주)이마트 마포점,대형마트,37.5424488,126.9533812
경기도,화성시,반송동,"96, 98번지",타임테라스(TIMES TERRACE),복합쇼핑몰,37.2049405,127.0688768
충청남도,아산시,배방읍,택지개발지구 M-1블럭 Y시티주상복합상가1층,롯데쇼핑(주) 롯데마트 아산점,그 밖의 대규모점포,35.104012,128.974569
충청남도,아산시,배방읍,택지개발지구 M-1블럭 Y시티주상복합상가1층,롯데쇼핑(주) 롯데마트 아산점,그 밖의 대규모점포,37.557576,126.925119
경기도,동두천시,생연동,698번지 11호,동두천농협하나로마트,대형마트,37.9004834,127.0520754
경상남도,창원시,성산구,중앙동 92번지,롯데쇼핑(주) 롯데마트맥스 창원중앙점,복합쇼핑몰,35.2255053,128.6802428
충청남도,천안시,동남구,신부동 354번지 1호,이마트  천안터미널점,대형마트,36.8202947,127.1569778
경기도,부천시,원미구,"상3동 535번지 5, 6, 7호",(주)세이브존아이앤씨부천상동점,그 밖의 대규모점포,37.5074038,126.7539021
경기도,파주시,동패동,1763번지,(주)이마트 파주운정점,대형마트,37.7103712,126.7451139
경기도,안산시,단원구,고잔동 729번지 5호,천혜그레이스,그 밖의 대규모점포,37.3145110,126.8369995
경기도,하남시,신장1동,570번지,홈플러스(주) 경기하남점,대형마트,35.151389,129.001174
부산광역시,기장군,정관읍,매학리 712-1 정관 홈플러스,홈플러스 부산정관점,대형마트,35.3230773,129.1763580
서울특별시,도봉구,도봉동,657번지,도봉한양프라자,그 밖의 대규모점포,37.6745597,127.0476891
충청남도,천안시,서북구,불당동 1299번지,한화갤러리아(주) 센터시티,백화점,36.8004547,127.1046808
경기도,남양주시,화도읍,마석우리 255번지 24호,롯데쇼핑(주)롯데마트 마석점,대형마트,37.6507993,127.3092988
대전광역시,중구,용두동,23번지 1호 골든타워빌딩 10층,대림가구타워,전문점,36.3244805,127.4106640
전북특별자치도,전주시,완산구,고사동 412번지 2호 외 9필지,노벨리나,쇼핑센터,35.8186593,127.1435098
대전광역시,서구,월평2동,245번지,선사엔조이,그 밖의 대규모점포,36.3613907,127.3784241
대구광역시,수성구,두산동,113호 SK리더스뷰 지하1층,홈플러스 대구 수성점,대형마트,35.8386958,128.6230936
서울특별시,중구,신당1동,773번지,맥스타일,전문점,37.5688269,127.0105490
경기도,파주시,탄현면,법흥리 1790번지 8호,(주)신세계사이먼 파주점,전문점,37.7689114,126.6907136
강원특별자치도,속초시,교동,673번지 1호,속초농협하나로마트엑스포지점,대형마트,38.1943218,128.5790263
경기도,성남시,수정구,태평4동 7336번지,(주)이마트 성남점,쇼핑센터,37.4442853,127.1413968
경기도,고양시,일산서구,대화동 2602번지,레이킨스몰,그 밖의 대규모점포,37.6679353,126.7515109
경기도,성남시,분당구,이매동 120번지 4호,롯데프레시 분당이매점,구분없음,37.3919027,127.1253912
경상남도,남해군,남해읍,북변리 282번지 11호,남해전통시장,그 밖의 대규모점포,34.8403781,127.8949652
서울특별시,동대문구,전농1동,591번지 53호,롯데쇼핑(주)롯데마트 청량리점,대형마트,37.5816912,127.0475792
경기도,안산시,단원구,고잔동 729번지 6호,중앙상가,그 밖의 대규모점포,37.3145110,126.8369995
경기도,고양시,일산서구,대화동 2602번지,홈플러스(주) 킨텍스점,대형마트,37.6679353,126.7515109
울산광역시,북구,진장동,285번지 3호,울산진장디플렉스,전문점,35.5742469,129.3593821
경상남도,창원시,마산회원구,양덕2동 59번지 1호,홈플러스(주)익스프레스 마산양덕점,구분없음,35.2290473,128.5846877
경상남도,사천시,좌룡동,388번지 10호 외 9필지,(주)이마트 사천점,대형마트,34.9516107,128.0770361
서울특별시,동대문구,전농1동,591번지 53호,롯데백화점 청량리역사점,백화점,37.5816912,127.0475792
서울특별시,중랑구,묵1동,170번지 1호 외 35필지,주식회사 이마트 묵동점,대형마트,37.6138498,127.0775593
대전광역시,동구,가오동,557번지,패션아일랜드 대전점,전문점,36.3069376,127.4580200
경기도,고양시,일산서구,대화동 2602번지,현대백화점 킨텍스점,백화점,37.6679353,126.7515109
대구광역시,동구,율하동,1117번지,롯데쇼핑프라자 율하점,쇼핑센터,35.8683955,128.6933644
서울특별시,노원구,상계동,1318번지,노원아이파크 상가,그 밖의 대규모점포,37.6597925,127.0691777
전라남도,목포시,축복동2가,1번지 1호,동명종합어시장,그 밖의 대규모점포,34.7882629,126.3887040
인천광역시,동구,송현동,66-26 동부센트레빌 상가,홈플러스 익스프레스 송현점,그 밖의 대규모점포,37.4822825,126.6353384
서울특별시,성북구,길음2동,230번지 동일하이빌뉴시티아파트,이마트 하월곡점,대형마트,37.6050598,127.0310039
인천광역시,남동구,논현동,650번지 1호,뉴코아 인천논현점,복합쇼핑몰,37.4005338,126.7256320
부산광역시,해운대구,우1동,1434번지,대성종합상가시장,그 밖의 대규모점포,35.1578229,129.1476026
강원특별자치도,춘천시,석사동,27번지,롯데쇼핑(주)롯데마트 석사점,대형마트,37.8669995,127.7586734
대전광역시,동구,대동,160번지 1호,롯데쇼핑(주) 롯데마트 동대전점,쇼핑센터,36.3293982,127.4417973
경기도,남양주시,진접읍,연평리 101번지 14호 진접이마트,주식회사 이마트 진접점,복합쇼핑몰,37.7086067,127.1830369
인천광역시,서구,원창동,379번지 1호,주식회사 케이씨씨글라스 홈씨씨 인천점,전문점,37.5161023,126.6433238
서울특별시,성북구,하월곡동,46-73 코업스타클래스,홈플러스 월곡점,대형마트,37.6018326,127.0404609
대전광역시,동구,용전동,63번지 3호 외 2필지,이마트 대전터미널점,대형마트,36.3522378,127.4359060
대구광역시,수성구,범물1동,1273번지 동아백화점수성점,동아백화점 수성점,복합쇼핑몰,35.8210867,128.6404323
대구광역시,수성구,수성동4가,1090번지 8호 수성하이츠 쇼핑몰,수성하이츠 쇼핑몰,복합쇼핑몰,35.8610701,128.6149121
울산광역시,울주군,범서읍,굴화리 295번지 1호,울산원예농업협동조합 하나로마트,그 밖의 대규모점포,35.5575948,129.2540597
부산광역시,기장군,일광읍,삼성리 547-6,(주)메가마트 기장점,대형마트,35.2546819,129.2221344
경기도,구리시,인창동,677번지 롯데스퀘어(주)구리점,롯데쇼핑(주) 구리점,백화점,37.6027900,127.1440288
서울특별시,강동구,길동,339번지 1호,동서울오네뜨상가,그 밖의 대규모점포,37.5426182,127.1436657
부산광역시,북구,덕천2동,398번지 2호,뉴코아 덕천점,복합쇼핑몰,35.2110527,129.0068483
서울특별시,성북구,길음동,25번지 2호 신세계 이마트 미아점,이마트 미아점,대형마트,37.6113736,127.0296318
경기도,부천시,원미구,중1동 1157번지,(주)이마트중동점,복합쇼핑몰,37.5040742,126.7639724
부산광역시,해운대구,중1동,1767번지,(주)이마트 해운대점,대형마트,35.1660214,129.1673843
충청북도,충주시,문화동,1024번지 이마트,(주) 이마트 충주점,대형마트,36.9721609,127.9237902
광주광역시,동구,계림1동,100번지 11호,(주)이마트 동광주점,그 밖의 대규모점포,35.1603231,126.9203727
서울특별시,도봉구,창동,135번지 26호,(주) 이마트 창동점,복합쇼핑몰,37.6435399,127.0425316
경상남도,통영시,무전동,986번지,대백아울렛 통영점,그 밖의 대규모점포,34.8591694,128.4302917
전북특별자치도,전주시,완산구,서신동 767번지,(주)이마트 전주점,대형마트,35.8325853,127.1202904
경기도,안성시,계동,85번지 3호,안성축산농협 하나로마트,대형마트,36.9880525,127.2688844
인천광역시,남동구,논현동,450호,공장용품상가,그 밖의 대규모점포,37.4097474,126.6940815
경기도,파주시,교하읍,야당1리 195번지 5호,(주)이마트파주점,대형마트,35.163312,129.048549
경상북도,경주시,안강읍,산대리 2397-2,홈플러스 익스프레스 경주 안강점,그 밖의 대규모점포,36.0022621,129.1967219
강원특별자치도,춘천시,퇴계동,141번지,홈플러스(주)춘천점,대형마트,37.8506207,127.7347730
부산광역시,해운대구,중1동,1411번지 1호,(주)파라다이스면세점,그 밖의 대규모점포,35.1599270,129.1640655
서울특별시,종로구,인의동,112번지 2호,세운스퀘어,그 밖의 대규모점포,37.5728098,126.9971776
부산광역시,중구,신창동1가,8번지,새부산타운,쇼핑센터,35.1006499,129.0307238
강원특별자치도,춘천시,온의동,6번지 25호,롯데쇼핑(주)롯데마트 춘천점,대형마트,37.8697293,127.7187053
대전광역시,동구,가오동,557번지,패션아일랜드 대전점,전문점,36.3069376,127.4580200
경기도,군포시,부곡동,1120번지 1호 거성프라자1,홈플러스(주)익스프레스 군포부곡점,구분없음,37.3248006,126.9445344
대전광역시,동구,용전동,63번지 3호 외 2필지,(주)이마트 대전터미널점,대형마트,36.3522378,127.4359060
경기도,부천시,원미구,심곡2동 174번지 1호,로얄쇼핑,쇼핑센터,37.4850634,126.7820930
인천광역시,서구,마전동,1031-1 롯데마트,롯데마트 검단점,대형마트,37.5945402,126.6644837
전북특별자치도,정읍시,농소동,446번지 1호 외 15필지,롯데쇼핑(주) 롯데마트 정읍점,대형마트,35.5796570,126.8404621
충청북도,제천시,강제동,684번지,주식회사 신세계,그 밖의 대규모점포,37.1234589,128.2229366
대구광역시,중구,삼덕동1가,"15-1, 3",흥구삼덕빌딩,전문점,35.8669105,128.5974335
부산광역시,중구,중앙동7가,,롯데백화점 광복점,백화점,35.0974,129.0365
강원특별자치도,춘천시,조양동,34번지,(주)메가마트 엠 춘천점,백화점,37.8785548,127.7286494
경기도,남양주시,진접읍,장현리 216번지 1호,홈플러스(주)남양주진접점,그 밖의 대규모점포,37.7215597,127.1888984
경기도,안산시,단원구,고잔동 681번지 6호,슈마프라자,그 밖의 대규모점포,37.3152974,126.8222228
서울특별시,마포구,망원2동,517번지,성산프라자(마포영화블렌하임),그 밖의 대규모점포,37.5584939,126.9063071
경기도,용인시,수지구,죽전2동 (주)신세계백화점죽전점,(주) 신세계 사우스시티,백화점,37.3303531,127.1392426
서울특별시,강남구,도곡동,518-8 유진빌딩,홈플러스익스프레스 도곡2점,구분없음,37.4827652,127.0433615
서울특별시,은평구,역촌동,31번지 6호,서부종합시장,그 밖의 대규모점포,37.6032848,126.9202595
전북특별자치도,군산시,비응도동,78번지,새만금종합수산시장,그 밖의 대규모점포,35.9388825,126.5343863
경기도,동두천시,송내동,551번지,롯데쇼핑(주) 롯데마트 동두천점,대형마트,37.8806794,127.0529552
서울특별시,강남구,논현2동,108번지,논현웰스톤상가,그 밖의 대규모점포,37.5184567,127.0380482
경기도,평택시,비전동,830번지 1호,뉴코아아울렛평택점,복합쇼핑몰,36.9958737,127.1124078
서울특별시,은평구,수색동,75번지,(주)이마트 수색점,대형마트,37.5795974,126.8986652
강원특별자치도,강릉시,옥천동,189번지,강릉 씨네몰,복합쇼핑몰,37.7556737,128.8986932
경기도,부천시,원미구,상동 539-1 소풍(부천터미널),뉴코아부천점,쇼핑센터,37.5041550,126.7566364
경기도,광주시,경안동,25번지 3호,광주터미널이프라자,그 밖의 대규모점포,37.4092580,127.2510013
광주광역시,광산구,장덕동,1678번지 1호,롯데쇼핑(주) 롯데마트 수완점,대형마트,35.1891968,126.8193677
서울특별시,노원구,중계2.3동,509번지 2001아울렛,이천일아울렛 중계점,복합쇼핑몰,37.6413109,127.0679891
경기도,이천시,송정동,317번지 3호,롯데쇼핑(주) 롯데슈퍼 송정점,구분없음,37.2966497,127.4354050
경기도,광주시,경안동,20번지 46호,(주) 이마트 경기광주점,대형마트,37.4109676,127.2592762
서울특별시,강북구,송중동,,트레지오,복합쇼핑몰,37.616099,127.033738
서울특별시,중구,흥인동,3번지 4호,우일타운,전문점,37.5678075,127.0166305
부산광역시,금정구,장전동,40,NC 부산대점,쇼핑센터,35.2334637,129.0803792
전라남도,목포시,용당1동,1133번지 1호,용당시장,그 밖의 대규모점포,37.538776,127.2095
경기도,용인시,기흥구,영덕동 985번지 3호,(주)이마트 흥덕점,대형마트,37.2757513,127.0719136
경기도,수원시,팔달구,인계동 362번지,롯데쇼핑(주) 롯데슈퍼 인계점,구분없음,37.2706937,127.0357435
경상남도,창원시,성산구,사파동 141 삼익종합상가,농협 하나로마트 사파점,전문점,35.2216901,128.6934241
서울특별시,송파구,오금동,615번지 올림픽파크동부센트레빌 상가,올림픽파크동부센트레빌 상가,그 밖의 대규모점포,37.5101642,127.1276757
부산광역시,수영구,망미동,195번지 1호,코스트코 홀세일 부산점,대형마트,35.1785791,129.1153016
경상남도,창녕군,창녕읍,술정리 137번지,탑마트 창녕점,복합쇼핑몰,35.5376878,128.4959139
충청북도,청주시,상당구,북문로1가 90-1번지,씨유쇼핑몰,그 밖의 대규모점포,36.6359145,127.4894918
경상북도,경주시,동천동,825,롯데슈퍼 동천점,그 밖의 대규모점포,35.8539514,129.2270022
경기도,평택시,장당동,390번지 1호,홈플러스 송탄점,대형마트,37.0452766,127.0581595
경기도,평택시,합정동,968번지 1호,롯데쇼핑(주) 롯데마트 평택점,대형마트,36.9884007,127.1117224
서울특별시,송파구,문정동,292번지 외 29필지,가든파이브 툴,쇼핑센터,37.4784619,127.1213821
서울특별시,송파구,문정동,516번지,가든파이브 라이프,그 밖의 대규모점포,37.4791682,127.1242625
전라남도,순천시,조례동,766번지,뉴코아순천점,복합쇼핑몰,34.9733847,127.5199944
부산광역시,동래구,명륜1동,506번지 3호,(주)메가마트 동래점,대형마트,37.38282,127.118926
경상남도,창원시,마산회원구,양덕2동 151번지 1호,홈플러스 마산점,대형마트,35.2226660,128.5857543
경기도,평택시,평택동,185번지 568호,AK PLAZA 평택점,백화점,36.9927113,127.0835658
강원특별자치도,삼척시,당저동,,삼성데스코 홈플러스 삼척점,그 밖의 대규모점포,37.446143,129.162021
울산광역시,동구,서부동,105번지 3호,(주)현대백화점 동구점,백화점,35.5303311,129.4122985
경상북도,영주시,풍기읍,산법리 446번지 4호 외 1필,(사)풍기선비골인삼시장,그 밖의 대규모점포,36.8882435,128.5405308
서울특별시,동대문구,이문동,292번지 10호,이문동웰츠타워,그 밖의 대규모점포,37.5975955,127.0611378
서울특별시,동대문구,이문1동,292번지 10호 (주)이문종합상가 이문동웰츠타워,대규모점포 개설등록,그 밖의 대규모점포,37.5975955,127.0611378
경기도,성남시,분당구,구미동 159호,홈플러스(주) 분당오리점,대형마트,37.3400800,127.1069719
서울특별시,강서구,내발산동,719번지 6호,송화시장,그 밖의 대규모점포,37.5506818,126.8358056
부산광역시,해운대구,우2동,1495번지,(주)신세계 센텀시티점,백화점,35.1689629,129.1295857
경상남도,창원시,의창구,동읍 용잠리 418번지 3호,(주)서원유통 탑마트 동읍점,그 밖의 대규모점포,35.2774873,128.6836774
경상남도,마산시,중앙동3가,4번지 1호,(주)신세계이마트마산점,대형마트,35.1978635,128.5697433
서울특별시,관악구,서원동,1641번지 2호,타임스트림,복합쇼핑몰,37.4841075,126.9304517
부산광역시,북구,덕천동,327번지 덕천 숙등역간 지하구간,덕천지하상가 태아쇼핑,쇼핑센터,35.2102260,129.0059940
경기도,화성시,봉담읍,동화리 597번지 1호,하나로마트 봉담점,복합쇼핑몰,37.2176016,126.9590887
전북특별자치도,전주시덕진구,송천동1가,281번지 1호,롯데쇼핑(주)롯데마트맥스 송천점,그 밖의 대규모점포,35.8545543,127.1204518
경상남도,김해시,장유면,신문리 1B 4L,롯데쇼핑(주) 프리미엄아울렛김해점,쇼핑센터,37.405755,126.729308
전라남도,장성군,장성읍,영천리 1040번지,농협하나로마트,그 밖의 대규모점포,35.3014045,126.7818160
대전광역시,유성구,대정동,303번지 2호,(주)모다이노칩 대전점,복합쇼핑몰,36.3137649,127.3189884
경상남도,통영시,광도면,죽림리 1584번지 5호,탑마트 통영죽림점,구분없음,34.8770247,128.4154453
전북특별자치도,전주시완산구,효자동2가,1234번지 3호,롯데쇼핑(주) 롯데마트 전주점,대형마트,35.8171515,127.1022736
경기도,안성시,공도읍,만정리 381번지 1호,서안성농협 하나로마트,대형마트,37.0098195,127.1721857
충청남도,당진시,원당동,824번지,롯데쇼핑(주) 롯데마트 당진점,대형마트,36.9057017,126.6459175
서울특별시,강동구,천호동,42번지,홈플러스 강동점,대형마트,37.5457197,127.1422810
인천광역시,남구,용현동,648번지,홈플러스(주) 인하점,대형마트,37.4477138,126.6507635
대구광역시,북구,산격2동,1668번지 일반의류관,대구종합유통단지 일반의류관,그 밖의 대규모점포,35.9052530,128.6103773
서울특별시,강서구,가양동,18번지 24호,홈플러스(주) 가양점,대형마트,37.5649723,126.8478423
경기도,용인시,기흥구,보라동 623번지 1호,(주)이마트 보라점,대형마트,37.2486260,127.1052653
대구광역시,동구,검사동,908번지 5호,홈플러스 주식회사 동촌점,대형마트,35.8889138,128.6560942
서울특별시,성북구,종암동,132번지,종암우림카이저팰리스주상복합,그 밖의 대규모점포,37.6019552,127.0334893
서울특별시,금천구,시흥동,992번지 47호,홈플러스 시흥점,대형마트,37.4532782,126.8976275
충청남도,예산군,오가면,월곡리 142번지 1호,예산홍성패션타운,그 밖의 대규모점포,36.6714410,126.7804068
서울특별시,양천구,신정동,201번지 1호,신정동세양청마루2차상가,그 밖의 대규모점포,37.5082538,126.8645649
대전광역시,유성구,하기동,519번지,롯데쇼핑(주)롯데마트 노은점,대형마트,36.3842005,127.3216852
경기도,부천시,오정구,여월동 301번지,홈플러스 주식회사 부천여월점,대형마트,37.5159029,126.8023492
충청북도,청주시,청원구,오창읍 양청리 820번지,홈플러스(주) 오창점,대형마트,36.7130237,127.4282129
경상북도,문경시,모전동,859번지 2호,홈플러스(주) 문경점,그 밖의 대규모점포,36.5873045,128.1890934
경상북도,문경시,모전동,859-2,홈플러스(주),대형마트,36.5873171,128.1902844
충청남도,보령시,궁촌동,340번지 1호,(주) 이마트 보령점,복합쇼핑몰,36.3440380,126.5886710
서울특별시,중구,을지로6가,18번지 21호 굿모닝시티쇼핑몰,굿모닝시티 쇼핑몰,쇼핑센터,37.5692615,127.0098288
서울특별시,광진구,군자동,503번지,파크에비뉴,그 밖의 대규모점포,37.5484467,127.0711001
경기도,파주시,문산읍,당동리 산업단지내 지원시설용지 1-1,홈플러스(주)파주문산점,대형마트,37.862314,126.779992
서울특별시,성동구,행당동,168번지 151호 왕십리민자역사,ENTER-6,그 밖의 대규모점포,37.5636841,127.0380682
서울특별시,중구,명동2가,31번지 1호,엠플라자(M plaza),쇼핑센터,37.5625099,126.9851547
경기도,안성시,석정동,149번지 3호,(주)이마트 안성점,대형마트,37.0132732,127.2560141
서울특별시,광진구,자양동,227번지 342호 롯데백화점 스타시티점,롯데백화점 건대스타시티점,백화점,37.5379001,127.0768462
대전광역시,동구,가오동,557번지 토마토쇼핑센터 지하 1층,홈플러스(주) 대전가오점,대형마트,36.3069376,127.4580200
충청남도,천안시,동남구,구성동 50-3 외 8필지,홈플러스 천안점,대형마트,36.7992217,127.1647344
울산광역시,동구,일산동,577번지 1호,홈플러스 주식회사 울산동구점,복합쇼핑몰,35.4989428,129.4274588
서울특별시,동대문구,신설동,109번지 5호,서울풍물시장,그 밖의 대규모점포,37.5713616,127.0249697
대구광역시,북구,산격동,1626번지,전자상가협동조합,그 밖의 대규모점포,35.9060128,128.6055203
경기도,안산시단원구,원곡동,762번지,(주)군자포커스프라자,그 밖의 대규모점포,37.3315569,126.7959378
서울특별시,중구,황학동,2545번지,베네치아메가몰,그 밖의 대규모점포,37.5709976,127.0214096
경기도,안양시,동안구,비산동 1109번지 3호,홈플러스(주) 평촌점,복합쇼핑몰,37.3952105,126.9500018
서울특별시,강북구,수유동,405번지 5호,수유북부시장,그 밖의 대규모점포,37.6368369,127.0167621
전라남도,곡성군,곡성읍,,곡성농협,대형마트,35.282134,127.296403
경상남도,창원시,진해구,자은동 924-2,(주)지에스리테일 GS더프레시 진해자은점,그 밖의 대규모점포,35.1488264,128.7058435
인천광역시,남구,주안동,"956번지 1호 지하1층,지하2층",태흥프라자,그 밖의 대규모점포,37.4584417,126.6898403
서울특별시,성동구,행당동,168번지 1호,(주)이마트 왕십리점,대형마트,37.5636841,127.0380682
서울특별시,중구,황학동,2545번지,주식회사 이마트 청계천점,대형마트,37.5709976,127.0214096
서울특별시,성북구,장위동,60번지 1호,삼익아파트상가,그 밖의 대규모점포,37.6133842,127.0576590
부산광역시,해운대구,우동,1496번지,롯데백화점 센텀시티점,백화점,35.1698780,129.1310488
경기도,시흥시,정왕동,2166번지 2호,시화공작기계 스텐레스판매조합,전문점,37.3474234,126.7215921
경상남도,창원시,진해구,이동 536번지 10호,홈플러스 진해점,대형마트,35.1536320,128.6914819
경상남도,창원시,성산구,대원동 121 더시티세븐,City7 Mall,그 밖의 대규모점포,35.2400570,128.6528932
경상남도,창원시,성산구,대원동 121 더시티세븐,롯데쇼핑(주) 롯데마트 시티세븐점,대형마트,35.2400570,128.6528932
서울특별시,성북구,길음동,25번지 2호,이마트 미아점,대형마트,37.6113736,127.0296318
서울특별시,성북구,길음동,25번지 2호,신세계이마트미아점,대형마트,37.6113736,127.0296318
부산광역시,동래구,온천동,502번지 3호,롯데쇼핑(주) 롯데마트 동래점,대형마트,35.2111983,129.0783558
경기도,하남시,덕풍동,736번지,이마트 하남점,대형마트,37.5527584,127.2053735
세종특별자치시,조치원읍,번암리,53번지,홈플러스(주) 조치원점,대형마트,36.5863140,127.2976361
서울특별시,영등포구,여의도동,47번지 여의도자이(아) 지하 1층,신세계 이마트 여의도점,대형마트,37.5181752,126.9260492
서울특별시,영등포구,문래동3가,55-16 영등포 SK 리더스뷰,룩스쇼핑센터,전문점,37.5176217,126.8999805
부산광역시,북구,덕천동,398번지 2호 외 3필지,폴라렉스 아울렛,쇼핑센터,35.2110527,129.0068483
서울특별시,마포구,동교동,166번지 14호,스타피카소 아울렛,전문점,37.5575421,126.9251382
경상남도,거제시,장평동,1211번지,디큐브거제백화점,백화점,34.8910818,128.6165933
경기도,용인시기흥구,상하동,351번지,(주)농협유통하나로클럽 용인점,대형마트,37.2660918,127.1360095
경기도,남양주시,다산동,4001번지 29호,(주)이마트 다산점,복합쇼핑몰,37.6081241,127.1571666
대구광역시,수성구,지산동,1199번지 10호,지산목련시장,그 밖의 대규모점포,35.8211634,128.6317619
경기도,시흥시,정왕동,"2210,2212,2213번지",스틸랜드 관리단,전문점,37.3445705,126.7000895
인천광역시,부평구,부평동,224번지 1호,시장로타리 지하상가,그 밖의 대규모점포,37.5001352,126.7216635
광주광역시,동구,충장로4가,14번지,알파와오메가(주),쇼핑센터,35.1499459,126.9145225
경상남도,창원시,마산합포구,중앙동3가 4번지 1호,(주) 이마트 마산점,구분없음,35.1978635,128.5697433
충청남도,천안시,신부동,451번지 1호,캐럿21,쇼핑센터,36.8184359,127.1525954
인천광역시,연수구,청학동,455번지 연수1차 하나아파트 상가동,(주)LF네트웍스 연수점,전문점,37.4194365,126.6689596
전라남도,목포시,용당동,1087번지 1호,홈플러스(주) 목포점,대형마트,34.8059317,126.3996541
경기도,고양시일산동구,백석동,1312번지,코스트코 홀세일 일산점,대형마트,37.6408847,126.7885960
충청남도,계룡시,금암동,21번지 5호,홈플러스 주식회사(계룡점),대형마트,36.2744894,127.2569470
대구광역시,북구,동천동,894번지 1호,한신공영(주),그 밖의 대규모점포,35.9441127,128.5603500
인천광역시,부평구,삼산동,465-1 대덕리치아노,롯데쇼핑(주)롯데마트삼산점,대형마트,37.5079106,126.7320467
경기도,화성시,석우동,44번지,(주)이마트동탄점,대형마트,37.2143983,127.0797178
부산광역시,해운대구,우2동,1499번지,홈플러스 센텀시티점,대형마트,35.1709170,129.1336589
광주광역시,동구,계림동,505번지 900호,삼성테스코(주) 홈플러스 계림점,대형마트,35.1634588,126.9182241
경기도,여주시,홍문동,384-1번지 외 9필지,(주)이마트 여주점,복합쇼핑몰,37.2839183,127.6373235
서울특별시,구로구,구로동,3번지 25호 외 31필지,신도림 테크노마트,그 밖의 대규모점포,37.5069800,126.8902800
광주광역시,광산구,하남동,831번지,삼성테스코(주)홈플러스 광주하남점,그 밖의 대규모점포,35.1779509,126.8054079
대전광역시,유성구,관평동,887번지,롯데쇼핑(주)롯데마트 대덕테크노밸리점,대형마트,36.4268333,127.3868163
광주광역시,광산구,하남동,하남2지구 택지개발사업지구 3-1블록,삼성테스코(주) 홈플러스 광주하남점,그 밖의 대규모점포,36.989791,127.084592
서울특별시,구로구,구로동,501번지,나인스에비뉴,그 밖의 대규모점포,37.4999206,126.8841233
부산광역시,해운대구,우동,1496번지,롯데쇼핑주식회사,백화점,35.1698780,129.1310488
부산광역시,해운대구,우동,1496번지,롯데백화점 센텀시티점,백화점,35.1698780,129.1310488
충청북도,청주시,흥덕구,봉명동 2449번지,청주파비뇽아울렛,쇼핑센터,36.6537181,127.4550590
경기도,안산시,단원구,고잔동 725번지 1호,NC고잔점,쇼핑센터,37.3141498,126.8310695
대구광역시,북구,동천동,894번지 1호,세븐밸리,그 밖의 대규모점포,35.9441127,128.5603500
경기도,부천시,원미구상동,539번지 1호,부천터미널 소풍,쇼핑센터,37.5041550,126.7566364
서울특별시,구로구,구로동,3번지 25호 외 31필지,(주) 이마트 신도림점,대형마트,37.5069800,126.8902800
부산광역시,북구,덕천동,397번지 1호 아남프라자 지하1층호,예스홈마트,대형마트,35.2115051,129.0072240
경기도,고양시,일산동구,장항동 755번지,홈플러스(주) 일산점,대형마트,37.6590342,126.7689078
경상북도,경주시,용강동,1329,롯데슈퍼 경주점,그 밖의 대규모점포,35.8623111,129.2238298
서울특별시,종로구,창신동,23번지 76호 브라운스톤 창신,브라운스톤 창신상가,그 밖의 대규모점포,37.5768497,127.0137387
경상북도,포항시남구,상도동,582번지,그랜드애비뉴,복합쇼핑몰,36.0127361,129.3488933
경상북도,영주시,휴천동,329번지 1호,홈플러스영주점,복합쇼핑몰,36.8091467,128.6213522
경상북도,포항시남구,상도동,582번지,홈플러스(주)포항점,대형마트,36.0127361,129.3488933
대구광역시,달서구,상인동,171번지 1호,홈플러스(주)  상인점,대형마트,35.8182188,128.5332637
경기도,용인시,기흥구,중동 833번지,쥬네브썬월드,쇼핑센터,37.2780425,127.1517093
서울특별시,구로구,신도림동,337번지 신도림1차푸르지오,홈플러스(주) 신도림점,대형마트,37.5094416,126.8877732
서울특별시,서대문구,대현동,145번지,예스에이피엠,그 밖의 대규모점포,37.5576484,126.9449269
제주특별자치도,제주시,노형동,708번지 외 2필지,롯데쇼핑(주) 롯데마트제주점,대형마트,33.4824540,126.4813924
서울특별시,노원구,하계동,284번지 2호,세이브존,그 밖의 대규모점포,37.6378695,127.0687211
경상남도,사천시,벌리동,58번지 3호,홈플러스 삼천포점,대형마트,34.9404737,128.0799674
광주광역시,북구,각화동,320번지 6호,에이치에스인베스트먼트(주),그 밖의 대규모점포,35.1838513,126.9370871
경상남도,마산시,합성동,326-1번지,동마산시장,그 밖의 대규모점포,35.2401191,128.5875983
경상북도,영주시,조암동,962번지 5호,영주농협 파머스마켓,대형마트,36.7965709,128.6317769
서울특별시,서초구,반포동,1141번지,엘루체,그 밖의 대규모점포,37.5017587,126.9871336
서울특별시,금천구,독산동,957번지,푸른터시장,그 밖의 대규모점포,37.4780764,126.9014230
경상남도,사천시,동금동,88-4호,(사)삼천포종합시장번영회,그 밖의 대규모점포,34.9321224,128.0786584
경기도,부천시,소사구심곡본동,316번지 2호,부천역사쇼핑몰,복합쇼핑몰,37.4840459,126.7828592
서울특별시,송파구,신천동,7번지 12 호,홈플러스(주)잠실점,대형마트,37.5188955,127.0993119
경상북도,경주시,현곡면,하구리 375-17,GS슈퍼 경주 현곡푸르지오점,그 밖의 대규모점포,35.8902026,129.1750450
경기도,광명시,철산동,440번지,철산중앙시장,그 밖의 대규모점포,37.4747517,126.8703815
울산광역시,남구,달동,1360번지 3호,뉴코아아울렛울산점,쇼핑센터,35.5385036,129.3302080
서울특별시,종로구,인의동,48번지 2호,효성주얼리시티,그 밖의 대규모점포,37.5724941,126.9990685
전라남도,장흥군,장흥읍,예양리 158번지 1 호,정남진장흥토요시장,그 밖의 대규모점포,34.6764066,126.9028924
광주광역시,남구,봉선동,1064호,이마트 봉선점,대형마트,35.1224130,126.9160258
경기도,안산시,단원구,고잔동 729번지 8호,케이플러스,그 밖의 대규모점포,37.3145110,126.8369995
경기도,평택시,평택동,35번지 3호,엠프라자,쇼핑센터,36.9944160,127.0885664
경기도,수원시,권선구,고색동 986번지,수원종합공구단지,전문점,37.2552900,126.9851608
서울특별시,강동구,길동,414번지 10호,강동한신휴플러스,그 밖의 대규모점포,37.5372297,127.1377495
경상남도,진주시,상대동,181번지 1 호,홈플러스 진주점,대형마트,35.1875794,128.1177079
경기도,여주시,상거동,15-1번지,(주)신세계사이먼 여주점,전문점,37.2456564,127.6326892
서울특별시,동대문구,제기동,1140번지 5호,불로장생타워,전문점,37.5799258,127.0368522
서울특별시,마포구,창전동,442번지,마포종합시장(서강한화오벨리스크),그 밖의 대규모점포,37.5466037,126.9318305
경기도,고양시일산동구,장항동,784호,롯데쇼핑(주) 롯데백화점 일산점,백화점,37.6606874,126.7720156
인천광역시,강화군,강화읍,갑곳리 849번지 강화풍물시장,강화풍물시장,그 밖의 대규모점포,37.7411373,126.4925155
서울특별시,노원구,중계동,506번지 1 호,건영옴니백화점,백화점,37.6399401,127.0642711
경기도,부천시,원미구상동,461번지 투나,투나,쇼핑센터,37.4888550,126.7553338
부산광역시,동래구,온천동,153번지 8호,에스케이허브스카이위아,쇼핑센터,35.2218747,129.0848113
경기도,고양시일산동구,장항동,867호,웨스턴돔,쇼핑센터,37.6558822,126.7719922
서울특별시,은평구,대조동,240호,엔씨백화점 불광점,쇼핑센터,37.6097418,126.9290005
경상북도,상주시,만산동,693번지 29호,(주)이마트 상주점,대형마트,36.4281911,128.1523071
서울특별시,성동구,왕십리도선동,69번지,성동삼성쉐르빌상가,그 밖의 대규모점포,37.5668189,127.0318022
서울특별시,영등포구,영등포동5가,18번지 1호,영신상가,그 밖의 대규모점포,37.5199032,126.9068069
인천광역시,남동구,구월동,1455호,엘리오스구월,쇼핑센터,37.4470789,126.7015745
경기도,포천시,소흘읍,송우리 730번지 60호,홈플러스(주),그 밖의 대규모점포,37.8251082,127.1391495
경기도,포천시,소흘읍,송우리 760번지 60호,홈플러스(주)송우점,복합쇼핑몰,35.13306,128.710081
경기도,성남시,분당구,정자동 174번지 1호 더샵스타파크,더샵 스타파크 쇼핑몰,그 밖의 대규모점포,37.3609813,127.1051827
경상북도,포항시,북구,죽도동 50-1,홈플러스(주)죽도점,대형마트,36.0308836,129.3651048
전북특별자치도,군산시,수송동,833,롯데쇼핑 (주) 롯데마트군산점,쇼핑센터,35.9648198,126.7163917
경기도,김포시,풍무동,38번지 1호 외4필지,홈플러스(주) 김포풍무점,대형마트,37.6099623,126.7236686
경상남도,마산시,내서읍,중리 695호,서창원농협 하나로마트,대형마트,35.2541793,128.5122175
경상남도,마산시,신포동2가,28번지 대우백화점,(주)대우인터내서널 대우백화점,백화점,35.2014401,128.5733980
광주광역시,서구,풍암동,423번지 2 호 월드컵경기장내,롯데쇼핑(주)롯데마트 월드컵점,대형마트,35.1358197,126.8742932
인천광역시,중구,운서동,2803번지 2호,롯데쇼핑(주)롯데마트 영종도점,대형마트,37.4934602,126.4914883
부산광역시,사하구,장림동,185호,홈플러스(주)장림점,대형마트,35.0825507,128.9783465
경기도,의정부시,장암동,38번지 10 호,롯데마트장암점,그 밖의 대규모점포,37.7231002,127.0535325
인천광역시,부평구,산곡동,159-52 롯데마트 부평점,롯데쇼핑(주)롯데마트부평점,대형마트,37.5050005,126.7040857
서울특별시,강북구,미아동,70번지 6 호,롯데백화점 미아점,복합쇼핑몰,37.6145844,127.0304330
서울특별시,광진구,자양동,227번지 7호,(주)이마트 자양점,대형마트,37.5379001,127.0768462
경상북도,포항시남구,지곡동,481번지 1호,롯데쇼핑(주) 롯데마트 포항점,대형마트,36.0283453,129.3243152
경상남도,창원시,성산구,반림동 17번지 9호 10호,반송아이필프라자,그 밖의 대규모점포,35.2360475,128.6710769
전북특별자치도,전주시,덕진구,우아동3가 733번지 1호,홈플러스 주식회사 전주점,대형마트,35.8475142,127.1529170
강원특별자치도,태백시,화전동,113호,(주)이마트,그 밖의 대규모점포,37.2001418,128.9618813
서울특별시,중랑구,면목동,168번지 2호,홈플러스(주)면목점,대형마트,37.5812498,127.0800300
서울특별시,강남구,역삼동,755번지,(주)이마트 역삼점,대형마트,37.4992254,127.0484568
강원특별자치도,삼척시,당저동,33번지 3 호,삼성테스코(주)홈플러스삼척점,대형마트,37.4463755,129.1683187
서울특별시,중구,신당1동,213번지 8호,올레오,쇼핑센터,37.5690698,127.0136597
경상남도,마산시,중앙동3가,4번지 1호,(주)신세계마트 이마트 마산점,대형마트,35.1978635,128.5697433
부산광역시,동래구,온천동,153번지 8 호,홈플러스(주) 동래점,대형마트,35.2218747,129.0848113
대구광역시,서구,비산7동,1610번지 3호,트레이더스 홀세일 클럽 비산점,복합쇼핑몰,35.8899322,128.5559317
경기도,안성시,공도읍,양기리 산 2번지 13호,롯데쇼핑(주)롯데마트안성점,대형마트,37.0081836,127.1973479
전북특별자치도,익산시,영등동,,홈플러스(주) 익산점,대형마트,35.952341,126.972578
경기도,군포시,산본동,1096번지 2호,디퍼의류타운,그 밖의 대규모점포,37.3641814,126.9330528
전북특별자치도,익산시,동산동,호 667-53 외 4필지,(주)이마트 익산점,대형마트,37.426614,126.666802
전라남도,목포시,상동,860번지 1호,포르모 큐브,그 밖의 대규모점포,34.8068877,126.4249642
전라남도,목포시,상동,860호,(유)대송유통,그 밖의 대규모점포,34.8068877,126.4249642
대전광역시,중구,부사동,101번지 1호,남대전 종합시장,그 밖의 대규모점포,36.3146654,127.4351103
경상남도,거제시,장평동,1211번지 외 1,홈플러스거제점,대형마트,34.8910818,128.6165933
서울특별시,서대문구,신촌동,74번지 12 호,신촌 밀리오레,그 밖의 대규모점포,37.5603295,126.9432052
부산광역시,사하구,장림동,1055호,세정아울렛부산점,쇼핑센터,35.0837574,128.9779170
서울특별시,도봉구,창동,581번지 28호,삼익쇼핑,그 밖의 대규모점포,37.6403219,127.0388800
인천광역시,서구,당하동,1065-1,(주) 이마트 검단점,대형마트,37.5853761,126.6765903
경상북도,경산시,대평동,439번지 7호,조아아울렛,전문점,35.8357902,128.7338004
서울특별시,중랑구,신내2동,645번지,홈플러스 신내점,대형마트,37.6157981,127.0937710
서울특별시,관악구,봉천동,862번지 1호,라붐아울렛,복합쇼핑몰,37.4810535,126.9522146
서울특별시,용산구,한강로3가,40번지 999호,아이파크(I PARK)백화점,백화점,37.5242560,126.9591166
울산광역시,중구,성남동,249번지 1호,뉴코아아울렛 울산성남점,쇼핑센터,35.5544135,129.3214541
강원특별자치도,삼척시,당저동,33번지 3호,홈플러스(주)삼척점,대형마트,37.4463755,129.1683187
서울특별시,강동구,성내동,25번지 1호,이안강동주상복합상가,그 밖의 대규모점포,37.5355396,127.1279672
경기도,용인시,기흥구,중동 833번지,(주)이마트 동백점,대형마트,37.2780425,127.1517093
부산광역시,남구,감만동,8호,홈플러스(주) 부산감만점,대형마트,35.1214667,129.0823251
경상남도,밀양시,내이동,1403번지 11호,홈플러스(주) 밀양점,대형마트,35.4897584,128.7410367
경기도,안산시단원구,고잔동,729번지 3호,로데오프라자,그 밖의 대규모점포,37.3145110,126.8369995
전북특별자치도,김제시,검산동,841번지 16호 외 12필지,홈플러스 김제점,대형마트,35.8000317,126.9031946
광주광역시,서구,화정동,12번지 13 호,(주)광주신세계이마트,대형마트,35.1554514,126.8787290
광주광역시,서구,화정동,12번지 13호 광주 이마트,이마트 광주점,그 밖의 대규모점포,35.1554514,126.8787290
전라남도,순천시,남정동,10호,순천원예농협 하나로마트,대형마트,34.9389536,127.4927097
서울특별시,양천구,신월1동,"105번지 ,106,113,114,115,118,119일대",신영시장상인회,시장,37.5344837,126.8350116
경상북도,경산시,중산동,623번지,(주)이마트경산점,대형마트,35.8346903,128.7201594
서울특별시,강동구,천호동,563번지,이천일아울렛 천호점,그 밖의 대규모점포,37.5412762,127.1259138
서울특별시,강서구,염창동,264번지 18호,스페이스프라자,그 밖의 대규모점포,37.5508143,126.8718037
제주특별자치도,서귀포시,법환동,841-2 이마트서귀포점,(주)이마트 서귀포점,대형마트,33.2482740,126.5088045
대구광역시,서구,내당동,965번지,서문시장2지구종합상가,시장,35.8661109,128.5714112
대구광역시,서구,내당동,965호,서문시장2지구종합상가,시장,35.8661109,128.5714112
부산광역시,사상구,엄궁동,690번지,롯데쇼핑(주)롯데마트사상점,대형마트,35.1275836,128.9684191
전라남도,여수시,국동,호 37-100번지 외4필지,롯데쇼핑(주) 롯데몰 여수점,대형마트,37.561117,126.94655
울산광역시,북구,진장동,호 유통단지 9블럭,롯데쇼핑(주)롯데마트 진장점,대형마트,33.483085,126.477175
부산광역시,사하구,다대동,820번지 1 호,수협다대회센터,그 밖의 대규모점포,35.0564820,128.9714938
서울특별시,동대문구,용두동,787번지 동의보감타워,건강백화점 동의보감,전문점,37.5778220,127.0376809
부산광역시,사하구,괴정동,961번지 1호,뉴코아 아울렛 괴정점,쇼핑센터,35.0989070,128.9940232
부산광역시,부산진구,부전동,53호,(주)농협유통 하나로마트 부전점,대형마트,35.1628276,129.0623470
서울특별시,중구,신당동,193번지 2 호,디오트,그 밖의 대규모점포,37.5691585,127.0147835
울산광역시,남구,야음동,789번지 91호,홈플러스 주식회사 울산남구점,대형마트,35.5261374,129.3260650
충청북도,청주시,청원구,율량동 500-3번지,엔포드,복합쇼핑몰,36.6667230,127.4950423
광주광역시,서구,광천동,49번지 1 호,(주)광주신세계,백화점,35.1603093,126.8801306
광주광역시,서구,광천동,49번지 1호 신세계백화점,(주)광주신세계,백화점,35.1603093,126.8801306
광주광역시,서구,화정동,12번지 13호,(주)광주신세계이마트,대형마트,35.1554514,126.8787290
충청남도,천안시,사직동,55번지 2 호,(주)데카플러스,쇼핑센터,36.8028884,127.1484225
서울특별시,성동구,마장동,510번지 3호 일대,마장축산물시장,시장,37.5697020,127.0393287
전라남도,순천시,덕암동,151번지,SC아울렛,전문점,34.9412389,127.5108690
서울특별시,광진구,자양동,663번지 21 호,프라젠 스파,그 밖의 대규모점포,37.5306622,127.0827353
경기도,용인시수지구,죽전동,1003번지 13호,죽전패션타운,그 밖의 대규모점포,37.3343513,127.1063885
강원특별자치도,원주시,중앙동,42번지 3호,중앙시민전통시장,시장,37.3517959,127.9498824
부산광역시,해운대구,좌동,1467번지 0004호,이랜드 리테일 해운대점,백화점,35.1705351,129.1763756
경기도,화성시,병점동,399번지 4호 외2필지,홈플러스(주) 병점점,대형마트,37.2031277,127.0359436
전라남도,순천시,조례동,758번지,뉴코아순천아울렛킴스,대형마트,34.9733604,127.5219599
경기도,광명시,하안동,38호,뉴코아 아울렛 광명점,복합쇼핑몰,37.4612167,126.8794291
경기도,안양시,동안구,비산동 411-8 부방유통,주식회사 부방유통,대형마트,37.3983877,126.9353283
제주특별자치도,서귀포시,동홍동,1560번지 1호,홈플러스(주) 서귀포점,대형마트,33.2603798,126.5592593
경상북도,구미시,신평동,465호,롯데쇼핑(주)롯데마트구미점,복합쇼핑몰,36.1137950,128.3652920
강원특별자치도,속초시,조양동,1498번지 2호,D-마트,그 밖의 대규모점포,38.1900481,128.5803165
서울특별시,송파구,신천동,7번지 18호,롯데캐슬플라자,쇼핑센터,37.5188955,127.0993119
경상북도,구미시,광평동,792-21 홈플러스 구미광평점,홈플러스(주) 구미점,대형마트,36.1027449,128.3637886
경기도,안산시,단원구,선부동 1077번지 1호 홈플러스,홈플러스(주)안산선부점,대형마트,37.3338272,126.8120814
서울특별시,노원구,상계동,292번지 1호,와우패션클럽,복합쇼핑몰,37.6553380,127.0637723
경기도,성남시중원구,성남동,3499호,니즈,그 밖의 대규모점포,37.4313971,127.1297654
경기도,용인시처인구,역북동,586-6 외 1필지호,(주)이마트 용인점,대형마트,37.2314093,127.1891759
경기도,오산시,원동,360번지 6호,(주)이마트 오산점,그 밖의 대규모점포,37.1387950,127.0732935
경기도,남양주시,호평동,637번지,(주)이마트 남양주점,그 밖의 대규모점포,37.6550409,127.2430872
서울특별시,영등포구,양평동3가,65호,코스트코 홀세일,대형마트,37.5278938,126.8922932
강원특별자치도,춘천시,온의동,511번지,(주)이마트 춘천점,대형마트,37.8638082,127.7183660
전라남도,여수시,선원동,1268번지 2호,롯데쇼핑(주) 롯데마트 여천점,대형마트,34.7772324,127.6511353
경기도,군포시,산본동,1231번지,뉴코아아울렛 산본점,그 밖의 대규모점포,37.3552755,126.9281612
울산광역시,중구,성남동,256번지 24호,(유) 에브라임이노베이션 울산지점,쇼핑센터,35.5536751,129.3207021
부산광역시,사상구,주례동,55번지 139호,(주)미래도시(경동윈츠빌),그 밖의 대규모점포,35.1505364,129.0132407
인천광역시,연수구,동춘동,462번지 32호,연수구옥련시장,시장,37.38282,127.118926
인천광역시,연수구,옥련2동,462번지 32호,연수구옥련시장상점가사업협동조합,시장,37.4249671,126.6477079
경기도,성남시수정구,신흥동,2463번지 5호,세이브존 성남점,복합쇼핑몰,37.4448375,127.1520453
경기도,안산시상록구,성포동,590호,롯데쇼핑(주)롯데마트안산점,쇼핑센터,37.3174307,126.8473179
서울특별시,강서구,방화동,567번지 4호,삼정프라자,그 밖의 대규모점포,37.5734926,126.8111163
경기도,용인시,수지구,죽전1동 1282번지,(주)이마트 스타필드 마켓 죽전점,대형마트,35.2011,128.573
서울특별시,은평구,대조동,240호,팜스퀘어,쇼핑센터,37.6097418,126.9290005
전라남도,광양시,중동,1811번지 1호,홈플러스 광양점,대형마트,34.9283716,127.6948092
서울특별시,강남구,도곡2동,"467번지 7호 아카데미스위트 에이동B101,B102,B201",아카데미프라자,그 밖의 대규모점포,37.4882233,127.0544454
서울특별시,강서구,등촌동,639번지 11호,홈플러스(주) 강서점,대형마트,37.5592666,126.8544720
서울특별시,노원구,상계동,713호,롯데백화점 노원점,백화점,37.6551499,127.0610983
경기도,성남시분당구,야탑동,341호,테마폴리스지하1층점,그 밖의 대규모점포,37.4131266,127.1273424
경기도,수원시,권선구,구운동 925번지,(주)이마트 서수원점,대형마트,37.2824430,126.9702144
전북특별자치도,전주시완산구,중노송동,495번지 6호,홈플러스 주식회사 전주완산점,대형마트,35.8237173,127.1500796
인천광역시,서구,마전동,호 검단2지구 24블럭 18롯트,탑스빌웰빙타운,쇼핑센터,35.198384,128.70294
경기도,성남시분당구,야탑동,341호,테마폴리스 지하2층점,그 밖의 대규모점포,37.4131266,127.1273424
경상남도,사천시,사천읍,정의리 394호,(사단법인)사천읍시장 번영회,그 밖의 대규모점포,35.0840865,128.0881826
대구광역시,중구,봉산동,127번지 1호 외,메트로프라자,그 밖의 대규모점포,35.8649767,128.5960534
경상남도,통영시,광도면,죽림리 1566번지 2호,(주) 이마트 통영점,복합쇼핑몰,34.8879109,128.4174753
인천광역시,동구,송현동,88-19,송현시장,시장,37.4762304,126.6346602
전라남도,광양시,중동,1732번지 3호,중마시장,시장,34.9385939,127.6991533
인천광역시,부평구,부평동,224번지 1호,부평중앙지하상가,그 밖의 대규모점포,37.5001352,126.7216635
경기도,성남시분당구,야탑동,"341번지 테마폴리스 지상1,2층","테마폴리스 지상1,2층",그 밖의 대규모점포,37.4131266,127.1273424
울산광역시,남구,삼산동,1377-8호,세이브존 울산점,쇼핑센터,35.5480140,129.3246293
경기도,용인시기흥구,보정동,1019번지 237호,트레이더스 홀세일 클럽 구성점,대형마트,37.3098561,127.1029622
경상북도,경주시,용강동,800번지 11호,홈플러스(주)경주점,대형마트,35.8744095,129.2249553
서울특별시,강동구,천호동,422번지 2호,천호신시장,시장,37.5427513,127.1279746
인천광역시,부평구,부평동,252번지 52호,진흥종합시장,그 밖의 대규모점포,37.4980956,126.7266882
서울특별시,양천구,목4동,"727번지 ,736,726,738,725,739,724,723일대",목4동시장상인회,시장,37.5374019,126.8656687
서울특별시,양천구,신월2동,"446번지 ,447,484,463, 신월4동427,428번지일대",경창시장상인회,시장,37.5245174,126.8420604
서울특별시,동대문구,장안동,368번지 1호,(주)형지쇼핑 아트몰링 장안점,그 밖의 대규모점포,37.5719306,127.0724172
부산광역시,부산진구,부암동,93호,트레이더스 홀세일 클럽 서면점,대형마트,35.1638933,129.0526581
대구광역시,서구,내당동,65번지 8 호,홈플러스(주),그 밖의 대규모점포,35.8597758,128.5620033
울산광역시,남구,삼산동,1646호,(주)이마트 울산점,구분없음,35.5380374,129.3483860
인천광역시,연수구,동춘동,926번지 9호,이마트 연수점,대형마트,37.4059842,126.6837019
부산광역시,금정구,구서동,368호,(주)이마트 금정점,대형마트,35.2502030,129.0906225
인천광역시,부평구,갈산동,171호,(주)이마트 부평점,대형마트,37.5167154,126.7258346
광주광역시,동구,계림동,100번지 11호 (2층),(주)금호계림주상복합상가,쇼핑센터,35.1631737,126.9222917
경상남도,창원시,중앙동,91호,신세계 이마트 창원점,대형마트,35.2263759,128.6799532
경상북도,안동시,옥동,796번지 1호,(주)이마트 안동점,대형마트,36.5584943,128.6993862
경상북도,영천시,오수동,286호,(주)이마트영천점,대형마트,35.9581655,128.9109802
경기도,용인시수지구,신봉동,909호,(주)이마트 수지점,대형마트,37.3198301,127.0833698
부산광역시,사상구,괘법동,531번지 2호,(주)이마트 사상점,구분없음,35.1641815,128.9788814
부산광역시,남구,문현동,751호,(주) 이마트 문현점,대형마트,35.1443206,129.0642618
광주광역시,광산구,우산동,1598번지 3호,주식회사 이마트 광산점,대형마트,35.1609300,126.8085151
경기도,시흥시,정왕동,1366번지 4호,롯데쇼핑(주) 롯데마트 시화점,대형마트,37.3385261,126.7289335
서울특별시,강동구,천호동,454번지 1호,(주)이마트천호점,대형마트,37.5382530,127.1257608
경기도,파주시,교하읍,당하리 195번지 5호,신세계 이마트 파주점,대형마트,35.803303,126.903688
서울특별시,서초구,양재동,215호 하이브랜드 지하1층,(주)이마트 양재점,대형마트,37.4634041,127.0370146
부산광역시,동래구,온천동,147번지 14호,온천인정시장,그 밖의 대규모점포,35.2181564,129.0605983
경기도,남양주시,와부읍,덕소리 501-3호,롯데쇼핑(주)롯데마트덕소점,대형마트,37.5846992,127.2145955
대구광역시,중구,덕산동,88 반월당역,메트로센터,그 밖의 대규모점포,35.8658152,128.5931567
울산광역시,남구,삼산동,1646호,(주)신세계이마트울산점,대형마트,35.5380374,129.3483860
경기도,광명시,철산동,440호,철산중앙시장,그 밖의 대규모점포,37.4747517,126.8703815
경상남도,진해시,석동,543-5호,롯데쇼핑(주)롯데마트진해점,대형마트,35.1582039,128.6987535
경기도,부천시,소사구,괴안동 129-1 HOME PLUS 소사점,홈플러스(주) 부천소사점,복합쇼핑몰,37.4848619,126.8142775
서울특별시,송파구,잠실동,40호,갤러리아팰리스 아케이드,그 밖의 대규모점포,37.5111085,127.0939534
대구광역시,서구,내당동,1290번지외1번지,두류1번가,그 밖의 대규모점포,35.8587548,128.5598527
경기도,양평군,양평읍,공흥리 441번지 1호,(주)메가마트 양평점,시장,37.4896300,127.5006398
대구광역시,남구,대명동,959번지 1호,홈플러스(주)남대구점,대형마트,35.8390102,128.5702345
경기도,양주시,회정동,351번지 2호 외 2필지,골드마트,대형마트,37.8276128,127.0531874
인천광역시,남동구,간석동,205번지 1호,(주)동보올리브백화점,백화점,37.4609704,126.7088530
경상남도,양산시,삼호동,7B-1L호,롯데쇼핑(주)롯데마트 웅상점,대형마트,35.4142727,129.1841462
경상남도,양산시,삼호동,7B-1L외18필지,롯데쇼핑(주) 롯데마트 웅상점,대형마트,35.4142727,129.1841462
서울특별시,용산구,한강로2가,191호,LS Avenue,그 밖의 대규모점포,37.5282018,126.9679789
인천광역시,부평구,산곡동,311번지 151호,(주)이랜드리테일,쇼핑센터,37.4939487,126.7057072
대구광역시,동구,신서동,521번지 39호,제이에스인터내셔날,그 밖의 대규모점포,35.8707888,128.7267731
서울특별시,노원구,중계동,517호,롯데마트 중계점,복합쇼핑몰,37.6472908,127.0703002
대구광역시,동구,신서동,521번지 36호 더블럭,더블럭(The Block),그 밖의 대규모점포,35.8707888,128.7267731
서울특별시,종로구,종로6가,270번지 3호 동대문종합시장D동상가,동대문종합시장D동상가,그 밖의 대규모점포,37.5708561,127.0071214
부산광역시,서구,동대신동1가,113호,대신시장,시장,35.1103784,129.0197148
전라남도,순천시,조례동,975번지 1호 외 39필지,홈플러스(주) 순천점,대형마트,34.9612203,127.5202891
경상남도,창원시,의창구,팔용동 30-1 뉴코아아울렛,뉴코아 아울렛 창원점,그 밖의 대규모점포,35.2346121,128.6420041
경상남도,창원시,의창구,팔용동 30-1 뉴코아아울렛,뉴코아아울렛 창원점,그 밖의 대규모점포,35.2346121,128.6420041
서울특별시,금천구,독산동,291번지 5호,시티렉스,쇼핑센터,37.4690220,126.8956029
인천광역시,남동구,구월동,1465번지 1호,뉴코아아울렛인천점,복합쇼핑몰,37.4445651,126.7007966
서울특별시,관악구,신림동,1422번지 5호,르네상스쇼핑몰(주),복합쇼핑몰,37.4851517,126.9323377
서울특별시,성북구,길음동,25번지 2호,이마트 미아점,대형마트,37.6113736,127.0296318
서울특별시,용산구,한강로3가,40번지 999호,아이파크몰(I PARK MALL),쇼핑센터,37.5242560,126.9591166
경기도,파주시,교하읍,문발리 502번지 1호,이채쇼핑몰,쇼핑센터,35.170909,129.174187
부산광역시,연제구,거제동,129-5호,한양프라자 부산점,쇼핑센터,35.1965458,129.0807402
서울특별시,노원구,월계동,333번지 1호,이마트타운 월계점,쇼핑센터,37.6273469,127.0618674
경기도,광명시,광명동,150번지 19호,크로앙스,그 밖의 대규모점포,37.4584542,126.8515496
경상북도,포항시,북구,득량동 305 이마트,(주)이마트 포항이동점,복합쇼핑몰,36.0316967,129.3390379
부산광역시,기장군,기장읍,대라리 72번지 1호,기장시장번영회,시장,35.2435337,129.2152025
대구광역시,동구,신서동,520번지 1호,(주)이마트 반야월점,대형마트,35.8705197,128.7273919
경상남도,김해시,장유면,대청리 300호,롯데쇼핑(주) 롯데마트장유점,대형마트,38.187618,128.590788
서울특별시,동대문구,제기동,892번지 71호,한솔동의보감,전문점,37.5842079,127.0367934
대전광역시,서구,월평동,1491번지 패션월드,패션월드,그 밖의 대규모점포,36.3519128,127.3528016
서울특별시,종로구,창신동,436번지 79 호,동대문신발도매상가,그 밖의 대규모점포,37.5708168,127.0125986
경상남도,양산시,중부동,705호,(주)이마트 양산점,대형마트,35.3368570,129.0263823
경기도,양주시,회정동,98번지 5호,(주)이마트 양주점,대형마트,37.8420495,127.0538513
서울특별시,양천구,목동,917번지 6호,행복한백화점,백화점,37.5295067,126.8751374
서울특별시,중구,봉래동2가,122호,롯데쇼핑(주)롯데마트 제타플렉스 서울역점,대형마트,37.5582052,126.9695857
서울특별시,노원구,중계동,360번지 2호,홈플러스(주)익스프레스 중계점,구분없음,37.6506304,127.0729282
서울특별시,강동구,성내동,428번지 2호,파크프라자 상가,그 밖의 대규모점포,37.5279057,127.1348652
전북특별자치도,전주시완산구,서신동,971호,롯데쇼핑(주) 롯데백화점 전주점,백화점,35.8345301,127.1218052
충청북도,청주시,흥덕구,가경동 1696번지,홈플러스(주)청주점,대형마트,36.6154398,127.4423136
경기도,안양시만안구,안양동,676번지 6호,패션일번가,그 밖의 대규모점포,37.3997576,126.9202415
부산광역시,북구,금곡동,1874번지 3호,(주)농협유통 하나로클럽 부산점,복합쇼핑몰,35.2507894,129.0109401
인천광역시,연수구,동춘동,932호,롯데슈퍼연수점,구분없음,37.4054335,126.6725189
대전광역시,서구,월평동,243,스타게이트씨네몰,그 밖의 대규모점포,36.3619135,127.3789323
경상남도,창원시,중앙동,91호,신세계 이마트 창원점,대형마트,35.2263759,128.6799532
경상남도,창원시,중앙동,91호,신세계 이마트 창원점,대형마트,35.2263759,128.6799532
울산광역시,울주군,삼남읍,교동리 619-61,(주)메가마트 언양점,복합쇼핑몰,35.5463263,129.1178584
서울특별시,종로구,서린동,33호,영풍문고,대형마트,37.5695814,126.9821320
부산광역시,해운대구,중1동,1380번지 14호,(주)세이브존리베라,쇼핑센터,35.1628994,129.1615690
서울특별시,종로구,종로1가,1번지,종로1번지아케이트,복합쇼핑몰,37.5705901,126.9780819
충청남도,천안시,서북구,성정동 1486번지,롯데쇼핑(주)롯데마트성정점,대형마트,36.8262647,127.1399819
강원특별자치도,속초시,중앙동,471번지 4호,속초종합중앙시장상인회,그 밖의 대규모점포,38.2052359,128.5903486
경기도,광명시,광명4동,200번지 6호,광명한진타운시장,그 밖의 대규모점포,37.4777654,126.8521599
제주특별자치도,제주시,노형동,919번지,(주)신세계 이마트 신제주점,대형마트,33.4851813,126.4803296
경기도,시흥시,정왕동,2166번지 4호,홈플러스(주)시화점,대형마트,37.3474234,126.7215921
강원특별자치도,원주시,개운동,118번지 2호 외1,롯데쇼핑(주)롯데슈퍼원주점,구분없음,37.3418620,127.9546862
서울특별시,노원구,상계동,1258 희성오피앙,오피앙,그 밖의 대규모점포,37.6802701,127.0549050
충청남도,논산시,반월동,66번지 1호,청안백화점,백화점,36.2045471,127.0855176
충청북도,청주시,흥덕구,가경동 1416-3번지,드림플러스,복합쇼핑몰,36.6261788,127.4312356
인천광역시,남구,주안6동,1541번지,석바위역지하도상가(주),그 밖의 대규모점포,37.411983,127.130218
경기도,용인시수지구,죽전동,1003-175호,(주)에프앤에프용인,전문점,37.3287899,127.1086438
강원특별자치도,동해시,천곡동,831호,(주)이마트 동해점,대형마트,37.5239276,129.1170194
대구광역시,북구,산격동,1666호,대구종합유통단지 전기조명관사업협동조합,복합쇼핑몰,35.9057073,128.6082861
서울특별시,강북구,수유동,63번지,수유프라자,그 밖의 대규모점포,37.6316986,127.0234677
경기도,수원시장안구,천천동,525호,롯데쇼핑(주) 롯데마트 천천점,대형마트,37.2964257,126.9822021
대전광역시,서구,탄방동,746번지,로데오타운,그 밖의 대규모점포,36.3472996,127.3880059
강원특별자치도,속초시,청호동,459-134 E마트,(주)이마트 속초점,대형마트,38.1908979,128.5961360
서울특별시,동대문구,용두동,33번지 1호,홈플러스(주) 동대문점,대형마트,37.5745215,127.0388250
서울특별시,종로구,종로6가,289번지 57호,동대문종합시장 신관,그 밖의 대규모점포,37.5699809,127.0090362
서울특별시,금천구,독산동,291번지 7호,삼성테스코(주)홈플러스 금천점,대형마트,37.4690220,126.8956029
서울특별시,금천구,독산동,291-7 홈플러스 금천점,홈플러스(주) 금천점,대형마트,37.4686955,126.8969006
서울특별시,금천구,독산동,291번지 7호,삼성테스코(주)홈플러스 금천점,대형마트,37.4690220,126.8956029
경상북도,영주시,풍기읍,서부리 145번지 3호,풍기인삼시장,그 밖의 대규모점포,36.8729123,128.5240707
강원특별자치도,원주시,단구동,1599-1호,원주 프리미엄 아울렛,전문점,37.3255891,127.9570482
경기도,부천시,원미구중동,1164번지,(주)현대백화점 중동점,백화점,37.5042947,126.7621681
경기도,수원시권선구,권선동,1296번지 5호,센터블SPA,쇼핑센터,37.2510515,127.0346755
광주광역시,서구,치평동,1326번지,주식회사 광주 세정아울렛,쇼핑센터,35.1467139,126.8473115
광주광역시,서구,치평동,1326번지,주식회사 광주세정아울렛,쇼핑센터,35.1467139,126.8473115
경기도,용인시수지구,고기동,호 17블럭,신세계 이마트 수지점,대형마트,35.546513,129.338944
경기도,부천시,원미구중동,1164호,(주)현대백화점 중동점,백화점,37.5042947,126.7621681
경기도,고양시,일산동구,장항동 765번지 라페스타 쇼핑몰 D동 301-1호,라페스타,그 밖의 대규모점포,37.6612387,126.7681181
서울특별시,도봉구,방학동,707번지 7호,홈플러스(주)방학점,대형마트,37.6657415,127.0436582
경상남도,창원시,성산구,상남동 44번지 1호 대동백화점,대동백화점,백화점,35.2194884,128.6884832
대전광역시,유성구,봉명동,669호,홈플러스(주)유성점,대형마트,36.3584675,127.3543400
전라남도,여수시,봉산동,"100-3, 100-15호",국동항 유통타운,그 밖의 대규모점포,34.7293972,127.7246812
경기도,안산시,단원구,초지동 742번지 4호,(주)이마트 안산고잔점,대형마트,37.3033042,126.8098808
부산광역시,부산진구,부전동,192번지 2호,쥬디스태화,시장,35.1549581,129.0597188
부산광역시,금정구,청룡동,33번지 4호,동산오차드힐 상가,그 밖의 대규모점포,35.2746778,129.0900238
서울특별시,마포구,성산동,515호 월드컵경기장내,홈플러스(주)월드컵점,대형마트,37.5682884,126.8972733
인천광역시,연수구,청학동,502번지 4호,롯데마트연수점,대형마트,37.4160339,126.6741199
서울특별시,강북구,미아동,58호,숭인시장,그 밖의 대규모점포,37.6127344,127.0298008
경기도,수원시장안구,조원동,893호,북수원 패션아울렛,쇼핑센터,37.3035304,127.0074559
경기도,의정부시,금오동,475번지 1호,홈플러스의정부점,복합쇼핑몰,37.7520941,127.0710852
충청남도,보령시,신흑동,2240호,(사)한국수산업경영인보령시연합회,그 밖의 대규모점포,36.3271627,126.5070488
충청남도,보령시,신흑동,2240호,(사)한국수산업경영인보령시연합회,그 밖의 대규모점포,36.3271627,126.5070488
서울특별시,영등포구,문래동3가,55호,로데오 왁,전문점,37.5171254,126.8949813
부산광역시,해운대구,중1동,1775번지 7호,해운대상설할인타운,그 밖의 대규모점포,35.1626879,129.1693733
부산광역시,연제구,거제동,1208호,홈플러스 주식회사 아시아드점,대형마트,35.1909444,129.0614127
경상남도,창원시,마산회원구,합성1동 586번지,(주)대현프리몰 창원점,쇼핑센터,35.2376680,128.5808763
서울특별시,종로구,예지동,6번지 1호,광장주식회사,시장,37.5700678,126.9989495
경기도,수원시팔달구,매산로1가,18호,AK플라자수원점,복합쇼핑몰,37.2661789,126.9998957
서울특별시,성북구,길음동,535번지 8호,길음시장,시장,37.6039452,127.0227865
대구광역시,북구,칠성동2가,302번지 155호 롯데백화점,롯데백화점 대구점,쇼핑센터,35.8781506,128.5899490
서울특별시,도봉구,도봉동,30번지 1호 도봉한신쇼핑상가,도봉한신쇼핑상가,복합쇼핑몰,37.6970431,127.0258548
충청남도,천안시,동남구,신방동 784번지 1 호,천안산업기자재유통단지,그 밖의 대규모점포,36.7884886,127.1197102
서울특별시,강남구,압구정1동,456번지,금강상가,그 밖의 대규모점포,35.860623,128.560741
충청남도,보령시,대천동,618번지 64호,동부시장,그 밖의 대규모점포,36.3528957,126.6025526
울산광역시,중구,옥교동,120번지 2 호,(주)우남산업 센트럴프라자,전문점,35.5555377,129.3238907
경기도,부천시,원미구상동,540번지 1호,홈플러스(주)부천상동점,대형마트,37.5043620,126.7550291
충청북도,충주시,칠금동,598호,애플존,대형마트,36.9867250,127.9225988
강원특별자치도,강릉시,송정동,1008번지 7호,(주)이마트강릉점,대형마트,37.7702281,128.9230271
대구광역시,달서구,용산동,230번지 11호,홈플러스(주) 성서점,대형마트,35.8530841,128.5275203
부산광역시,부산진구,부전2동,227번지 2호,삼정타워,복합쇼핑몰,35.1530108,129.0596068
강원특별자치도,홍천군,홍천읍,신장대리 8번지 130호,홍천시장,시장,37.6915299,127.8871188
강원특별자치도,홍천군,홍천읍,신장대리 8-130호,홍천시장,그 밖의 대규모점포,37.6907150,127.8865102
서울특별시,강동구,명일동,46번지 4호,신세계 이마트 명일점,대형마트,37.5546173,127.1536863
서울특별시,강동구,명일동,46번지 4 호,(주)이마트명일점,그 밖의 대규모점포,37.5546173,127.1536863
충청북도,청주시,상당구,서문동 157-14번지,홈플러스(주) 청주성안점,대형마트,36.6362926,127.4859752
광주광역시,북구,두암2동,575번지 1호,홈플러스(주) 동광주점,대형마트,35.1795454,126.9304638
경기도,광명시,철산동,367번지,세이브존 광명점,쇼핑센터,37.4721971,126.8765248
대구광역시,달서구,호림동,16번지,모다아울렛(MODAoutlet),전문점,35.8360149,128.4913956
광주광역시,광산구,쌍암동,694번지 3호,롯데쇼핑(주)롯데마트첨단점,복합쇼핑몰,35.2172702,126.8489586
대전광역시,서구,만년동,303호,디지털타운,그 밖의 대규모점포,36.3693148,127.3805703
대전광역시,중구,문화동,1번지 17 호,홈플러스(주) 문화점,대형마트,36.3229722,127.4166111
대전광역시,동구,용전동,65번지 1호 외 25필지,삼성테스코(주) 홈플러스 동대전점,대형마트,36.3538300,127.4373617
경기도,성남시분당구,야탑동,357-1호,뉴코아백화점,백화점,37.4104529,127.1272928
제주특별자치도,제주시,한림읍,대림리 1698번지 4호,한림민속오일시장,시장,33.4208525,126.2741747
대구광역시,북구,노원동3가,1022호,노원휴먼프라자,그 밖의 대규모점포,35.8920758,128.5701691
경기도,오산시,오산동,868호,롯데쇼핑(주) 롯데마트 오산점,대형마트,37.1494419,127.0730147
인천광역시,부평구,청천동,"386, 386-1,2호",아울렛 아이즈빌,그 밖의 대규모점포,37.5218638,126.7034829
경기도,안양시동안구,관양동,1608번지 3호,(주)이마트평촌점,대형마트,37.3949427,126.9635190
대전광역시,중구,문화동,1번지 19호,가구갤러리,전문점,36.3229722,127.4166111
충청북도,청주시,상당구,용암동 2419번지,엘지마트 상당점,그 밖의 대규모점포,36.6184241,127.5083780
충청북도,청주시,상당구,용암동 2634번지,롯데쇼핑(주) 롯데마트상당점,대형마트,36.6204132,127.5161458
서울특별시,양천구,목동,916호,현대백화점목동점,백화점,37.5268538,126.8750343
인천광역시,서구,가좌1동,118번지,홈플러스 가좌점,대형마트,37.4976209,126.6707419
경기도,안산시,단원구,고잔동 707번지 2호,홈플러스(주)안산고잔점,대형마트,37.3123164,126.8276969
경기도,안산시,단원구,고잔동 707번지 2호 삼성홈플러스,홈플러스(주),대형마트,37.3123164,126.8276969
서울특별시,중구,을지로6가,18번지 35호,헬로우에이피엠,그 밖의 대규모점포,37.5692615,127.0098288
경기도,남양주시,오남읍,오남리 203번지 7호,(주)마트링크,대형마트,37.6914844,127.2147766
충청남도,서산시,갈산동,222호,(주)세계유통,그 밖의 대규모점포,36.7872891,126.4319548
서울특별시,금천구,독산동,295번지 10 호 외 5,롯데쇼핑(주) 롯데마트맥스 금천점,대형마트,37.4720542,126.8950801
경기도,의왕시,내손동,743호,롯데쇼핑(주) 롯데마트 의왕점,대형마트,37.3802096,126.9736434
경기도,의왕시,고천동,호,롯데쇼핑(주) 롯데마트 의왕점,대형마트,37.556575,126.970975
경기도,의왕시,내손동,743호,롯데쇼핑(주) 롯데마트 의왕점,대형마트,37.3802096,126.9736434
부산광역시,해운대구,중동,1774번지 5호,해운대로데오아울렛,그 밖의 대규모점포,35.1634473,129.1688314
서울특별시,중구,신당동,193번지 3호,에이피엠패션몰,그 밖의 대규모점포,37.5691585,127.0147835
대구광역시,북구,칠성동2가,20번지 1호,스펙트럼시티,시장,35.8851422,128.5897939
대구광역시,북구,칠성동2가,20번지 1호,(주)스펙트럼시티,그 밖의 대규모점포,35.8851422,128.5897939
충청북도,청주시,청원구,사천동 48-1번지,충북산업용재유통단지,전문점,36.6740854,127.4793319
부산광역시,해운대구,좌동,1467번지 2호,시티코아,그 밖의 대규모점포,35.1705351,129.1763756
전라남도,목포시,상동,1134호,롯데쇼핑(주)롯데마트맥스 목포점,대형마트,34.7972621,126.4293761
제주특별자치도,제주시,노형동,708호,(주)뉴월드,대형마트,33.4824540,126.4813924
경기도,성남시,분당구,구미동 11번지 4호 2001아울렛,이천일아울렛 분당점,복합쇼핑몰,37.3492964,127.1072915
인천광역시,계양구,작전동,911번지 1호,(주)이마트 계양점,대형마트,37.5310740,126.7368985
인천광역시,계양구,작전동,911번지 1호,(주)이마트 계양점,대형마트,37.5310740,126.7368985
인천광역시,계양구,작전동,911번지 1호,(주)이마트 계양점,대형마트,37.5310740,126.7368985
인천광역시,계양구,작전동,911번지 1호,(주)이마트 계양점,대형마트,37.5310740,126.7368985
경상북도,구미시,광평동,65번지 1호,(주)이마트 구미점,그 밖의 대규모점포,36.1094842,128.3648791
경상남도,마산시,창포동1가,8번지 1호,롯데쇼핑(주) 롯데마트 마산점,구분없음,38.2059,128.5906
서울특별시,은평구,불광동,311번지 13호,메트로,쇼핑센터,37.6197104,126.9210413
경기도,부천시,원미구중동,1157호,월마트슈퍼센타 중동점,대형마트,37.5040742,126.7639724
경상남도,창원시,성산구,중앙동 91번지,(주) 이마트 창원점,대형마트,35.2263759,128.6799532
충청남도,서산시,예천동,508번지,롯데쇼핑(주)롯데마트서산점,대형마트,36.7734788,126.4381539
경기도,수원시팔달구,인계동,1045호,홈플러스(주) 동수원점,대형마트,37.2627677,127.0301165
경기도,용인시,처인구,김량장동 254번지 51호,용인골드타워모드빌,그 밖의 대규모점포,37.2359539,127.2028517
대구광역시,북구,칠성동2가,20번지 1호,(주)이마트 칠성점,대형마트,35.8851422,128.5897939
대구광역시,북구,칠성동2가,20번지 1호,신세계이마트 칠성점,대형마트,35.8851422,128.5897939
대전광역시,서구,둔산1동,959번지 2호,주식회사 이마트 둔산점,구분없음,37.461197,126.692404
서울특별시,중구,명동2가,83번지 5호,눈스퀘어,그 밖의 대규모점포,37.5636172,126.9828708
충청북도,충주시,칠금동,849번지 00호,롯데쇼핑(주)롯데마트충주점,대형마트,36.9817612,127.9146087
경기도,안산시상록구,사동,1531호,안산의류상설할인매장 B동,전문점,37.3049435,126.8459582
경기도,안산시상록구,사동,1530호,안산의류상설할인매장 A동,전문점,37.3049949,126.8441319
경상남도,창원시,상남동,79호,롯데백화점 창원점,백화점,37.295833,126.978263
전라남도,여수시,오림동,405-1호,(주)이마트여수점,복합쇼핑몰,34.7580140,127.7149758
전라남도,여수시,오림동,405번지 1호,신세계 이마트 여수점,대형마트,34.7580140,127.7149758
대전광역시,서구,관저동,1008호,리틀파워존,그 밖의 대규모점포,36.3009108,127.3354196
서울특별시,노원구,중계동,509번지 2호,홈플러스(주) 중계점,복합쇼핑몰,37.6413109,127.0679891
서울특별시,영등포구,문래동3가,55번지 3호,홈플러스(주) 영등포점,대형마트,37.5171254,126.8949813
제주특별자치도,제주시,연동,262번지 5호,셀비즈백화점,백화점,33.4868317,126.4892999
경상남도,김해시,한림면,신천리 170번지 1호,자어언트가구프라자,전문점,35.2835283,128.8269049
경상북도,포항시,남구,인덕동 161번지 176호,(주)이마트 포항점,복합쇼핑몰,35.9923883,129.3965064
부산광역시,연제구,연산동,822-7호,(주)이마트 연제점,대형마트,35.1761401,129.0813207
경기도,수원시영통구,영통동,960번지 1호,롯데쇼핑(주) 롯데마트 영통점,대형마트,37.2526839,127.0715847
대전광역시,중구,은행동,48번지 1호,밀라노21 운영관리위원회,그 밖의 대규모점포,36.3289271,127.4272892
울산광역시,중구,복산2동,100번지,홈플러스(주) 울산점,대형마트,35.5682498,129.3291321
서울특별시,은평구,응암동,90번지 1호,(주)이마트 은평점,대형마트,37.6003731,126.9201982
대전광역시,서구,만년동,299호,테크노월드,그 밖의 대규모점포,36.3689058,127.3800060
대구광역시,북구,동천동,968호,(주)홈플러스 칠곡점,대형마트,35.9448519,128.5559592
대전광역시,유성구,원내동,33호 외 19필지,롯데쇼핑(주) 롯데마트 서대전점,대형마트,36.3017183,127.3232514
광주광역시,동구,충장로4가,29번지 2호 외3필지,NC WAVE 충장점,쇼핑센터,35.1490351,126.9134978
서울특별시,영등포구,영등포동8가,62번지 1호,롯데쇼핑(주) 롯데마트맥스 영등포점,대형마트,37.5278113,126.9046755
경기도,수원시권선구,권선동,1189호,NC수원 터미널점,그 밖의 대규모점포,37.2504584,127.0208873
전북특별자치도,익산시,영등동,833번지 2호,롯데쇼핑(주)롯데마트 익산점,대형마트,35.9594916,126.9734308
대구광역시,서구,비산동,1612번지 3호 외9필지,월마트 비산점,대형마트,35.8898490,128.5554582
광주광역시,서구,치평동,1208번지 5호,E-PLAZA,그 밖의 대규모점포,35.1567715,126.8535466
서울특별시,성북구,길음동,20번지 1호,현대백화점 미아점,백화점,37.6083842,127.0287408
경기도,김포시,감정동,692번지,홈플러스 주식회사 김포점,대형마트,37.6238916,126.6986141
경기도,평택시,지제동,50호,주)이마트평택점,대형마트,37.0211765,127.0758129
부산광역시,부산진구,당감동,109번지 4호,금호그랜드,그 밖의 대규모점포,35.1569399,129.0422557
광주광역시,서구,치평동,1208번지 5호,신세계이마트상무점,대형마트,35.1567715,126.8535466
울산광역시,남구,삼산동,1480번지 1호 롯데백화점,롯데백화점 울산점,백화점,35.5384501,129.3383349
인천광역시,계양구,작전동,448번지 7호,홈플러스(주) 작전점,대형마트,37.5267779,126.7218668
강원특별자치도,원주시,단계동,803번지 2호 원주원예농협하나로클럽,원주원예농협하나로클럽,쇼핑센터,37.3411125,127.9388649
서울특별시,영등포구,당산동5가,16번지 7호,이랜드리테일 당산점,그 밖의 대규모점포,37.5341032,126.9009862
경기도,고양시덕양구,화정동,982호,롯데쇼핑(주) 롯데마트 화정점,대형마트,37.6329451,126.8311447
대구광역시,북구,산격동,1667호,대구종합유통단지 섬유제품관,그 밖의 대규모점포,35.9063176,128.6096330
경상북도,경산시,중방동,332번지 13호,NC 경산점,쇼핑센터,35.8214918,128.7318106
서울특별시,중랑구,상봉동,81호,코스트코홀세일 상봉점,대형마트,37.5968695,127.0902228
대구광역시,달서구,대천동,555번지,(주)이마트 월배점,대형마트,35.8171551,128.5237522
충청남도,천안시,서북구,쌍용동 191번지 E 마트,이마트 천안점,대형마트,36.7960455,127.1272562
서울특별시,중랑구,신내1동,786번지 동성타워프라자,동성타워프라자,복합쇼핑몰,37.6080552,127.0972918
경상남도,마산시,산호동,10번지 3 호,(주)신세계 마산점,백화점,35.2202501,128.5868007
부산광역시,북구,화명동,2273호,롯데쇼핑(주)롯데마트화명점,대형마트,35.2351748,129.0129830
경기도,안양시동안구,비산동,1110번지 1호,샤크존,그 밖의 대규모점포,37.3932394,126.9527958
경기도,안양시,동안구,호계동 555번지 9호,안양국제유통단지,그 밖의 대규모점포,37.3736517,126.9476359
전북특별자치도,군산시,경암동,590번지 296 호,(주)이마트군산점,대형마트,35.9826161,126.7363721
대구광역시,수성구,만촌1동,1356번지 5호,(주)이마트 만촌점,대형마트,35.8710302,128.6340341
인천광역시,중구,신생동,38호,(주)이마트  동인천점,대형마트,37.4666021,126.6284875
경기도,의정부시,용현동,527번지 1호,롯데쇼핑(주) 마그넷 의정부점,대형마트,37.7427980,127.0843215
대구광역시,북구,산격동,1676 대구전시컨벤션센터,EXCO Mall,그 밖의 대규모점포,35.9071682,128.6129553
대구광역시,중구,동산동,562호,베네시움,그 밖의 대규모점포,35.8667052,128.5827111
전라남도,목포시,옥암동,915번지 25호,(주)이마트목포점,복합쇼핑몰,34.8133774,126.4252221
경기도,수원시,영통구,원천동 177번지 1호,홈플러스(주) 원천점,대형마트,37.2700932,127.0636173
경상북도,포항시북구,학산동,127번지 9호 롯데백화점,롯데백화점 포항점,백화점,36.0511158,129.3712336
경상남도,김해시,내동,1131-2,홈플러스(주) 김해점,대형마트,35.2418326,128.8701888
전북특별자치도,전주시,완산구,고사동 96번지 1호 고사동 105번지,NC WAVE 객사점,복합쇼핑몰,35.8195703,127.1450442
경상남도,창원시,의창구,팔용동 30번지 3호,홈플러스 창원점,대형마트,35.2346121,128.6420041
경상남도,창원시,성산구,가음동 21-20번지,가음시장대상가,그 밖의 대규모점포,35.2079585,128.6970839
부산광역시,사하구,장림1동,1033번지 2호,롯데쇼핑(주) 롯데마트 사하점,대형마트,35.0849950,128.9680938
경상남도,창원시,상남동,16번지,상남시장,그 밖의 대규모점포,35.2222080,128.6833608
경기도,파주시,아동동,산6-1호,팜스프링상가,그 밖의 대규모점포,37.7750275,126.7769957
광주광역시,서구,치평동,1239호,롯데쇼핑(주)롯데마트맥스 상무점,대형마트,35.1523712,126.8523880
충청남도,천안시,서북구,쌍용동 1367번지,롯데쇼핑(주)롯데마트천안점,대형마트,36.8001727,127.1167572
충청남도,천안시,동남구,신부동 354-1 신세계백화점 천안아산점,신세계백화점 천안아산점,백화점,36.8202926,127.1567545
경기도,수원시,장안구,조원1동 896번지,홈플러스(주) 북수원점,대형마트,36.315348,127.40653
경기도,수원시영통구,영통동,994번지 2호,홈플러스(주) 영통점,대형마트,37.2520192,127.0722538
경상남도,창원시,반지동,78호,(주)아람마트 창원점,대형마트,35.2399735,128.6625528
인천광역시,남구,주안동,30번지 1 호,(주)아이존,그 밖의 대규모점포,37.4655588,126.6803981
전라남도,순천시,풍덕동,300호,한국까르푸주식회사순천점,쇼핑센터,34.9400589,127.5090201
서울특별시,송파구,문정동,150번지 2호,롯데쇼핑(주)롯데마트 송파점,대형마트,37.4885282,127.1143824
서울특별시,강남구,대치동,937호,롯데백화점(강남점),백화점,37.4970458,127.0536066
경기도,이천시,증포동,47-4번지 13호,(주)이마트이천점,복합쇼핑몰,37.2941500,127.4589527
울산광역시,북구,진장동,"진장명촌지구 54B 1N, 53B 4~11N",(주)메가마트 신선도원몰,복합쇼핑몰,36.315348,127.40653
대구광역시,동구,각산동,호,확산마트,대형마트,36.589755,127.505123
대구광역시,동구,각산동,호,확산마트,대형마트,36.589755,127.505123
대구광역시,동구,각산동,호,확산마트,대형마트,37.530378,126.871232
대구광역시,동구,각산동,호,확산대형마트,대형마트,36.589755,127.505123
대구광역시,동구,각산동,호,확산대형마트,대형마트,36.589755,127.505123
대구광역시,동구,각산동,호,확산대형마트,대형마트,37.530378,126.871232
대구광역시,동구,각산동,호,동대구,그 밖의 대규모점포,36.589755,127.505123
대구광역시,동구,각산동,호,동대구,그 밖의 대규모점포,36.589755,127.505123
대구광역시,동구,각산동,호,동대구,그 밖의 대규모점포,37.530378,126.871232
경상남도,김해시,한림면,신천리 736번지 1 호,노바가구,대형마트,35.2773222,128.8261421
서울특별시,강남구,삼성동,159번지 1호 외,코엑스 몰,복합쇼핑몰,37.5125278,127.0588432
충청북도,청주시,상당구,북문로1가 170-1번지,쥬네쓰시장,그 밖의 대규모점포,36.6352479,127.4881000
서울특별시,강남구,삼성동,159호,코엑스 호텔아케이드,쇼핑센터,37.5125278,127.0588432
경기도,시흥시,정왕동,1734번지 1호,성담스퀘어,쇼핑센터,37.3460564,126.7367015
경기도,성남시분당구,야탑동,341호,홈플러스(주) 야탑점,대형마트,37.4131266,127.1273424
서울특별시,성동구,행당동,346번지 행당 한진타운 종합상가,한진종합상가,그 밖의 대규모점포,37.5558957,127.0292059
광주광역시,북구,일곡동,839번지 1호,(주)마트앤마트,그 밖의 대규모점포,35.2032072,126.8989452
부산광역시,부산진구,전포동,892-20호,지오플레이스,그 밖의 대규모점포,35.1494192,129.0639484
경기도,시흥시,대야동,542번지,롯데쇼핑(주) 롯데마트 시흥점,대형마트,37.4430468,126.7919694
부산광역시,부산진구,부전동,450호,(주)네오스포,그 밖의 대규모점포,35.1535869,129.0540650
대전광역시,서구,괴정동,423번지 1호,롯데백화점 대전점,백화점,36.3406292,127.3895613
인천광역시,부평구,부평동,738-21 부평민자역사,롯데쇼핑(주)롯데마트부평역점,대형마트,37.4896896,126.7226854
전북특별자치도,김제시,서암동,397번지 1 호,마트크럽,쇼핑센터,35.8049841,126.8827852
전라남도,순천시,해룡면,상삼리 426호,블루마트,그 밖의 대규모점포,34.9473190,127.5341314
부산광역시,사상구,학장동,797번지 1 호,성황리마트,그 밖의 대규모점포,35.1384647,128.9778420
부산광역시,사하구,신평동,452-1호,서원유통탑마트신평점,대형마트,35.0971682,128.9618905
경상남도,양산시,중부동,696-1호,양산신도시 대동황토방아파트상가,그 밖의 대규모점포,35.3382497,129.0338683
충청남도,서산시,대산읍,대산리 119호,대산종합시장,그 밖의 대규모점포,36.9380492,126.4339274
충청남도,천안시,동남구,신방동 784번지 9 호,홈플러스(주) 천안신방점,대형마트,36.7884886,127.1197102
경기도,고양시일산서구,주엽동,15호,롯데쇼핑(주) 롯데마트 주엽점,대형마트,37.6733180,126.7553853
제주특별자치도,제주시,삼도이동,1259호,(주)이마트 제주점,대형마트,33.5181372,126.5205762
제주특별자치도,제주시,삼도이동,1259호,이마트,대형마트,33.5181372,126.5205762
충청남도,천안시,대흥동,165호,르씨엘 패션 쇼핑블럭,그 밖의 대규모점포,36.8069215,127.1479854
전북특별자치도,김제시,요촌동,272번지 1 호,디씨몰,쇼핑센터,35.8012740,126.8849107
서울특별시,관악구,미성동,607번지 73호,(주)천성세이브마트,그 밖의 대규모점포,37.4749037,126.9169982
경기도,안산시단원구,고잔동,536번지 2 호,롯데쇼핑(주) 안산점,백화점,37.3182318,126.8338094
충청남도,천안시,서북구,신당동 452번지 3호,(주)메가마트 메가도매센터 천안점,대형마트,36.8617678,127.1533518
대전광역시,서구,탄방동,590호,샤크존,그 밖의 대규모점포,36.3482203,127.3861701
대구광역시,북구,산격동,1621번지,대구종합유통단지 전자관,그 밖의 대규모점포,35.9071354,128.6068548
대구광역시,달서구,이곡동,1254호,(주)이마트 성서점,대형마트,35.8537957,128.5101888
광주광역시,동구,금동,"211번지 11호 금동 211-10, 211-11",코리아밀라노,그 밖의 대규모점포,35.1423201,126.9178940
대구광역시,북구,태전동,993호,네오시티프라자,시장,35.9322826,128.5489127
전라남도,목포시,산정동,1383호,자유시장,그 밖의 대규모점포,34.7929630,126.4030689
전라남도,목포시,석현동,1171번지 3 호,청호시장,그 밖의 대규모점포,34.8158436,126.4241404
경기도,고양시일산동구,장항동,784-2호,롯데백화점 일산점,백화점,37.6602317,126.7723226
전북특별자치도,김제시,옥산동,286번지 3 호,N마트,쇼핑센터,35.7967467,126.8828766
전라남도,순천시,연향동,1327호,조은프라자,그 밖의 대규모점포,34.9535248,127.5203034
경기도,이천시,중리동,220호,(주)프라자2000,그 밖의 대규모점포,37.2775170,127.4476186
경상북도,포항시남구,지곡동,481-1호,그린프라자,그 밖의 대규모점포,36.0275086,129.3247152
서울특별시,중구,봉래동2가,120번지 11호,롯데아울렛 서울역점,쇼핑센터,37.5582052,126.9695857
전북특별자치도,군산시,나운동,805-1호,동아26센타,그 밖의 대규모점포,35.9635272,126.6930537
서울특별시,구로구,구로동,188번지 26 호,이마트구로점,대형마트,37.4849014,126.8981285
서울특별시,구로구,구로동,188번지 26호,(주)이마트 구로점,대형마트,37.4849014,126.8981285
충청북도,충주시,가금면,가흥리 호,c-mart,대형마트,37.652599,127.077528
경기도,안양시동안구,호계동,1039번지 3호,(주)뉴코아아울렛 평촌점,복합쇼핑몰,37.3902376,126.9504777
울산광역시,남구,달동,830번지 1호,롯데마트 울산점,대형마트,35.5335804,129.3157989
대구광역시,북구,산격2동,1665번지,대구종합유통단지 전기재료관,그 밖의 대규모점포,35.9053633,128.6075309
제주특별자치도,서귀포시,남원읍,남원리 호,한아름유통,대형마트,36.008482,129.359398
부산광역시,부산진구,전포동,891-38호,한국까프푸,쇼핑센터,35.1495413,129.0648716
충청북도,충주시,칠금동,600호,동북프라자,대형마트,36.9865394,127.9228427
대구광역시,북구,산격동,1629호,대구기계공구상협동조합,시장,35.9039970,128.6058348
제주특별자치도,제주시,이도일동,1292번지 3 호,상록프라자,대형마트,33.5048072,126.5267717
충청북도,청주시,흥덕구,가경동 1416-2번지,대우메가폴리스시장,쇼핑센터,36.6267887,127.4319808
충청북도,청주시,흥덕구,가경동 1416-2번지,롯데쇼핑(주)롯데마트 청주점,대형마트,36.6267887,127.4319808
서울특별시,영등포구,당산동2가,30번지 2호,영등포유통상가,그 밖의 대규모점포,37.5224459,126.8916723
경상남도,창원시,성산구,반림동 4번지 1호 현대2차아파트,농협 하나로마트 반림점,복합쇼핑몰,35.2370292,128.6747694
서울특별시,서대문구,연희동,131번지 1호,연희슈퍼마켓,시장,37.5671643,126.9296749
경기도,파주시,금촌동,5-1호,팜스프링상가,그 밖의 대규모점포,37.7545286,126.7795292
서울특별시,강동구,천호동,455번지 8호,현대백화점 천호점,백화점,37.5385095,127.1251279
경기도,구리시,인창동,430호,구리농수산물소매시장,그 밖의 대규모점포,37.6126800,127.1408598
경기도,성남시,분당구,수내동 14번지,롯데백화점 분당점,백화점,37.3784747,127.1142927
충청북도,청주시,상당구,용암동 2099번지,(주)건영상가시장,그 밖의 대규모점포,36.6127354,127.5036933
부산광역시,해운대구,좌1동,1314번지 2호,화목데파트상가,쇼핑센터,35.1714567,129.1773399
서울특별시,성북구,하월곡동,88번지 345호,미아시장,그 밖의 대규모점포,37.6072590,127.0308842
전북특별자치도,전주시,완산구,태평동 36번지 1호,전주중앙시장,그 밖의 대규모점포,35.8248012,127.1422621
대구광역시,북구,노원동2가,381호,하나프러스,그 밖의 대규모점포,35.8888985,128.5701338
서울특별시,성북구,석관동,270호,석관시장,그 밖의 대규모점포,37.6091955,127.0603125
부산광역시,영도구,봉래동2가,151번지 1호,홈플러스(주) 영도점,복합쇼핑몰,35.0959075,129.0442172
부산광역시,사상구,괘법동,529번지 1호,(주)르네시떼,그 밖의 대규모점포,35.1643049,128.9778178
부산광역시,사상구,괘법동,529번지 1 호,홈플러스(주)서부산점,대형마트,35.1643049,128.9778178
서울특별시,노원구,상계동,173번지,상계역전종합상가,쇼핑센터,37.6603979,127.0719668
부산광역시,부산진구,범천동,839번지 48호,누리엔,쇼핑센터,35.1424597,129.0631625
충청남도,천안시,동남구,신방동 77번지 4호,초원그린타운상가,그 밖의 대규모점포,36.7888416,127.1255484
인천광역시,부평구,부평동,738번지 21호,부평민자역사지하매장,그 밖의 대규모점포,37.4894532,126.7177450
서울특별시,구로구,고척동,73번지 3 호,일이삼전자타운,그 밖의 대규모점포,37.4974750,126.8631257
전북특별자치도,전주시완산구,서신동,호 767,E 마트,그 밖의 대규모점포,35.827058,128.733925
서울특별시,구로구,고척동,73번지 3호,일이삼전자타운,복합쇼핑몰,37.4974750,126.8631257
제주특별자치도,제주시,도두1동,1212번지,제주시민속오일시장,시장,33.4965660,126.4745766
광주광역시,서구,화정동,12번지 17호,금호월드,전문점,35.1554514,126.8787290
부산광역시,사상구,괘법동,578호,부산산업용품상 협동조합,그 밖의 대규모점포,35.1597706,128.9794944
경기도,하남시,신장동,523-1호,현대베스코아,대형마트,37.5411005,127.2160063
경기도,고양시,덕양구,화정동 970번지 세이브존,세이브존,그 밖의 대규모점포,37.6343380,126.8314078
경기도,고양시일산동구,장항동,755번지,홈플러스테스코 일산점,대형마트,37.6590342,126.7689078
경기도,성남시분당구,정자동,211호,(주)이마트분당점,대형마트,37.3588418,127.1197639
전북특별자치도,김제시,신풍동,44번지 6호,뉴마트,쇼핑센터,35.7943229,126.9010767
서울특별시,송파구,잠실동,40번지 1호,롯데쇼핑(주)롯데마트 제타플렉스 잠실점,대형마트,37.5111085,127.0939534
서울특별시,중구,을지로6가,18번지 185호,밀리오레,그 밖의 대규모점포,37.5692615,127.0098288
서울특별시,성동구,행당동,347번지 행당동 대림아파트,대림리빙프라자,그 밖의 대규모점포,37.5579143,127.0271181
대구광역시,달서구,감삼동,55번지 5호,서남시장,그 밖의 대규모점포,35.8551986,128.5446779
경상북도,김천시,평화동,28번지 8 호,김천농협 하나로마트,대형마트,36.1237649,128.1173660
서울특별시,마포구,성산동,533번지 1호,마포농수산물시장,그 밖의 대규모점포,37.5650975,126.8981461
광주광역시,동구,계림동,100번지 11호,(주)신세계이마트동광주점,그 밖의 대규모점포,35.1631737,126.9222917
충청남도,당진군,신평면,운정리 884번지 1호,삽교호수산물특화시장,전문점,36.8882763,126.8235708
전북특별자치도,전주시,완산구,중앙동2가 26-16,디쟈트,전문점,35.8178807,127.1438235
전북특별자치도,전주시완산구,고사동,호 1가418,유스데스크,그 밖의 대규모점포,35.2424,128.8622
서울특별시,강북구,수유동,63번지,수유프라자,그 밖의 대규모점포,37.6316986,127.0234677
경기도,고양시일산동구,마두동,806번지,올리브상가,그 밖의 대규모점포,37.6496910,126.7802958
경기도,고양시일산서구,주엽동,75번지,포리치,그 밖의 대규모점포,37.6674205,126.7670891
경기도,파주시,금촌동,52-39호,금촌타워상가,그 밖의 대규모점포,37.7633882,126.7756844
경상남도,마산시,해운동,64호,(주)신마산시장,그 밖의 대규모점포,35.2128,128.5746
대전광역시,동구,가양동,170번지 1 호,삼우프라자,그 밖의 대규모점포,36.3463229,127.4503480
대전광역시,중구,오류동,116번지 3호,코스트코 홀세일 대전점,대형마트,36.3242026,127.4028133
서울특별시,구로구,구로동,1258번지,중앙유통단지,그 밖의 대규모점포,37.5008982,126.8745743
부산광역시,서구,토성동1가,25번지 1호,토성상가,시장,35.0993088,129.0239501
부산광역시,사상구,엄궁동,642번지 3호,부산광역시철강판매업협동조합,전문점,35.1343589,128.9660447
대구광역시,북구,읍내동,1343-6호,동아아울렛 강북점,복합쇼핑몰,35.9330124,128.5490473
서울특별시,광진구,구의동,546번지 4호,롯데쇼핑(주)롯데마트 강변점,대형마트,37.5339214,127.0935917
서울특별시,광진구,구의동,546번지 4호,테크노-마트21,그 밖의 대규모점포,37.5339214,127.0935917
서울특별시,송파구,마천동,181호,송파쇼핑센타,그 밖의 대규모점포,37.4951948,127.1509646
광주광역시,동구,대인동,호 71의1 외2필지,롯데백화점 광주점,복합쇼핑몰,34.94186,127.497313
경기도,구리시,인창동,677호,(주)지에스리테일 GS스퀘어 구리점,백화점,37.6027900,127.1440288
강원특별자치도,홍천군,북방면,소매곡리 산34호,홍천종합온천장,그 밖의 대규모점포,37.6955067,127.8374492
인천광역시,남구,숭의동,294번지 11 호,동아탑월드,그 밖의 대규모점포,37.4594592,126.6482563
경기도,과천시,별양동,1번지 18호,새서울프라자,그 밖의 대규모점포,37.4274917,126.9914343
경기도,고양시일산서구,주엽동,72-2호,한솔코아,그 밖의 대규모점포,37.6693669,126.7639198
서울특별시,구로구,구로동,636번지 62호,공구상가일번지관리단,복합쇼핑몰,37.4995524,126.8755227
서울특별시,구로구,구로동,636번지 62 호,공구상가일번지,그 밖의 대규모점포,37.4995524,126.8755227
인천광역시,계양구,계산동,1061번지,홈플러스(주) 계산점,대형마트,37.5395223,126.7362044
인천광역시,계양구,계산동,1061번지,홈플러스스토어즈(주) 계산점,대형마트,37.5395223,126.7362044
충청남도,보령시,대천동,828-5호,대천프라자,쇼핑센터,36.3613488,126.5570546
대전광역시,서구,갈마동,1418호,샤크존,쇼핑센터,36.3446894,127.3768704
전라남도,순천시,조례동,산89-8호,킴스클럽순천점,대형마트,34.9723070,127.5216641
경상북도,김천시,신음동,990번지 1호,(주)이마트 김천점,대형마트,36.1349891,128.1168315
경기도,안양시만안구,안양동,627번지 287호,이천일아울렛 안양점,쇼핑센터,37.3944166,126.9244683
부산광역시,부산진구,양정동,458-5호,양정현대프라자,그 밖의 대규모점포,35.1733536,129.0631955
부산광역시,부산진구,부전동,576번지 1호 가야로상 지하상가,서면지하도상가 중앙몰,시장,35.1561756,129.0547419
충청남도,아산시,배방읍,장재리 515번지 2호,(주)동방생활산업아산점,대형마트,36.7836164,127.0963577
대구광역시,수성구,지산동,994호,두원시장,그 밖의 대규모점포,35.8358039,128.6252521
전북특별자치도,김제시,검산동,820번지 3 호,썬마트,쇼핑센터,35.7980128,126.9051339
인천광역시,남동구,구월동,1130호,홈플러스(주)구월점,복합쇼핑몰,37.4519427,126.7018707
울산광역시,남구,삼산동,1591번지 4호,울산산업공구월드,그 밖의 대규모점포,35.5358673,129.3417653
인천광역시,미추홀구,관교동,15번지,롯데쇼핑(주)인천점,백화점,37.4414292,126.7013271
서울특별시,관악구,보라매동,729호 22통 롯데백화점,롯데쇼핑(주) 관악점,백화점,37.4919873,126.9260492
경기도,성남시,분당구,서현동 263번지,AK PLAZA 분당점,복합쇼핑몰,37.3850671,127.1233472
대전광역시,서구,월평동,510호,월마트대전점,대형마트,36.3576802,127.3629735
서울특별시,영등포구,영등포동5가,20호,영등포지하상가,그 밖의 대규모점포,37.5203407,126.9058486
부산광역시,사상구,감전동,152번지 2호,부산산업용재 유통상가,복합쇼핑몰,35.1532383,128.9814231
대전광역시,서구,둔산동,1038호,(주) 한화갤러리아 타임월드,백화점,36.3518477,127.3780404
부산광역시,사상구,감전동,502번지 1호,마트월드,구분없음,35.1418823,128.9709891
대구광역시,중구,덕산동,53-3 동아쇼핑,동아쇼핑점,쇼핑센터,35.8661832,128.5919001
경기도,성남시분당구,야탑동,502호,야탑에이스코아시장,시장,37.4095023,127.1257685
경기도,성남시분당구,야탑동,502호,야탑에이스코아시장,그 밖의 대규모점포,37.4095023,127.1257685
강원특별자치도,원주시,무실동,1062번지 1호 외3필지,(주)이마트원주점,대형마트,37.3212349,127.9187737
울산광역시,남구,삼산동,1521번지 1 호,(주)현대백화점 울산점,백화점,35.5396251,129.3357902
광주광역시,북구,유동,87번지 1호,나산클레프,그 밖의 대규모점포,35.1602170,126.9017652
인천광역시,동구,송림동,294호,인천산업유통사업협동조합,그 밖의 대규모점포,37.4859318,126.6550708
경기도,안산시,단원구,초지동 604번지 4호,안산시 시민시장,그 밖의 대규모점포,37.3256166,126.8042159
경상남도,마산시,오동동,18번지 61호,(주)기산프라쟈,대형마트,35.2066891,128.5805769
경기도,성남시분당구,정자동,127번지 3호,한솔프라자시장,그 밖의 대규모점포,37.3628814,127.1144757
충청남도,서산시,해미면,읍내리 184번지 1 호,해미종합시장,그 밖의 대규모점포,36.7112940,126.5465929
대전광역시,대덕구,대화동,289-1외18번지,대전산업용재유통단지,전문점,36.3659818,127.4021523
경상남도,창원시,마산합포구,자산동 330-1 하얀집,롯데슈퍼 마산자산점,그 밖의 대규모점포,35.2018213,128.5587430
서울특별시,강남구,역삼동,826번지 14호,진솔물산,그 밖의 대규모점포,37.4962502,127.0288126
대구광역시,북구,산격동,1817호,코스트코 홀세일,대형마트,35.9062947,128.6181113
경상남도,거제시,장승포동,283번지 99호,신부시장,그 밖의 대규모점포,34.8681483,128.7300843
전북특별자치도,전주시덕진구,송천동1가,호 481-4,굿마트,그 밖의 대규모점포,37.641607,126.770533
경기도,고양시덕양구,화정동,973호,요진타워,그 밖의 대규모점포,37.6335712,126.8327501
충청북도,청주시,서원구,미평동 123-1번지,(주)이마트청주점,대형마트,36.6010983,127.4746704
부산광역시,북구,화명동,1170번지 1 호,흥아대림상가,그 밖의 대규모점포,35.2311275,129.0154933
충청남도,천안시,동남구,목천읍 신계리 422호,동우(아)상가,그 밖의 대규모점포,36.7720038,127.1939320
경상남도,창원시,상남동,73-4호,창원코아상가,그 밖의 대규모점포,35.2204845,128.6794787
부산광역시,동래구,낙민동,84번지 8호,보림프라자,그 밖의 대규모점포,35.1948131,129.0941645
경기도,양주시,덕계동,694호,리치마트 양주점,대형마트,37.8171761,127.0429059
전북특별자치도,남원시,왕정동,146번지 1 호,이마트 남원점,대형마트,35.4076321,127.3748163
전북특별자치도,남원시,왕정동,146-1 금호프라자아파트,이마트 남원점,대형마트,35.4076321,127.3748163
경상남도,김해시,외동,1291번지 9 호,한국그랜드쇼핑,쇼핑센터,35.2337620,128.8630419
부산광역시,부산진구,부암동,500번지,화승아파트상가,그 밖의 대규모점포,35.1689032,129.0376310
경상남도,사천시,곤명면,정곡리 4B호,완사시장,그 밖의 대규모점포,35.1264628,127.9748440
경상남도,김해시,어방동,502번지 7 호,어방종합시장,그 밖의 대규모점포,35.2402918,128.9010182
경기도,시흥시,정왕2동,1364번지,시화공구상가사업협동조합,그 밖의 대규모점포,37.3371885,126.7239945
강원특별자치도,동해시,효가동,153번지 1호,동성프라자,그 밖의 대규모점포,37.4930006,129.1097266
경상남도,마산시,동성동,50호,워너비마산점시장,그 밖의 대규모점포,35.2059768,128.5781833
전북특별자치도,김제시,요촌동,213번지 4호,농협하나로마트,쇼핑센터,35.8005531,126.8887835
전북특별자치도,익산시,창인동1가,152번지 24호,익산송원백화점,백화점,35.9411575,126.9501875
서울특별시,송파구,가락2동,140번지,쌍용프라자 상가,그 밖의 대규모점포,37.4955490,127.1281297
광주광역시,서구,쌍촌동,885-11호,파워마트,대형마트,35.1445948,126.8565431
서울특별시,광진구,구의동,631번지 1호,프라임프라자상가,그 밖의 대규모점포,37.5374022,127.0976327
전북특별자치도,전주시덕진구,우아동3가,호 753-1,대한통운 마트,그 밖의 대규모점포,37.5225,126.8936
경기도,고양시덕양구,화정동,976번지,(주)이마트 화정점,그 밖의 대규모점포,37.6326751,126.8334197
광주광역시,동구,학동,"85번지 13호 학동 85-13, 84-20",남광주농수산물종합상가,그 밖의 대규모점포,35.1398570,126.9198993
광주광역시,북구,삼각동,536호,삼각그린타운상가,그 밖의 대규모점포,35.1956335,126.8960400
경기도,고양시일산서구,덕이동,203-3호,월마트코리아(주),대형마트,37.6878757,126.7597465
경기도,고양시일산동구,마두동,"802,3호",뉴삼창마트,그 밖의 대규모점포,37.6518779,126.7788268
경상남도,창원시,중앙동,98-6호,창원그린피아상가,그 밖의 대규모점포,35.2216950,128.6760018
경기도,성남시분당구,수내동,53호,돌고래시장,시장,37.3713236,127.1220954
경기도,성남시분당구,수내동,56호,코끼리상가,시장,37.3728510,127.1206672
서울특별시,강동구,천호동,410번지 100호,천호코오롱상가,그 밖의 대규모점포,37.5397288,127.1279136
경상남도,진주시,상대동,304번지 4 호,상대동한보아파트단지내상가시장,그 밖의 대규모점포,35.1811894,128.1136723
부산광역시,해운대구,반송동,872호,삼한상가시장,대형마트,35.2301684,129.1629622
서울특별시,영등포구,당산동1가,9번지 1 호,영등포농축수산물쎈타,그 밖의 대규모점포,37.5199915,126.8992654
경기도,고양시일산서구,주엽동,22호,그랜드백화점일산점,백화점,37.6709918,126.7611891
서울특별시,강남구,역삼동,755번지,한솔필리아,그 밖의 대규모점포,37.4992254,127.0484568
부산광역시,동래구,온천동,456번지 29호,부산컴푸터도매상가,그 밖의 대규모점포,35.2149897,129.0794030
경기도,고양시일산동구,장항동,902호,까르푸일산점,대형마트,37.6489040,126.7793735
경기도,성남시분당구,정자동,211호,(주)이마트분당점,대형마트,37.3588418,127.1197639
제주특별자치도,제주시,삼도이동,1259호,성지유니코,시장,33.5181372,126.5205762
경기도,부천시,원미구중동,1140호,롯데쇼핑(주)  중동점,백화점,37.5025741,126.7752181
제주특별자치도,제주시,연동,303번지 17 호,뉴월드마트,대형마트,33.4864814,126.4963483
경기도,성남시분당구,수내동,"83-1,2호호",분당종합시장,그 밖의 대규모점포,37.3671114,127.1268035
경기도,성남시,분당구,수내동,분당종합시장,시장,37.375581,127.117874
경기도,고양시,덕양구,행신동 941 외 944번지,롯데쇼핑(주) 롯데마트 고양점,대형마트,37.6251868,126.8361864
대구광역시,북구,관음동,1369-1호,홈플러스 칠곡IC점,그 밖의 대규모점포,35.9347690,128.5399925
부산광역시,해운대구,좌동,1398호,L.G 상가시장,대형마트,35.1805683,129.1735788
대전광역시,중구,대흥동,4-458호,대전코아,백화점,35.163764,128.987171
경기도,평택시,비전동,830-2호,킴스클럽평택점,대형마트,36.9950122,127.1127685
부산광역시,사상구,주례동,530번지 5호,주례현대무지개 상가,그 밖의 대규모점포,35.1463908,129.0056964
서울특별시,노원구,중계동,364번지 17호 유경데파트,유경데파트,그 밖의 대규모점포,37.6497583,127.0784782
광주광역시,남구,진월동,294호 외 5필지,(주)킴스클럽마트 광주점,대형마트,35.1225397,126.8990901
충청남도,천안시,안서동,159번지 10호,각원사 레저센터,그 밖의 대규모점포,36.8340952,127.1912189
광주광역시,동구,계림동,386번지 20호,대림테크노랜드,그 밖의 대규모점포,35.1536730,126.9192302
경상북도,포항시북구,죽도동,2-4호,그린종합시장,그 밖의 대규모점포,36.0363475,129.3683914
경상남도,거제시,신현읍,고현리 961번지 59호,회원프라자,그 밖의 대규모점포,34.888525,128.620431
전라남도,여수시,서교동,280번지,(주)서시장,시장,34.7417917,127.7286181
대전광역시,중구,문화동,1번지 16호,백화점 세이,백화점,36.3229722,127.4166111
서울특별시,구로구,구로동,604번지 1 호,서울구로기계공구상가,그 밖의 대규모점포,37.5041908,126.8795352
서울특별시,구로구,구로동,604번지 1호,서울구로기계공구상가,그 밖의 대규모점포,37.5041908,126.8795352
경기도,하남시,창우동,521호,신안종합상가,대형마트,37.5367990,127.2256739
경상남도,남해군,남해읍,북변리 316호,남해공용여객터미널상가,그 밖의 대규모점포,34.8416096,127.8982539
경상남도,창원시,팔용동,190번지,서원유통(탑마트),그 밖의 대규모점포,35.2605650,128.6144102
부산광역시,해운대구,반여동,1199번지 11 호,삼해대림아파트상가시장,대형마트,35.2025923,129.1184699
경기도,고양시일산동구,장항동,902호,대우로얄마트,그 밖의 대규모점포,37.6489040,126.7793735
경기도,고양시,일산동구,장항동 902번지,대우로얄마트,그 밖의 대규모점포,37.6489040,126.7793735
부산광역시,해운대구,우동,1434호,대성종합상가시장,대형마트,35.1578482,129.1476026
부산광역시,해운대구,좌동,1288호,대동상가시장,대형마트,35.1767858,129.1728417
경기도,성남시분당구,수내동,79번지 2 호,현대프라자시장,그 밖의 대규모점포,37.3697816,127.1233085
제주특별자치도,제주시,일도이동,113번지 7 호,대유대림상가,그 밖의 대규모점포,33.5023974,126.5483660
경기도,의정부시,의정부동,495번지,의정부역지하상가,복합쇼핑몰,37.7384184,127.0449983
광주광역시,동구,계림동,386번지 20호,미즈프라자,그 밖의 대규모점포,35.1536730,126.9192302
경기도,고양시일산동구,마두동,797호,뉴코아 아울렛 일산점,그 밖의 대규모점포,37.6548260,126.7770904
경상남도,거제시,고현동,961번지 153호,한라프라자,그 밖의 대규모점포,34.8884319,128.6205849
대전광역시,중구,오류동,152-1호,제일가구프라자,쇼핑센터,36.3225867,127.4115307
대전광역시,중구,오류동,152호,제일가구프라자,전문점,36.3225867,127.4115307
경기도,이천시,부발읍,아미리 1006-3호,서전타운,그 밖의 대규모점포,37.2483042,127.4932661
광주광역시,동구,충장로3가,6번지 3호,플라마프라자,백화점,35.1494851,126.9154836
충청남도,논산시,등화동,439-7호,논산청과(주),그 밖의 대규모점포,36.1840511,127.0681212
경상남도,마산시,오동동,12번지 3호,프라자1번가시장,그 밖의 대규모점포,35.2070504,128.5820097
경상남도,마산시,동성동,313호,정우새어시장,그 밖의 대규모점포,35.2041141,128.5787279
경상북도,포항시북구,죽도동,2-4호,지곡프라자.,그 밖의 대규모점포,36.0363475,129.3683914
대전광역시,서구,갈마동,1418호,(주)경성건설쇼핑,쇼핑센터,36.3446894,127.3768704
전북특별자치도,전주시덕진구,금암동,호 1584,두산 그랜드 타운,그 밖의 대규모점포,37.670141,126.763263
경기도,하남시,신장동,528-5호,백송한신종합상가,대형마트,37.5395115,127.2177712
대구광역시,수성구,두산동,743-5호,메가플러스,그 밖의 대규모점포,35.8242120,128.6257099
인천광역시,동구,송림동,296번지 2호,트레이더스 홀세일 클럽 송림점,대형마트,37.4840339,126.6613477
광주광역시,북구,문흥동,998번지 1호,샛터코아,그 밖의 대규모점포,35.1863015,126.9208994
부산광역시,부산진구,부전동,535-15호,롯데백화점부산점,백화점,35.1512773,129.0586814
충청남도,서산시,동문동,888번지 11 호,그린필백화점,백화점,36.7830668,126.4570585
서울특별시,도봉구,창동,804번지,대우상가,그 밖의 대규모점포,37.6423727,127.0375422
전북특별자치도,부안군,줄포면,줄포리 728-3 줄포시장,줄포상설시장,그 밖의 대규모점포,35.5876268,126.6767775
경기도,성남시분당구,서현동,94번지 3 호,분당우성시장,그 밖의 대규모점포,37.3797355,127.1302402
광주광역시,동구,충장로4가,53호,현대코아,그 밖의 대규모점포,35.1499394,126.9132134
서울특별시,성북구,돈암동,609번지 1 호,동소문스카이프라자,그 밖의 대규모점포,37.5956561,127.0117268
경상남도,거제시,신현읍,고현리 56번지 1호,장평종합시장,그 밖의 대규모점포,36.773844,127.053849
경상남도,진주시,평거동,301-1 한보하이타운,평거한보하이타운상가,그 밖의 대규모점포,35.1726352,128.0592803
제주특별자치도,서귀포시,동홍동,774번지 3호,서귀포향토오일시장,시장,33.2687419,126.5748518
서울특별시,은평구,진관내동,500번지 2 호,(주)미소종합유통,대형마트,37.447651,126.712493
경기도,성남시,수정구,신흥동 2467번지,성남중앙지하시장,시장,37.4433977,127.1504468
경기도,성남시수정구,신흥동,2467호 외 10필지,성남중앙지하시장,그 밖의 대규모점포,37.4433977,127.1504468
경기도,성남시,분당구,야탑동 산 357번지 1호,NC백화점 야탑점,백화점,37.444183,126.696813
경기도,성남시분당구,야탑동,357번지 1 호,킴스클럽성남점,백화점,37.4104529,127.1272928
부산광역시,동구,범일2동,62번지 5호,커넥트현대 부산점,쇼핑센터,35.1413078,129.0585662
인천광역시,중구,선화동,1번지 10호,신흥시장,시장,37.4673070,126.6366834
인천광역시,남동구,고잔동,447번지 1 호,남동후생시설,그 밖의 대규모점포,37.3830652,126.7142329
부산광역시,사상구,엄궁동,642번지,관리단대표회의,그 밖의 대규모점포,35.1343589,128.9660447
충청북도,청주시,흥덕구,복대동 849-4번지,금관시장,그 밖의 대규모점포,36.6338464,127.4489704
부산광역시,부산진구,당감동,791호,국제상가,시장,35.1685284,129.0285499
경기도,안산시,단원구,원시동 773번지 9호,서부공단전시판매센타,그 밖의 대규모점포,37.3160225,126.7970348
인천광역시,남동구,고잔동,"630,631호",남동공단산업용품상가,그 밖의 대규모점포,37.4070657,126.6935078
제주특별자치도,제주시,연동,290번지 51 호,연동시장,그 밖의 대규모점포,33.4927120,126.4934399
대전광역시,대덕구,법동,191번지 1 호,법동보람상가,그 밖의 대규모점포,36.3690528,127.4310902
부산광역시,사상구,학장동,570번지 2호,(주)영해종합시장,그 밖의 대규모점포,35.1406898,128.9879791
경상남도,창원시,명서동,75-16호,명곡종합상가,그 밖의 대규모점포,35.2484916,128.6462111
전라남도,순천시,남내동,65호,월드마트,그 밖의 대규모점포,34.9537088,127.4851454
부산광역시,부산진구,부전동,155-3호,서면전자랜드,전문점,35.1575020,129.0601800
대구광역시,수성구,만촌동,881호,선스포츠프라자,그 밖의 대규모점포,35.8490984,128.6522394
광주광역시,남구,주월동,408번지 1호,빅마트,대형마트,35.1260789,126.8972279
강원특별자치도,춘천시,효자동,641번지 5 호,벨몽드,대형마트,37.8773940,127.7355473
경기도,파주시,금촌동,64-60호,금촌신시장,그 밖의 대규모점포,37.7622810,126.7731658
경상북도,포항시북구,죽도동,2-4호,신단지구매시설,그 밖의 대규모점포,36.0363475,129.3683914
전라남도,순천시,조례동,1608호,대주종합상가,그 밖의 대규모점포,34.9561213,127.5287005
부산광역시,사하구,다대동,382-3호,다대자유아파트상가,그 밖의 대규모점포,35.0517687,128.9724944
강원특별자치도,강릉시,포남동,1293 - 2호,사)청송상가시장,그 밖의 대규모점포,37.7711449,128.9134241
전라남도,순천시,연향동,1347호,동성아파트상가,그 밖의 대규모점포,34.9500984,127.5189299
광주광역시,북구,신안동,6번지 1호,NC백화점 광주점,백화점,35.1617725,126.9073163
충청남도,논산시,반월동,66-1호,아원백화점,백화점,36.2045471,127.0855176
부산광역시,중구,부평동2가,2호,월드밸리,그 밖의 대규모점포,34.867375,128.727216
부산광역시,중구,부평동2가,2호,월드밸리,그 밖의 대규모점포,35.859349,127.125463
경기도,화성군,봉담읍,상리 31-3호,우정프라자(주),그 밖의 대규모점포,37.644688,126.833511
전라남도,순천시,해룡면,상삼리 657호,원앙아파트상가,그 밖의 대규모점포,34.9469184,127.5313010
강원특별자치도,강릉시,노암동,390호,사)노암한라시장,그 밖의 대규모점포,37.7447165,128.9019065
광주광역시,서구,화정동,23번지 15호,문구완구종합상가,대형마트,35.1579658,126.8793739
전라남도,순천시,연향동,1333호,동부상설시장,그 밖의 대규모점포,34.9515867,127.5213185
충청남도,아산시,온천동,194번지 5호,제일타워,그 밖의 대규모점포,36.7804563,126.9992011
대전광역시,중구,은행동,143번지 1호,패션엔비,쇼핑센터,36.3282451,127.4271458
경기도,안산시단원구,선부동,1077호,서울프라자,그 밖의 대규모점포,37.3338272,126.8120814
경기도,성남시,분당구,서현동 248번지 5호,코코프라자 시장,시장,37.3865682,127.1249927
경기도,성남시,분당구,서현동 307번지,미래타운 제1종합시장,시장,37.3732132,127.1379831
경기도,성남시,분당구,서현동 311번지,미래타운 제2종합시장,시장,37.3723879,127.1389582
경기도,성남시분당구,서현동,248-5.6호,코코프라자시장,그 밖의 대규모점포,37.3859656,127.1241082
경기도,성남시분당구,서현동,307호,미래타운제1종합시장,그 밖의 대규모점포,37.3732132,127.1379831
경기도,성남시분당구,서현동,311호,미래타운제2종합시장,그 밖의 대규모점포,37.3723879,127.1389582
충청남도,천안시,서북구,직산읍 부송리 산22호,우성(아)단지상가,그 밖의 대규모점포,36.8697260,127.1287130
경상남도,양산시,상북면,소토리 1287-27외2필지호,대우마리나 아파트상가 시장,그 밖의 대규모점포,35.3881469,129.0496263
인천광역시,남구,주안동,188호,주안시민지하상가,그 밖의 대규모점포,37.4612709,126.6802280
인천광역시,남구,주안동,188호,주안로지하상가,그 밖의 대규모점포,37.4612709,126.6802280
대구광역시,달서구,이곡동,1191호,성서보성화성상가시장,그 밖의 대규모점포,35.8563230,128.5032027
경기도,고양시일산동구,백석동,1194호,유니코(UNICO),그 밖의 대규모점포,37.6479812,126.7824663
서울특별시,영등포구,양평동3가,65호,코스트코홀세일,그 밖의 대규모점포,37.5278938,126.8922932
부산광역시,사상구,학장동,573번지 1호,학장반도아파트상가,그 밖의 대규모점포,35.1365561,128.9790903
대전광역시,유성구,전민동,466번지 3 호,엑스포코아,그 밖의 대규모점포,36.4010696,127.4057639
부산광역시,부산진구,양정동,608-1호,양정시장,시장,37.542492,127.085676
전북특별자치도,전주시,완산구,효자동1가 454번지 1호,서도프라자,그 밖의 대규모점포,35.8055846,127.1149360
경기도,하남시,신장동,528호,현대상가,대형마트,37.5396076,127.2191027
서울특별시,영등포구,영등포동4가,441번지 10호 타임스퀘어,타임스퀘어,쇼핑센터,37.5180238,126.9053628
대전광역시,유성구,어은동,99호,한빛프라자,,36.3647629,127.3556045
경상남도,진주시,강남동,219호,진주동성상가,그 밖의 대규모점포,35.1809127,128.0893555
대전광역시,서구,정림동,610호,무지개종합시장,그 밖의 대규모점포,36.3055401,127.3664235
전북특별자치도,김제시,요촌동,288호,김제축협매장,쇼핑센터,35.8034607,126.8847051
인천광역시,동구,송림동,296번지 송림동공구상가,인천송림공구시장,그 밖의 대규모점포,37.4840339,126.6613477
경상남도,창원시,상남동,45-1호,성원그랜드종합상가,그 밖의 대규모점포,35.2152774,128.5722623
서울특별시,강남구,개포동,12호,대치2단지상가,그 밖의 대규모점포,37.545016,127.136807
서울특별시,강남구,개포동,12호,대치2단지상가,그 밖의 대규모점포,35.225175,129.147884
경상남도,마산시,자산동,17번지 1호 9브록 1롯트,자산경남상가시장,그 밖의 대규모점포,35.2063577,128.5648968
서울특별시,강남구,개포동,12호,대치1단지상가,그 밖의 대규모점포,37.545016,127.136807
서울특별시,강남구,개포동,12호,대치1단지상가,그 밖의 대규모점포,35.225175,129.147884
서울특별시,강남구,일원동,711번지 1호,수서1-2단지상가,그 밖의 대규모점포,37.4926394,127.0902856
서울특별시,마포구,노고산동,57번지 1호,정도진흥기업(주),그 밖의 대규모점포,37.5551266,126.9359711
대구광역시,달서구,상인동,42호,보성은하상가시장,그 밖의 대규모점포,35.8225812,128.5354497
서울특별시,구로구,구로동,614번지 33 호,라이프공구종합상가,그 밖의 대규모점포,37.5055635,126.8751798
서울특별시,구로구,구로동,614번지 33호,라이프공구상가,그 밖의 대규모점포,37.5055635,126.8751798
인천광역시,서구,신현동,272-1 서경 플러스 존,서경백화점,백화점,37.5179427,126.6725704
인천광역시,남동구,간석동,313번지 2 호,형진프라자,그 밖의 대규모점포,37.4642321,126.7070478
서울특별시,금천구,독산동,293번지 5호,유창상가,그 밖의 대규모점포,37.4678863,126.8956417
경상북도,포항시북구,죽도동,2-4호,(주)아남유통,그 밖의 대규모점포,36.0363475,129.3683914
전북특별자치도,전주시완산구,전동3가,호 136,코오롱 상가,그 밖의 대규모점포,33.488182,126.496844
경기도,부천시,원미구춘의동,127번지 5 호,광성상가,그 밖의 대규모점포,37.5055246,126.7819339
경상남도,거제시,옥포동,1293번지 1호,옥현상가,그 밖의 대규모점포,34.8969464,128.6899185
경상남도,마산시,해운동,37번지 4호,대동씨코아종합상가시장,그 밖의 대규모점포,35.1803383,128.5622545
경상남도,창원시,봉곡동,"호 61-10,16,17번지",봉곡진보프라자상가,그 밖의 대규모점포,35.944259,128.547249
대전광역시,대덕구,법동,188호,법동영구임대시장,그 밖의 대규모점포,36.3711209,127.4314401
대전광역시,대덕구,법동,190호,법동삼익소월상가,그 밖의 대규모점포,36.3691053,127.4345057
제주특별자치도,제주시,일도이동,326번지 1호,세기신산시장,그 밖의 대규모점포,33.5104503,126.5407808
대전광역시,대덕구,법동,195번지 1 호,법동그린복합상가,그 밖의 대규모점포,36.3667877,127.4351251
광주광역시,서구,화정동,780호,서부코아,대형마트,35.1534760,126.8798214
경기도,안산시상록구,월피동,445호,다농마트,그 밖의 대규모점포,37.3283732,126.8440307
대전광역시,동구,성남동,157번지 6 호,평화시장,그 밖의 대규모점포,36.3416585,127.4339486
대전광역시,동구,성남동,157번지 6호,평화시장,시장,36.3416585,127.4339486
경상남도,양산시,덕계동,362호,대승하이아트 상가 시장,그 밖의 대규모점포,35.3761911,129.1572550
서울특별시,동작구,대방동,501번지,대림쇼핑타운,시장,37.5073023,126.9247246
인천광역시,남구,주안동,1472번지 1 호,현대프라자,그 밖의 대규모점포,37.4524422,126.6809821
부산광역시,사하구,다대동,120-1호,맘모스프라자,그 밖의 대규모점포,35.0607687,128.9782623
경기도,성남시,중원구,금광1동 10번지,단대마트시장,시장,37.4446478,127.1580579
경기도,성남시중원구,금광동,10호,단대마트시장,그 밖의 대규모점포,37.4446478,127.1580579
광주광역시,북구,운암동,66번지 1호,운암훼밀리코아,그 밖의 대규모점포,35.1787770,126.8770027
경상남도,김해시,삼방동,179번지 1호,국제타운상가,그 밖의 대규모점포,35.2440234,128.9081287
경상남도,김해시,삼정동,76번지 1 호,백제종합상가,그 밖의 대규모점포,35.2341548,128.8960864
경상남도,창원시,중앙동,97-6호,창원캔버라타운,그 밖의 대규모점포,35.2212244,128.6768262
경상남도,창원시,팔용동,124번지 2호,대동중앙상가,그 밖의 대규모점포,35.2556295,128.6146983
경상남도,양산시,덕계동,745-1호,덕계종합상설시장,그 밖의 대규모점포,35.3738420,129.1504608
경상남도,양산시,덕계동,745-1호,덕계종합상설시장,그 밖의 대규모점포,35.3738420,129.1504608
광주광역시,북구,중흥동,341번지 6호,평화프라자,그 밖의 대규모점포,35.1706202,126.9086873
경상남도,양산시,평산동,산23-3외 12필지호,태원아파트 상가시장,그 밖의 대규모점포,35.3845417,129.1458241
경상남도,양산시,평산동,570외 15필지호,봉우아파트 상가시장,그 밖의 대규모점포,35.3885519,129.1414297
제주특별자치도,제주시,삼도일동,520호,서사라시장,그 밖의 대규모점포,33.5006595,126.5184859
대구광역시,달서구,상인동,1517호,상인영남화성시장,그 밖의 대규모점포,35.8173870,128.5430662
광주광역시,북구,우산동,4번지 1 호,우미프라자,그 밖의 대규모점포,35.1780549,126.9273347
경기도,성남시분당구,수내동,63번지 2 호,동신종합시장,그 밖의 대규모점포,37.3630059,127.1336796
경기도,성남시,분당구,수내동 63번지 2호,동신종합시장,시장,37.3630059,127.1336796
대구광역시,달서구,본리동,65번지 3 호,본리시장,그 밖의 대규모점포,35.8420007,128.5381411
경상남도,양산시,물금읍,범어리 502-1호,범어대동상가,그 밖의 대규모점포,35.3357446,129.0063683
경상남도,창원시,팔용동,16-1호,창원기계공구상가,그 밖의 대규모점포,35.2339601,128.6409874
경기도,안산시,상록구,본오동 871번지,신안프라자,그 밖의 대규모점포,37.2951280,126.8650065
서울특별시,관악구,신림동,1694호,신림현대종합상가,시장,37.4751229,126.9324862
경상남도,김해시,외동,1251호,대동종합상가,그 밖의 대규모점포,35.2336123,128.8642126
전북특별자치도,익산시,여산면,호산리 산32번지 6 호,(주)큰길 여산휴게소,대형마트,36.0497644,127.1008511
서울특별시,구로구,고척동,269번지 1호,개봉프라자,시장,37.5020218,126.8511678
서울특별시,구로구,고척동,269번지 1 호,개봉프라자,그 밖의 대규모점포,37.5020218,126.8511678
대전광역시,동구,홍도동,12번지,아리랑프라자,시장,36.3473043,127.4297240
대전광역시,동구,홍도동,12번지,아리랑프라자,시장,36.3473043,127.4297240
전북특별자치도,전주시완산구,고사동,호 1가 155-1,전일시장,그 밖의 대규모점포,36.350845,127.367834
경상남도,진주시,이현동,21번지 3 호,이현종합시장,그 밖의 대규모점포,35.2046726,128.0479273
경상남도,김해시,삼정동,589번지 1 호,호성상가,그 밖의 대규모점포,35.2305597,128.8939188
서울특별시,용산구,한강로2가,413호,(주)전자타운,그 밖의 대규모점포,37.5341078,126.9643092
서울특별시,용산구,한강로2가,413호,전자타운,전문점,37.5341078,126.9643092
대구광역시,중구,남산동,2466번지 1 호,보성황실시장,그 밖의 대규모점포,35.8602349,128.5812137
경기도,안산시단원구,고잔동,541번지 1호,동서코아,그 밖의 대규모점포,37.3172363,126.8374792
경상남도,통영시,정량동,1158번지 35호,사단법인삼성타워프라자,그 밖의 대규모점포,34.8458100,128.4299777
경상남도,창원시,중앙동,97번지 2호,동성올림픽타운,그 밖의 대규모점포,35.2225326,128.6779294
전라남도,순천시,남내동,55-1호,황금프라자,그 밖의 대규모점포,34.9547136,127.4843822
대구광역시,달서구,월성동,89번지 3 호,월성청구시장,그 밖의 대규모점포,35.8276410,128.5302140
경상남도,양산시,신기동,436-2호,한마음상가 시장,그 밖의 대규모점포,35.3544727,129.0417456
경상남도,창원시,사파동,93호,사파동성종합상가,그 밖의 대규모점포,35.2195808,128.7043603
경기도,파주시,문산읍,문산리 17-25호,청도훼미리코아,그 밖의 대규모점포,37.8557590,126.7867256
서울특별시,구로구,고척동,83번지 6호,동국종합상가,그 밖의 대규모점포,37.4986495,126.8618933
강원특별자치도,원주시,태장동,1379-23호,북원상가시장,시장,37.3843638,127.9488300
전라남도,광양시,금호동,716번지,백운쇼핑센터,쇼핑센터,34.9403551,127.7319075
경상남도,김해시,구산동,호 구획정리지구 20블럭,광남백조아파트상가,그 밖의 대규모점포,37.450396,127.145634
경기도,수원시팔달구,인계동,1114번지 1 호,뉴코아 동수원아울렛,쇼핑센터,37.2661196,127.0350709
경상남도,창원시,성산구,대방동 355번지,성원3차종합상가,그 밖의 대규모점포,35.2148396,128.7068887
전라남도,순천시,연향동,1345호,대우상가,그 밖의 대규모점포,34.9487495,127.5212470
전라남도,순천시,조례동,766번지 시대아파트,뉴코아순천점,백화점,34.9733847,127.5199944
인천광역시,부평구,산곡동,142번지 3호,부평경남종합상가,그 밖의 대규모점포,37.5094634,126.6907678
서울특별시,서대문구,창천동,30번지 33호,현대백화점 신촌점,백화점,37.5567746,126.9365742
경상남도,김해시,어방동,499호,대우유토피아상가,그 밖의 대규모점포,35.2432877,128.9013347
서울특별시,광진구,구의동,611호,구의현대종합상가,그 밖의 대규모점포,37.5386320,127.0958857
전라남도,순천시,장천동,39-3호,로얄프라자,그 밖의 대규모점포,34.9493793,127.4888205
대전광역시,서구,둔산3동,1809번지 세이브존,(주)세이브존아이앤씨대전점,복합쇼핑몰,36.3539538,127.3974346
경기도,안산시,단원구,선부동 1086번지 롯데마트,한양프라자 안산점,그 밖의 대규모점포,37.3393587,126.8158061
경상남도,마산시,월영동,593호,(주)화인주택,그 밖의 대규모점포,35.1762201,128.5551925
경상남도,창원시,대방동,358번지,대동훼미리종합상가,그 밖의 대규모점포,35.2110527,128.7088677
대구광역시,달서구,송현동,1995번지 3 호,송남시장,그 밖의 대규모점포,35.8292245,128.5547471
경상남도,진주시,상봉동,1096호,상봉한주타운상가,그 밖의 대규모점포,35.1959577,128.0711927
부산광역시,사상구,학장동,167번지 3호,구덕대림상가,그 밖의 대규모점포,35.1346054,128.9922152
서울특별시,관악구,봉천동,1000호,관악현대상가,그 밖의 대규모점포,37.4922606,126.9584601
부산광역시,사하구,하단동,1176호,가락타운상가시장,시장,35.1016503,128.9594611
경상남도,창원시,대방동,356번지,대방덕산상가,그 밖의 대규모점포,35.2127965,128.7065623
대전광역시,대덕구,오정동,495번지 6 호,대덕종합시장,그 밖의 대규모점포,36.3457781,127.4139333
대전광역시,서구,탄방동,80번지 1호,둔산전자타운,그 밖의 대규모점포,36.3401210,127.3938202
서울특별시,종로구,서린동,33번지 영풍빌딩,(주)영풍문고,전문점,37.5695814,126.9821320
경기도,성남시,분당구,서현동 94번지,분당 현대시장,시장,37.3797355,127.1302402
경기도,성남시분당구,서현동,94호,현대시장,그 밖의 대규모점포,37.3797355,127.1302402
경기도,고양시,일산서구,주엽동 73번지,태영프라자,그 밖의 대규모점포,37.6686441,126.7655050
부산광역시,사상구,모라동,1362호,우신상가,그 밖의 대규모점포,35.1839065,128.9919849
경기도,파주시,문산읍,문산리 10-92호,문산시장,그 밖의 대규모점포,37.8568146,126.7817584
대전광역시,대덕구,송촌동,299번지 4 호,동부종합상가,그 밖의 대규모점포,36.3534619,127.4418486
제주특별자치도,제주시,화북일동,1947호,화북종합시장,그 밖의 대규모점포,33.5226436,126.5658443
제주특별자치도,제주시,연동,2628호,삼성프라자,그 밖의 대규모점포,36.20569,127.089029
경기도,광명시,하안동,53번지 1 호,골든힐시장,그 밖의 대규모점포,37.4622280,126.8803773
서울특별시,강동구,명일동,48번지,주양쇼핑,그 밖의 대규모점포,37.5525243,127.1535172
경기도,안산시,단원구,원곡동 994번지,안산종합유통단지,그 밖의 대규모점포,37.3266957,126.7867999
제주특별자치도,제주시,일도이동,377번지 11 호,신산시장,시장,33.5068738,126.5410940
경기도,안산시단원구,선부동,1028호,안산제일종합시장,그 밖의 대규모점포,37.3423842,126.8036181
전북특별자치도,전주시덕진구,인후동1가,호 782,기린시장,그 밖의 대규모점포,35.156374,126.877725
경상남도,김해시,삼방동,692호,화인상가,그 밖의 대규모점포,35.2517722,128.9107232
전북특별자치도,전주시덕진구,인후동2가,호 1575-1,성락시장,그 밖의 대규모점포,36.7878,127.001
인천광역시,남구,주안동,169호,신성쇼핑센타,쇼핑센터,37.4606204,126.6822960
제주특별자치도,제주시,연동,272번지 33 호,로얄쇼핑,그 밖의 대규모점포,33.4887731,126.4912593
경상남도,창원시,신월동,68-1호,토월복합상가,그 밖의 대규모점포,35.2280773,128.6919402
인천광역시,남동구,간석동,229번지 1 호,청실프라자,그 밖의 대규모점포,37.4690395,126.7062725
광주광역시,북구,용봉동,1225번지 1 호,용봉시장,그 밖의 대규모점포,35.1807887,126.9009328
충청북도,충주시,주덕읍,신양리 919호,복수삼익목화,쇼핑센터,36.9737584,127.8100931
대전광역시,대덕구,읍내동,54호,현대아파트상가,그 밖의 대규모점포,36.3785989,127.4253560
경상북도,포항시북구,용흥동,366호,용흥시장,그 밖의 대규모점포,36.0428044,129.3527309
대구광역시,달서구,죽전동,410번지 1 호,죽전시장,그 밖의 대규모점포,35.8513602,128.5338772
경기도,고양시일산서구,주엽동,81호,뉴서울프라자,그 밖의 대규모점포,37.6667113,126.7660838
경상남도,창원시,외동,916호,한덕한신타워아파트상가,그 밖의 대규모점포,35.2146789,128.6758498
경상남도,김해시,삼방동,691번지 2 호,한일아파트종합상가,그 밖의 대규모점포,35.2505696,128.9103419
광주광역시,동구,금남로1가,23호,금남지하상가,그 밖의 대규모점포,35.1480647,126.9184090
경상남도,양산시,교동,산85호,협성상가시장,그 밖의 대규모점포,35.3424357,129.0230066
충청북도,청주시,흥덕구,봉명동 826번지,봉명상가,그 밖의 대규모점포,36.6420196,127.4651963
충청북도,청주시,상당구,금천동 199-1번지,현대종합상가,그 밖의 대규모점포,36.6287630,127.5029496
대전광역시,서구,월평동,302호,황실코아,그 밖의 대규모점포,36.399982,127.400375
서울특별시,종로구,종로6가,289번지 3 호,동대문종합시장,그 밖의 대규모점포,37.5699809,127.0090362
경기도,안산시,상록구,본오동 880번지 롯데마트,한양프라자 반월점,쇼핑센터,37.2952093,126.8608962
인천광역시,부평구,부평동,224번지 1호,대아지하상가,그 밖의 대규모점포,37.5001352,126.7216635
경기도,안산시,상록구,본오동 872번지,월드프라자,그 밖의 대규모점포,37.2998508,126.8651151
제주특별자치도,제주시,도남동,923번지 13호,도남시장,시장,33.4968096,126.5283890
제주특별자치도,제주시,삼도일동,108번지 17 호,중앙하이츠시장,그 밖의 대규모점포,36.3705,127.3541
경상남도,창원시,반지동,23번지 대동아파트,대동그린코아상가,그 밖의 대규모점포,35.2446908,128.6699975
대전광역시,서구,둔산동,909호,둔산종합시장,그 밖의 대규모점포,36.3590900,127.3971969
서울특별시,영등포구,영등포동,618-496,롯데백화점 영등포점,백화점,37.5159236,126.9073819
서울특별시,은평구,불광동,308번지 1 호,범서쇼핑,쇼핑센터,37.6186194,126.9219146
광주광역시,북구,오치동,940번지 1호,오치상설시장,그 밖의 대규모점포,35.1884727,126.9079367
강원특별자치도,원주시,명륜동,408호,도영쇼핑센타,그 밖의 대규모점포,37.3342333,127.9429686
경기도,안양시만안구,안양동,622번지 337호,중부농수산물(주),그 밖의 대규모점포,37.3978873,126.9252162
부산광역시,해운대구,우동,1388호,마리나상가시장,대형마트,35.1618762,129.1414281
대전광역시,대덕구,법동,389호,법동영진로얄시장,그 밖의 대규모점포,36.3752272,127.4265534
경기도,성남시중원구,금광동,4622호,금광시장,그 밖의 대규모점포,37.4502210,127.1599191
대전광역시,서구,둔산동,994호,보라시장,그 밖의 대규모점포,36.3539182,127.3772704
부산광역시,남구,용당동,산42번지 8호,용당한신아파트상가시장,그 밖의 대규모점포,35.1239744,129.0965925
대전광역시,중구,은행동,330-216호,중앙로1번가지하상가,쇼핑센터,37.493043,126.875758
대전광역시,대덕구,오정동,635번지 1 호,신동아아파트상가,그 밖의 대규모점포,36.3600174,127.4120637
경상남도,김해시,삼방동,189호,김해어방동성상가,그 밖의 대규모점포,35.2463134,128.9107083
서울특별시,광진구,광장동,484호,현대종합상가,그 밖의 대규모점포,37.5406254,127.0986165
인천광역시,남동구,간석동,611번지 8 호,간석종합시장,그 밖의 대규모점포,37.4677017,126.6983886
경기도,부천시,오정구,고강동 318번지 318,고강제일시장,그 밖의 대규모점포,37.5284771,126.8145451
경기도,안산시상록구,성포동,583호,스타프라자,그 밖의 대규모점포,37.3218116,126.8438680
경기도,부천시,소사구심곡본동,호 545,그레이스쇼핑,쇼핑센터,37.502721,126.785889
부산광역시,부산진구,가야동,669-9호,가야벽산상가,시장,35.1465921,129.0253834
전라남도,순천시,남내동,76-1호,중앙지하상가,그 밖의 대규모점포,34.9536877,127.4841675
경상북도,구미시,송정동,60번지 동아백화점,동아백화점구미점,대형마트,36.1197613,128.3485330
경상남도,진주시,주약동,156번지,한주럭키상가,그 밖의 대규모점포,35.1763998,128.0908737
인천광역시,남동구,만수동,878호,만수중앙시장,그 밖의 대규모점포,37.4571366,126.7281602
경상북도,포항시남구,대도동,143-1호,해도5시장,그 밖의 대규모점포,36.0127295,129.3664082
충청북도,충주시,주덕읍,신양리 854호,갈마한양프라자,쇼핑센터,36.9716819,127.8087648
전북특별자치도,익산시,영등동,224번지 2 호,(주)큰길 여산휴게소,대형마트,35.9471096,126.9729778
경기도,안산시,단원구,원곡동 846번지 3호 라성프라자,라성프라자,그 밖의 대규모점포,37.3283618,126.8017608
대전광역시,동구,가양동,170번지 1 호,(주) 동아종합시장,그 밖의 대규모점포,36.3463229,127.4503480
부산광역시,사하구,장림동,372-4호,장림현대종합상가,그 밖의 대규모점포,35.0750044,128.9775352
경상북도,봉화군,봉화읍,내성리 호 394-1,봉화제2상설시장,그 밖의 대규모점포,35.375129,129.149157
광주광역시,동구,금남로5가,1번지 5호,금남상가타운,그 밖의 대규모점포,35.1545165,126.9115235
충청남도,천안시,성정동,658번지 1 호,성정프라자,그 밖의 대규모점포,36.8220340,127.1419278
서울특별시,광진구,구의동,546번지 1호,동서울터미널상가,복합쇼핑몰,37.5339214,127.0935917
서울특별시,도봉구,방학동,271번지 2호,신동아프라자,그 밖의 대규모점포,37.6608963,127.0266906
인천광역시,부평구,부평동,224번지 1호,부평역지하상가,그 밖의 대규모점포,37.5001352,126.7216635
서울특별시,송파구,방이동,89번지 11호 프라자상가,올림픽프라자상가,그 밖의 대규모점포,37.5175735,127.1363833
인천광역시,남구,주안1동,235번지,주안역지하도상가,그 밖의 대규모점포,37.4644435,126.6804432
경기도,과천시,원문동,4호,과천2차종합상가,그 밖의 대규모점포,37.4206761,126.9922984
서울특별시,구로구,구로동,685번지 140호,사모아종합상가,그 밖의 대규모점포,37.4951540,126.8783467
서울특별시,구로구,구로동,685번지 140호,사모아종합상가,그 밖의 대규모점포,37.4951540,126.8783467
경기도,과천시,별양동,52호,과천3차현대종합상가,그 밖의 대규모점포,37.4282745,126.9986734
대구광역시,동구,신암동,681번지 6호 큰고개상가아파트,큰고개종합시장,그 밖의 대규모점포,35.8886264,128.6264719
충청남도,천안시,대흥동,30번지 7호,천안역 지하상가,그 밖의 대규모점포,36.8100652,127.1481044
서울특별시,은평구,불광동,248호,불광미성상가,그 밖의 대규모점포,37.6149348,126.9283301
서울특별시,송파구,잠실동,40번지 1호,롯데백화점 잠실점,백화점,37.5111085,127.0939534
대구광역시,달서구,본동,225번지 1 호,송경종합시장,그 밖의 대규모점포,35.8367797,128.5470156
서울특별시,관악구,봉천동,31번지 1호,관악프라자,쇼핑센터,37.4836279,126.9551579
서울특별시,강남구,삼성1동,159번지 8호 그랜드인터콘티넨탈호텔(지하1층),파르나스몰(PARNAS MALL),쇼핑센터,37.5125278,127.0588432
서울특별시,강남구,삼성동,159번지 7호,현대백화점 무역센터점,백화점,37.5125278,127.0588432
서울특별시,양천구,신월동,928번지 1 호,우성상가시장,시장,37.5226729,126.8336304
충청남도,서산시,읍내동,144번지 1 호,서부종합시장,그 밖의 대규모점포,36.7801220,126.4505153
서울특별시,성북구,길음동,540번지 2 호,길음시장,그 밖의 대규모점포,37.6033081,127.0220421
전라남도,순천시,송광면,이읍리 1403-3호,송광시장,그 밖의 대규모점포,34.9749689,127.2627417
경상남도,양산시,북부동,148-3호,북부시장,그 밖의 대규모점포,35.3473246,129.0398807
부산광역시,중구,중앙동1가,26호,롯데1번가,그 밖의 대규모점포,35.1006907,129.0357567
부산광역시,중구,남포동6가,1호,코오롱상가,그 밖의 대규모점포,35.0973083,129.0276365
서울특별시,용산구,원효로3가,51번지 30호,원효전자상가,전문점,37.5346990,126.9602461
대전광역시,서구,가수원동,762호,성원시장,그 밖의 대규모점포,36.3040263,127.3508371
경상북도,포항시북구,용흥동,142-1호,서부시장,그 밖의 대규모점포,36.0303205,129.3582940
경기도,안양시만안구,안양동,434번지 3 호,육동시장,그 밖의 대규모점포,37.3911120,126.9305471
경상남도,진주시,대안동,21호,진주중앙지하도상가,그 밖의 대규모점포,35.1945509,128.0838011
서울특별시,강남구,대치동,623번지,남서울종합시장,그 밖의 대규모점포,37.4936024,127.0597018
강원특별자치도,춘천시,운교동,183번지,춘천동부시장,그 밖의 대규모점포,37.8772915,127.7341434
대구광역시,서구,내당동,463번지 34호,광장코아,대형마트,35.8582977,128.5497576
경상남도,진주시,대안동,8번지 600호,진주중앙시장,그 밖의 대규모점포,35.1950326,128.0843462
경상남도,진주시,봉곡동,31번지 1호,서부시장,그 밖의 대규모점포,35.1937807,128.0762731
경상남도,진주시,칠암동,306번지 1호,천전시장,그 밖의 대규모점포,35.1850602,128.0885420
경기도,구리시,수택동,481호,남양종합시장,그 밖의 대규모점포,37.5964004,127.1440345
인천광역시,중구,답동,24호,신포지하상가,그 밖의 대규모점포,37.4703623,126.6280554
대구광역시,중구,태평로1가,1번지 186호,번개시장,그 밖의 대규모점포,35.8750523,128.5961336
인천광역시,계양구,작전동,857번지 117 호,작전종합시장,그 밖의 대규모점포,37.5361680,126.7261251
경상북도,포항시북구,장성동,866-302호,장량시장,그 밖의 대규모점포,36.0654102,129.3772274
서울특별시,영등포구,당산동3가,2번지 7 호,홍익상가,그 밖의 대규모점포,37.5262224,126.8995555
서울특별시,영등포구,영등포동5가,20호,삼구시장,그 밖의 대규모점포,37.5203407,126.9058486
서울특별시,용산구,한강로2가,15번지 14호,선인상가,전문점,37.5338904,126.9654128
서울특별시,용산구,한강로3가,1번지 1호 나진상가,나진산업 주식회사,전문점,37.5339255,126.9634628
서울특별시,용산구,한강로3가,16번지 9호,(주)에스와이에스홀딩스,전문점,37.5301161,126.9545119
서울특별시,종로구,숭인동,206-9 신설종합시장,신설종합시장(주),그 밖의 대규모점포,37.5726722,127.0203594
서울특별시,서대문구,남가좌동,290번지 2 호,모래내시장(주),시장,37.5698511,126.9152509
경상북도,포항시남구,상도동,629호,남부시장,그 밖의 대규모점포,36.0126278,129.3561749
서울특별시,금천구,시흥동,984번지 6호,시흥산업용재유통센타,그 밖의 대규모점포,37.4433443,126.9016398
강원특별자치도,강릉시,주문진읍,주문리 312-91호,주) 포남시장,그 밖의 대규모점포,37.8911700,128.8278497
광주광역시,북구,두암동,895번지 2 호,동아시장,그 밖의 대규모점포,35.1687020,126.9296039
서울특별시,금천구,시흥동,966호,시흥중앙철재상가,그 밖의 대규모점포,37.4376353,126.9035200
대전광역시,중구,유천동,196호,새서울종합시장,그 밖의 대규모점포,36.3218729,127.3967097
서울특별시,용산구,이태원동,119번지 25호,해밀톤 쇼핑몰,쇼핑센터,37.5355805,126.9916333
충청남도,아산시,온천동,87번지 5호,녹산스토아,그 밖의 대규모점포,36.7808989,127.0053772
서울특별시,강남구,논현동,105번지 7호,두산아케이드,그 밖의 대규모점포,37.5193579,127.0365959
대전광역시,중구,오류동,175-1호,삼성슈퍼,그 밖의 대규모점포,36.3237346,127.4076792
경상북도,포항시북구,환호동,377-5호,환호시장,그 밖의 대규모점포,36.0680266,129.3911990
대전광역시,중구,태평동,395-1번지,뉴삼부프라자,그 밖의 대규모점포,36.3232766,127.3933495
서울특별시,구로구,고척동,103번지 4호,고척산업용품상가,그 밖의 대규모점포,37.4989007,126.8603559
서울특별시,구로구,고척동,103번지 4호,고척산업용품상가,복합쇼핑몰,37.4989007,126.8603559
경상북도,포항시북구,장성동,866-301호,장성종합시장,그 밖의 대규모점포,36.0656174,129.3770208
충청남도,아산시,권곡동,543번지 2호,중앙시장,그 밖의 대규모점포,36.7870281,127.0075299
경상북도,포항시북구,죽도동,625-15호,중앙종합시장,그 밖의 대규모점포,36.0231349,129.3554063
부산광역시,중구,남포동5가,92호,신동아수산물종합시장,시장,35.0968524,129.0290786
강원특별자치도,강릉시,주문진읍,주문리 312-91호,주) 주문진시장,그 밖의 대규모점포,37.8911700,128.8278497
경기도,안양시만안구,안양동,41번지 5호,역전지하상가,그 밖의 대규모점포,37.4141274,126.9171940
경상북도,포항시북구,죽도동,2-4호,상대종합시장,그 밖의 대규모점포,36.0363475,129.3683914
제주특별자치도,제주시,이도일동,1349번지 5 호,흥원시장,그 밖의 대규모점포,33.5126729,126.5261912
대구광역시,수성구,만촌동,858호,만촌종합시장,그 밖의 대규모점포,35.8548728,128.6515154
경상남도,통영시,북신동,663번지 6 호,북신시장,시장,34.8549068,128.4278454
부산광역시,동래구,온천동,707호,럭키동래쇼핑,그 밖의 대규모점포,35.2085249,129.0753883
서울특별시,강남구,압구정동,429번지,(주)현대백화점 본점,백화점,37.5273422,127.0274876
서울특별시,용산구,용산동6가,69-167 신동아쇼핑,신동아쇼핑센터,복합쇼핑몰,37.5172474,126.9852079
서울특별시,용산구,용산동6가,69번지 167호,신동아 쇼핑센터,쇼핑센터,37.5204812,126.9877515
부산광역시,부산진구,부전동,573번지 1호,서면지하도상가 부전몰,시장,35.1577580,129.0600478
대전광역시,동구,가양1동,295번지 8호,신가양종합시장,시장,36.3432189,127.4441729
경상북도,포항시남구,청림동,588-2호,청림시장,그 밖의 대규모점포,35.9965324,129.4103169
서울특별시,강남구,압구정동,515호,갤러리아백화점(동관),백화점,37.5280880,127.0415888
대전광역시,서구,내동,11-6호,내동종합시장,그 밖의 대규모점포,36.3300628,127.3810855
인천광역시,남구,주안동,1461번지 4 호,통일종합시장,그 밖의 대규모점포,37.4496743,126.6781954
서울특별시,용산구,한강로1가,191호,국제센터아케이드,그 밖의 대규모점포,37.5334332,126.9741710
제주특별자치도,서귀포시,표선면,표선리 1001번지 1호,표선오일시장,시장,33.3225293,126.8296700
경상남도,마산시,회원동,654번지 8호,교방주공시장(주),그 밖의 대규모점포,35.2178805,128.5611440
인천광역시,계양구,작전동,444번지 2 호,작전현대백화점,그 밖의 대규모점포,37.5276193,126.7216136
부산광역시,사상구,괘법동,533번지 1호,고려쇼핑센터,복합쇼핑몰,35.1633381,128.9819791
서울특별시,강남구,압구정동,494호,갤러리아백화점(서관),백화점,37.5285687,127.0400761
서울특별시,강남구,대치동,500호,그랑프리,그 밖의 대규모점포,37.4908356,127.0572451
경상남도,창원시,용호동,63번지 롯데아파트,롯데종합상가,그 밖의 대규모점포,35.2344801,128.6846742
강원특별자치도,춘천시,죽림동,32번지,제일시장,그 밖의 대규모점포,37.8775442,127.7261600
대구광역시,중구,대신동,241번지 1 호,대신지하상가,그 밖의 대규모점포,36.975593,127.795575
경상남도,마산시,회원동,654번지 8호,합성시장,그 밖의 대규모점포,35.2178805,128.5611440
경상남도,거제시,능포동,68호,옥수동새시장,그 밖의 대규모점포,34.8846279,128.7404016
경상남도,거제시,옥포동,529번지 8 호,옥포중앙시장,그 밖의 대규모점포,34.8939890,128.6892497
전북특별자치도,임실군,오수면,오수리 351번지 1호,오수상설시장,그 밖의 대규모점포,35.5382491,127.3269414
서울특별시,영등포구,대림동,717호,두암종합시장,그 밖의 대규모점포,37.4953094,126.8980837
경상남도,창원시,소계동,724-4호,소계시장,그 밖의 대규모점포,35.2568117,128.5990301
서울특별시,은평구,구산동,182번지 6 호,현대화유통기업(주),대형마트,37.6093017,126.9079798
광주광역시,동구,충장로3가,24,더보이저 광주,쇼핑센터,35.1484299,126.9151612
대구광역시,달서구,성당동,704번지 5호,두류종합시장,그 밖의 대규모점포,35.8469509,128.5458175
서울특별시,강남구,대치동,977번지 12 호,대치종합상가,그 밖의 대규모점포,37.5019370,127.0648194
제주특별자치도,서귀포시,성산읍,고성리 1188번지 2호,고성오일시장,시장,33.4521944,126.9135761
대구광역시,달서구,진천동,241번지 3 호,월배시장,그 밖의 대규모점포,35.8149817,128.5278866
서울특별시,송파구,송파1동,121번지,한화 송파지점,그 밖의 대규모점포,37.5050778,127.1145561
서울특별시,강남구,대치동,511번지 한보미도맨션,한보종합상가,그 밖의 대규모점포,37.4933830,127.0673333
경상남도,통영시,태평동,409번지 1 호,충무데파트종합상설시장,그 밖의 대규모점포,34.8459111,128.4242855
경상남도,통영시,서호동,163호,서호전통시장,그 밖의 대규모점포,34.8430904,128.4197942
대전광역시,중구,유천동,335-17호,서부종합시장,그 밖의 대규모점포,36.3150866,127.3905103
제주특별자치도,제주시,일도1동,1425번지 3호 중앙지하상가,중앙지하상가,시장,33.5134175,126.5246776
광주광역시,남구,주월동,1275-1호,(주)무진시장,그 밖의 대규모점포,35.1327535,126.9046430
부산광역시,사하구,괴정동,740-1호,자유종합상가,그 밖의 대규모점포,35.0989517,128.9886682
부산광역시,동래구,안락동,464번지 21호,충렬상가시장,그 밖의 대규모점포,35.1983270,129.1092748
대구광역시,달서구,본동,225번지 1 호,달서송림시장,그 밖의 대규모점포,35.8367797,128.5470156
제주특별자치도,서귀포시,대정읍,하모리 1089번지 15호,대정오일시장,시장,33.2209451,126.2478651
전북특별자치도,전주시,완산구,서노송동 627번지 1호 전주코아백화점,전주코아백화점,백화점,35.8255328,127.1447885
대구광역시,서구,평리동,606번지 8 호,이현시장,그 밖의 대규모점포,35.8779520,128.5505796
서울특별시,영등포구,영등포동5가,20호,영등포로타리지하상가,그 밖의 대규모점포,37.5203407,126.9058486
서울특별시,송파구,석촌동,277번지 2호,엄마손상가,그 밖의 대규모점포,37.5012523,127.1068173
대구광역시,북구,복현동,462호,복현종합시장,,35.8925786,128.6198778
대구광역시,수성구,수성동1가,649-76호,대공원시장,그 밖의 대규모점포,35.8494962,128.6093981
서울특별시,중구,신당1동,217번지 91호,청평화시장,그 밖의 대규모점포,37.5694444,127.0115766
강원특별자치도,춘천시,효자1동,684번지 11호,사단법인 춘천남부시장조합,그 밖의 대규모점포,37.8707981,127.7252868
부산광역시,중구,남포동6가,3호,신천지시장,시장,35.0970501,129.0278135
부산광역시,해운대구,재송동,1080번지 5 호,재송시장,대형마트,35.1875237,129.1234266
경상북도,포항시북구,죽도동,2-4호,송도시장,그 밖의 대규모점포,36.0363475,129.3683914
서울특별시,영등포구,영등포동4가,434번지 5호 신세계백화점,(주)신세계 타임스퀘어점,백화점,37.5171754,126.9055743
경상남도,창원시,상남동,73-5호,경창상가,그 밖의 대규모점포,35.2202229,128.6792568
인천광역시,부평구,일신동,107호,부일종합시장,그 밖의 대규모점포,37.4847145,126.7432898
전북특별자치도,전주시완산구,효자동1가,호 201-2,서부시장,그 밖의 대규모점포,35.153272,129.034248
서울특별시,성동구,옥수동,220번지 1호 한남하이츠아파트,한남하이츠상가,구분없음,37.5397572,127.0141788
대구광역시,서구,내당동,308번지 1 호,삼익상가,그 밖의 대규모점포,35.8601481,128.5501740
대구광역시,서구,평리동,1437번지 5 호,중평시장,그 밖의 대규모점포,35.8663308,128.5536585
대구광역시,달서구,송현동,185번지 8 호,송현시장,그 밖의 대규모점포,35.8312104,128.5505690
대구광역시,수성구,범어동,432-1호,새범어종합시장,그 밖의 대규모점포,35.8663234,128.6352527
부산광역시,남구,대연동,1760번지 1호,대연시장,그 밖의 대규모점포,35.1356819,129.0884214
대구광역시,달서구,성당동,440호,구마종합시장,그 밖의 대규모점포,35.8413439,128.5546615
경상남도,마산시,양덕동,15번지 1호,양덕중앙시장,그 밖의 대규모점포,35.2326538,128.5841690
경상남도,마산시,부림동,83호,부림상시장,그 밖의 대규모점포,35.2071676,128.5729034
전북특별자치도,전주시완산구,경원동3가,90번지 13호,전주동부시장,그 밖의 대규모점포,35.8203196,127.1512774
전북특별자치도,전주시완산구,경원동3가,호 90-13,동부시장,그 밖의 대규모점포,35.083072,128.96689
서울특별시,강동구,암사3동,451번지 16호,양지종합시장,시장,37.5554438,127.1366378
경상북도,영주시,휴천2동,305번지,영주종합시장,시장,36.8132467,128.6221361
대구광역시,수성구,수성동1가,649-76호,수성현대시장,그 밖의 대규모점포,35.8494962,128.6093981
서울특별시,영등포구,대림1동,909번지 2호,썬프라자,쇼핑센터,37.4965758,126.9084003
부산광역시,부산진구,가야동,450-2호,가남종합시장,시장,35.1501335,129.0343006
인천광역시,중구,인현동,1번지,인현지하상가,그 밖의 대규모점포,37.4762891,126.6314744
대전광역시,서구,가장동,52번지 1호,LK마트(빌딩),그 밖의 대규모점포,36.3333881,127.3888385
서울특별시,서초구,반포동,19번지 4 호,터미널상가,그 밖의 대규모점포,37.5048882,127.0021093
부산광역시,부산진구,부전동,573번지 1호,서면지하도상가 서면몰,복합쇼핑몰,35.1577580,129.0600478
부산광역시,북구,덕천동,355번지 4호,새구포종합상가시장,그 밖의 대규모점포,35.2121398,129.0091879
대전광역시,서구,괴정동,97-7호,한민재래시장,그 밖의 대규모점포,36.3361904,127.3809357
대전광역시,서구,괴정동,91-7호,한민시장,그 밖의 대규모점포,36.3337753,127.3819993
대전광역시,중구,선화동,160-1호,선화상가,대형마트,36.3353772,127.4161589
인천광역시,부평구,십정동,321번지 6호,십정종합시장,시장,37.4735667,126.6951771
서울특별시,송파구,잠실동,101번지 1호,프리마 쇼핑센타,그 밖의 대규모점포,37.5068604,127.0731698
경상남도,창원시,반림동,10-5호,낙원상가,그 밖의 대규모점포,35.2364671,128.6674552
서울특별시,금천구,시흥동,1002번지 1호,럭키남서울상가,그 밖의 대규모점포,37.4504283,126.8993827
대구광역시,서구,평리동,1538번지 3 호,중리시장,그 밖의 대규모점포,35.8706548,128.5480612
충청북도,청주시,서원구,사창동 269-11번지,신라쇼핑쎈타,그 밖의 대규모점포,36.6335838,127.4628584
경상남도,진주시,하대동,70번지 2 호,공단종합시장,그 밖의 대규모점포,35.1854734,128.1198585
부산광역시,해운대구,재송동,1023호,재송삼익상가시장,대형마트,35.1911161,129.1213192
강원특별자치도,홍천군,홍천읍,신장대리 5번지 3호,홍천중앙시장,시장,37.6918499,127.8864317
경기도,고양시일산서구,일산동,617-20호,일산시장,시장,37.6857347,126.7708835
인천광역시,중구,항동7가,27번지 69호,인천종합어시장사업협동조합,시장,37.4582968,126.6084751
서울특별시,양천구,목동,739번지 1호,목동시장아울렛,그 밖의 대규모점포,37.5391563,126.8663555
광주광역시,북구,중흥동,272번지 6호,동부시장,시장,35.1741456,126.9156291
경상북도,영천시,야사동,187호,문화상가,그 밖의 대규모점포,35.9739094,128.9471506
전라남도,완도군,완도읍,군내리 1249번지 1 호,완도읍5일시장,그 밖의 대규모점포,34.3165179,126.7477207
충청북도,청주시,서원구,사직동 265-19번지,사직종합시장,그 밖의 대규모점포,36.6363533,127.4776564
경상남도,창원시,신촌동,15번지 6호,유신종합상가,그 밖의 대규모점포,35.2084192,128.6266903
경상남도,마산시,회성동,450번지 1호,회성종합시장,,35.2330391,128.5589037
전라남도,순천시,남내동,119호,중앙시장,그 밖의 대규모점포,34.9532634,127.4845298
경상남도,창원시,반림동,,반송종합시장,그 밖의 대규모점포,35.238,128.668
인천광역시,남동구,간석동,194호,동서종합시장,그 밖의 대규모점포,37.4607984,126.7105726
경상북도,포항시북구,죽도동,2-4호,양학시장,그 밖의 대규모점포,36.0363475,129.3683914
인천광역시,남동구,구월동,8번지 2호,만수종합쇼핑,쇼핑센터,37.4599044,126.7166315
대전광역시,동구,중동,317호,지하상가,그 밖의 대규모점포,36.3306087,127.4312499
대전광역시,동구,중동,317번지,대전역전지하상가,시장,36.3306087,127.4312499
부산광역시,부산진구,초읍동,271-1호,창곡종합시장,시장,35.1772720,129.0478548
인천광역시,남동구,구월동,8번지 2호,구월종합상가(주),그 밖의 대규모점포,37.4599044,126.7166315
인천광역시,남구,주안동,15번지 43 호,공단시장,그 밖의 대규모점포,37.4680685,126.6798290
부산광역시,부산진구,전포동,608-1호,서면중앙시장,시장,35.1608924,129.0633194
부산광역시,부산진구,부전동,29호,부산전자종합,그 밖의 대규모점포,35.1636850,129.0622183
부산광역시,부산진구,부전동,29호,부산전자종합시장번영회,시장,35.1636850,129.0622183
대구광역시,서구,내당동,13번지 1호,밤고개시장,그 밖의 대규모점포,35.8619229,128.5637002
부산광역시,중구,보수동3가,46-1호,보수종합시장,시장,35.1041982,129.0217598
인천광역시,부평구,부평동,224번지 1호,시장로타리지하상가,그 밖의 대규모점포,37.5001352,126.7216635
대구광역시,수성구,황금동,746번지,황금시장,그 밖의 대규모점포,35.8483541,128.6199777
대구광역시,수성구,만촌동,984-1호,황금시장,그 밖의 대규모점포,35.8649407,128.6442281
경상남도,마산시,부림동,87호,부림시장,그 밖의 대규모점포,37.577805,127.015627
대구광역시,북구,산격동,1258호,산격종합시장,그 밖의 대규모점포,35.8984123,128.6105172
인천광역시,강화군,강화읍,신문리 205번지 5호,강화중앙시장,시장,37.7461480,126.4835394
경상남도,마산시,석전동,226번지 2호,역전통합시장,그 밖의 대규모점포,35.2364269,128.5792491
경상남도,마산시,구암동,88번지 2호,서마시장,그 밖의 대규모점포,35.2497663,128.6003861
강원특별자치도,철원군,동송읍,이평리 680번지 1호,동송시장(등록),시장,38.2088561,127.2188597
강원특별자치도,철원군,서면,와수리 1171번지 21호,와수시장(등록),시장,38.2394855,127.4402570
강원특별자치도,철원군,갈말읍,신철원리 679번지,신철원시장(등록),시장,38.1460031,127.3099113
부산광역시,사하구,신평동,111-213호,신평종합시장,시장,35.0915897,128.9768797
대구광역시,서구,평리동,676번지 1 호,대평리시장,그 밖의 대규모점포,35.8781960,128.5577369
대전광역시,동구,원동,64호,자유도매시장,시장,36.315014,127.395304
대전광역시,동구,원동,64번지 1호,자유도매시장,그 밖의 대규모점포,36.3292005,127.4320547
서울특별시,중구,남창동,51번지 1호,숭례문상가,그 밖의 대규모점포,37.5594320,126.9762306
대구광역시,서구,평리동,1205호,신평리시장,그 밖의 대규모점포,35.8680941,128.5606822
충청북도,청주시,흥덕구,복대동 634번지,복대시장,그 밖의 대규모점포,36.6349973,127.4488380
대구광역시,북구,칠성동1가,89호,경명시장,그 밖의 대규모점포,36.0702,129.3958
경상북도,포항시북구,죽도동,2-4호,동해종합시장,그 밖의 대규모점포,36.0363475,129.3683914
경상남도,마산시,구암동,18번지 1호,구암형대시장,그 밖의 대규모점포,35.2660463,128.5839034
광주광역시,동구,충장로3가,43호,충금지하상가,전문점,35.1488644,126.9153553
경기도,안양시동안구,호계동,997호,(주)현대종합시장상가,그 밖의 대규모점포,37.3725663,126.9592493
경상남도,창원시,중앙동,69-1호,중앙시장,그 밖의 대규모점포,35.2271896,128.6760330
경상남도,통영시,중앙동,38-4호,통영중앙시장사업협동조합,그 밖의 대규모점포,34.8452887,128.4246418
서울특별시,중구,신당동,776호,(주)에리어식스,그 밖의 대규모점포,37.5681513,127.0120037
부산광역시,사하구,하단동,487-6호,에덴시장,시장,35.1114267,128.9631106
인천광역시,남동구,간석동,195번지 1호,신사상가,그 밖의 대규모점포,37.4607869,126.7097463
경상북도,봉화군,봉화읍,내성리 394-18호,봉화제1상설시장,그 밖의 대규모점포,36.8905555,128.7358361
부산광역시,사하구,당리동,302-7호,당리시장,시장,35.1061774,128.9695844
서울특별시,성동구,용답동,234번지 한국자동차매매센터,자동차매매센타,전문점,37.5602185,127.0662886
부산광역시,연제구,연산동,364번지 1호,연천시장,그 밖의 대규모점포,35.1894752,129.0980538
부산광역시,부산진구,부전동,347번지 40호,서면종합시장,시장,35.1621750,129.0581303
서울특별시,관악구,봉천동,1638번지 20호,원당종합시장,그 밖의 대규모점포,37.4747178,126.9657569
경상남도,양산시,중부동,423-5호,남부시장,그 밖의 대규모점포,35.3428196,129.0372106
부산광역시,동래구,명장동,145번지 9호,명장시장,그 밖의 대규모점포,35.2046235,129.1064180
서울특별시,서초구,서초2동,1332번지 2호,무지개쇼핑,그 밖의 대규모점포,37.4930736,127.0250707
경상남도,진주시,상대동,193번지 1 호,동부종합상가,그 밖의 대규모점포,35.1870481,128.1162019
부산광역시,해운대구,중동,1520번지 3호,해동시장,대형마트,35.1621357,129.1782780
인천광역시,남동구,간석동,313번지 1호,석천종합시장,그 밖의 대규모점포,37.4642321,126.7070478
서울특별시,광진구,중곡동,229번지 15호,광성시장,그 밖의 대규모점포,37.5645949,127.0819286
부산광역시,해운대구,중동,1512호,삼호동백상가시장,대형마트,35.1609751,129.1740494
경상남도,거제시,신현읍,고현리 98번지 27호,고현종합시장,그 밖의 대규모점포,37.463776,126.676525
충청북도,청주시,상당구,북문로2가 95-2번지,중앙시장,그 밖의 대규모점포,36.6394038,127.4891813
충청북도,청주시,서원구,모충동 88-4번지,남부상가시장,그 밖의 대규모점포,36.6205244,127.4899584
서울특별시,강남구,청담동,134번지 20호,청담삼익시장,그 밖의 대규모점포,37.5247718,127.0561392
경상남도,마산시,양덕동,164번지 20호,양덕종합시장,그 밖의 대규모점포,35.2229021,128.5898378
서울특별시,영등포구,영등포동5가,20호,영등포역앞지하상가,그 밖의 대규모점포,37.5203407,126.9058486
서울특별시,광진구,화양동,10번지 1호,한아름시장,그 밖의 대규모점포,37.5435080,127.0699118
충청남도,아산시,온천동,87번지 7호,온양상가,그 밖의 대규모점포,36.7808989,127.0053772
강원특별자치도,태백시,장성동,159-2호,합명회사장성중앙시장,그 밖의 대규모점포,37.1008657,129.0098008
경상남도,창원시,신촌동,33번지 2호,양곡시장,그 밖의 대규모점포,35.2007680,128.6278539
부산광역시,북구,덕천동,411번지 5 호,덕천시장,그 밖의 대규모점포,35.2111991,129.0124384
부산광역시,북구,구포동,1041번지 1 호,구남시장,그 밖의 대규모점포,35.2023793,128.9970101
강원특별자치도,강릉시,성남동,50호,사단법인 강릉중앙시장번영회,시장,37.7539963,128.8986308
대구광역시,수성구,만촌동,984-1호,청구시장,그 밖의 대규모점포,35.8649407,128.6442281
대전광역시,동구,가양1동,434번지,가양시장,시장,36.3462382,127.4432072
대전광역시,동구,가양동,434호,가양시장,그 밖의 대규모점포,36.3462382,127.4432072
부산광역시,동구,수정동,170번지 1 호,사단법인 수정시장번영회,그 밖의 대규모점포,35.1282583,129.0464066
서울특별시,동작구,상도동,324번지 1호,성대종합시장,그 밖의 대규모점포,37.4999765,126.9317592
인천광역시,부평구,부평동,224번지 1호,신부평로지하상가,그 밖의 대규모점포,37.5001352,126.7216635
경기도,안양시만안구,안양동,1189번지 1호,안양중앙지하도 상가,시장,37.3977473,126.9230317
대구광역시,서구,평리동,1085번지 1 호,서구시장,그 밖의 대규모점포,35.8737820,128.5557177
전라남도,순천시,덕암동,227-1호,역전시장,그 밖의 대규모점포,34.9438210,127.5035021
경기도,안양시만안구,석수동,387번지 288호,석수시장,그 밖의 대규모점포,37.4303289,126.9042364
경상남도,진주시,상대동,276번지 17 호,자유시장,그 밖의 대규모점포,35.1802565,128.1097157
부산광역시,서구,동대신동1가,113번지 1호,대신시장,시장,35.1103784,129.0197148
서울특별시,광진구,자양동,602호,자양종합시장,그 밖의 대규모점포,37.5319991,127.0764463
부산광역시,남구,대연동,1756번지 9호,하이타운상가백화점,그 밖의 대규모점포,35.1342203,129.0872941
경상남도,마산시,회원동,362번지 17호,회원상가시장,그 밖의 대규모점포,35.2216111,128.5704288
경상남도,마산시,석전동,257번지 1호,역전시장,그 밖의 대규모점포,35.2304218,128.5748965
서울특별시,중구,신당1동,777번지,(주)광희패션몰,그 밖의 대규모점포,37.5686547,127.0119141
서울특별시,중구,신당동,772호,남평화상가(주),그 밖의 대규모점포,37.5691897,127.0108985
서울특별시,강남구,대치동,626호,청실종합상가,그 밖의 대규모점포,37.4931444,127.0590787
부산광역시,해운대구,반여동,1291번지 918호,반여시장,시장,35.1974999,129.1331186
서울특별시,서초구,서초동,1335번지,무지개종합상가,그 밖의 대규모점포,37.4890918,127.0261924
인천광역시,부평구,부평동,252번지 52호,진흥종합시장,그 밖의 대규모점포,37.4980956,126.7266882
서울특별시,강남구,논현동,227번지 4호,논현종합시장,그 밖의 대규모점포,37.5098516,127.0338420
서울특별시,동대문구,전농동,647번지 1호,전농프라자,그 밖의 대규모점포,37.5745528,127.0470163
서울특별시,중구,소공동,1번지,호텔롯데아케이드,그 밖의 대규모점포,37.5648228,126.9810887
부산광역시,사하구,당리동,302-7호,하단시장,시장,35.1061774,128.9695844
경상남도,마산시,합성동,326번지 1호,동마산시장,그 밖의 대규모점포,35.2401191,128.5875983
전북특별자치도,전주시완산구,전동3가,호 3-242,남부시장,그 밖의 대규모점포,37.562097,127.014548
대전광역시,서구,도마동,135-12호,유천종합시장,그 밖의 대규모점포,36.3153364,127.3832950
부산광역시,연제구,연산동,1328번지 15호,영남종합시장,그 밖의 대규모점포,35.1810674,129.0776149
부산광역시,부산진구,초읍동,271-6호,성곡종합시장,시장,35.1747838,129.0483558
경상남도,마산시,구암동,88번지 2호,구암시장,그 밖의 대규모점포,35.2497663,128.6003861
광주광역시,남구,주월동,974번지 107호,무등시장(합자),전문점,35.1366074,126.8925084
부산광역시,연제구,연산동,709번지 17호,연산로타리종합시장,그 밖의 대규모점포,35.1845882,129.0815402
부산광역시,연제구,연산동,636번지 28호,연일시장,그 밖의 대규모점포,35.1854935,129.0856794
경상남도,마산시,산호동,28번지 28호,산호시장,그 밖의 대규모점포,35.2192624,128.5825893
부산광역시,해운대구,우동,1092번지 16호,우동종합상가시장,대형마트,35.1706726,129.1388497
부산광역시,부산진구,개금동,615-16호,종합새시장,시장,35.1485228,129.0178818
부산광역시,연제구,거제동,987번지 10호,거성시장,그 밖의 대규모점포,35.1900638,129.0683749
부산광역시,동래구,명륜동,5번지 5호,온천로타리종합시장,그 밖의 대규모점포,35.2162752,129.0852721
부산광역시,부산진구,개금1동,615번지 20호,개금큰시장,시장,35.1487117,129.0185233
부산광역시,연제구,연산동,312번지 18호,연동시장,그 밖의 대규모점포,35.1893865,129.0920361
제주특별자치도,서귀포시,대정읍,하모리 822번지 7호,모슬포중앙시장,시장,33.2221224,126.2546901
부산광역시,중구,창선동2가,30호,창선상가,시장,35.0996884,129.0282634
서울특별시,송파구,잠실동,27번지 6호,잠실중앙상가,그 밖의 대규모점포,37.5153375,127.0929721
인천광역시,중구,인현동,1호,중앙로지하상가,그 밖의 대규모점포,37.4762891,126.6314744
부산광역시,서구,암남동,346번지 2호,송남시장,시장,35.0785058,129.0168210
인천광역시,남구,도화2동,81번지 1호,제물포지하상가,그 밖의 대규모점포,37.4670641,126.6564317
부산광역시,사상구,덕포동,422번지 16 호,북부산시장,그 밖의 대규모점포,35.1710449,128.9817104
부산광역시,부산진구,부전동,573-26호,부전인삼시장,시장,35.1630527,129.0611546
부산광역시,동래구,안락동,425번지 51호,서원시장,그 밖의 대규모점포,35.2007852,129.0984538
대구광역시,중구,대신동,115번지 400 호,서문시장제5지구시장,그 밖의 대규모점포,35.8692999,128.5823072
서울특별시,동대문구,용두동,231-5,용두시장,시장,37.5784182,127.0295440
대구광역시,중구,대신동,115-30 동산상가,동산상가,그 밖의 대규모점포,35.8689559,128.5817236
서울특별시,금천구,시흥동,884번지 5호,대명합동시장,그 밖의 대규모점포,37.4546481,126.9016409
부산광역시,남구,용호동,128번지 1호,용호 삼성시장,그 밖의 대규모점포,35.1178674,129.1260213
강원특별자치도,강릉시,용강동,29호,(사)강릉서부시장번영회,시장,37.7550475,128.8908174
강원특별자치도,강릉시,용강동,29호,강릉서부시장,그 밖의 대규모점포,37.7550475,128.8908174
전라남도,순천시,풍덕동,1264호,남부상설시장,그 밖의 대규모점포,34.9453204,127.4953718
부산광역시,사하구,괴정동,552-14호,사하시장,시장,35.0975769,128.9855001
부산광역시,중구,신창동4가,38호,사단법인 국제시장번영회,그 밖의 대규모점포,35.1015352,129.0283519
서울특별시,마포구,공덕동,256번지 5호 마포시장,마포시장,시장,37.5457283,126.9540959
경기도,성남시,수정구,신흥3동 3436번지 10호,신흥시장,시장,37.4443986,127.1436065
경기도,성남시수정구,신흥동,3436번지 10 호,신흥시장,그 밖의 대규모점포,37.4443986,127.1436065
인천광역시,남구,주안동,929호,신주안종합시장,그 밖의 대규모점포,37.4628675,126.6905549
강원특별자치도,강릉시,옥천동,223호,사) 동부시장,그 밖의 대규모점포,37.7599794,128.9009126
강원특별자치도,강릉시,옥천동,223호,사) 동부시장,그 밖의 대규모점포,37.7599794,128.9009126
대전광역시,중구,문창동,383-4호,신남부시장,그 밖의 대규모점포,36.3125760,127.4376413
부산광역시,연제구,연산동,2124번지 16호,연미새시장,그 밖의 대규모점포,35.1751944,129.0947853
부산광역시,사상구,감전동,121번지 12호,감전제일상가,그 밖의 대규모점포,35.1575546,128.9838815
경상남도,김해시,동상동,881호,사단법인김해시장번영회,그 밖의 대규모점포,35.2361126,128.8834670
부산광역시,동래구,사직동,128번지 1호,신정시장,그 밖의 대규모점포,35.1968164,129.0694852
경기도,하남시,신장동,427-159호,신장시장,그 밖의 대규모점포,37.5380875,127.2053727
부산광역시,중구,영주동,601호,영주시장,시장,35.1116883,129.0373222
서울특별시,광진구,중곡동,79번지 13호,신성종합시장,그 밖의 대규모점포,37.5584416,127.0881101
대구광역시,서구,비산동,1247번지 1 호,만평시장,그 밖의 대규모점포,35.8884164,128.5628070
대구광역시,중구,동성로2가,41번지 8호,(주)대현프리몰 대구점,시장,35.8709640,128.5960627
서울특별시,구로구,개봉동,361번지 1호,개봉제일시장,그 밖의 대규모점포,37.4859882,126.8534403
서울특별시,구로구,개봉동,361번지 1 호,개봉제일시장,그 밖의 대규모점포,37.4859882,126.8534403
광주광역시,동구,계림동,520번지 5호,호남시장,그 밖의 대규모점포,35.1594615,126.9257703
부산광역시,동래구,온천동,1407번지 36 호,(사)금성상가시장번영회,그 밖의 대규모점포,35.2079095,129.0725119
부산광역시,동래구,온천2동,1407번지 2호,(사)금성상가시장,시장,35.2079095,129.0725119
경상남도,마산시,상남동,40번지 1호,북마산중앙시장,그 밖의 대규모점포,35.2160702,128.5711621
부산광역시,동래구,안락동,603번지 1호,안락시장,그 밖의 대규모점포,35.1956344,129.1032673
부산광역시,북구,만덕동,829호,만덕시장,그 밖의 대규모점포,35.2144924,129.0353740
대구광역시,북구,칠성동1가,276-108호,삼성시장,그 밖의 대규모점포,35.8778304,128.6035752
부산광역시,해운대구,반송동,40번지 808호,운봉장터시장,대형마트,35.2345046,129.1579443
서울특별시,강남구,압구정동,454호,신사상가,그 밖의 대규모점포,37.5322917,127.0284179
서울특별시,구로구,개봉동,324번지 1 호,개봉중앙시장,그 밖의 대규모점포,37.4916943,126.8539000
대구광역시,중구,남산동,698번지 22 호,남문시장,그 밖의 대규모점포,35.8620541,128.5916419
서울특별시,양천구,목3동,960번지,신한이모르젠상가,그 밖의 대규모점포,37.5490405,126.8644988
경기도,안양시만안구,안양동,688번지 17 호,청원시장,그 밖의 대규모점포,37.4038074,126.9197836
경기도,의정부시,의정부1동,160번지,(사)의정부제일시장번영회,시장,37.7397875,127.0503897
대구광역시,북구,노원동3가,750,팔달신시장,시장,35.8906798,128.5659896
대구광역시,북구,칠성동1가,302-98호,대성시장,그 밖의 대규모점포,35.163524,129.063001
부산광역시,동래구,온천동,1376번지 7호,금강시장,그 밖의 대규모점포,35.2018245,129.0679821
대구광역시,서구,원대동3가,1223번지 13 호,원대시장,그 밖의 대규모점포,35.8835460,128.5782265
광주광역시,동구,대인동,310번지 9호,대인시장,시장,35.1544898,126.9167619
울산광역시,남구,야음동,815번지 22호,주식회사 야음시장,그 밖의 대규모점포,35.5247123,129.3308210
서울특별시,관악구,신림동,1426번지 7호,가야쇼핑,시장,37.4876913,126.9299589
부산광역시,동구,범일동,830번지 24호,사단법인 자유시장번영회,그 밖의 대규모점포,35.1381366,129.0650771
부산광역시,동래구,온천동,1459번지 2호,금정시장,그 밖의 대규모점포,35.2036152,129.0734239
부산광역시,부산진구,개금동,632번지 3호,수양시장,시장,35.1461613,129.0169271
부산광역시,부산진구,개금동,632-3호,수양시장,그 밖의 대규모점포,35.1458576,129.0168524
부산광역시,부산진구,초읍동,225호,초읍시장,시장,35.1773682,129.0530342
부산광역시,남구,용호동,516번지 10호,용호시장,그 밖의 대규모점포,35.1160260,129.1126241
부산광역시,사하구,감천동,466-5호,감천시장,시장,35.0880286,129.0057520
서울특별시,중랑구,중화2동,314번지 1호,태능엔터피아 번영회,시장,37.5993004,127.0774767
대전광역시,동구,원동,40번지 1호,신 중앙시장,복합쇼핑몰,36.3272978,127.4336340
서울특별시,동대문구,장안동,108-5,전곡시장,시장,37.5779032,127.0685800
광주광역시,동구,학동,55번지 57호,남광주종합상가,시장,35.1391467,126.9217653
부산광역시,부산진구,부전동,573호,부전시장,시장,35.1577580,129.0600478
부산광역시,부산진구,부전동,573번지 부전시장,부전시장,시장,35.1577580,129.0600478
인천광역시,남구,용현동,4번지 2 호,용남시장,시장,37.4519392,126.6661035
서울특별시,영등포구,여의도동,42번지 1 호,한화스토아여의점,그 밖의 대규모점포,37.5214882,126.9325113
인천광역시,남구,주안동,1472호,재흥시장,그 밖의 대규모점포,37.4524422,126.6809821
제주특별자치도,서귀포시,서귀동,274번지 6호,동명백화점,백화점,33.2483905,126.5631081
전라남도,순천시,동외동,호 199-5,북부상설시장,그 밖의 대규모점포,36.031232,129.363192
제주특별자치도,제주시,이도일동,1289번지 5호,보성시장,시장,33.5039956,126.5272536
서울특별시,은평구,불광동,310번지 131 호,연서시장,그 밖의 대규모점포,37.6199837,126.9224344
서울특별시,강북구,미아동,701번지 3호 동북프라자,동북시장,그 밖의 대규모점포,37.6201219,127.0194575
서울특별시,강북구,미아동,701번지 3호 동북프라자,동북프라자,그 밖의 대규모점포,37.6201219,127.0194575
부산광역시,연제구,연산동,787번지 3 호,연산시장,그 밖의 대규모점포,35.1760627,129.0854066
광주광역시,서구,양동,441호,복개상가,그 밖의 대규모점포,35.1523105,126.9056208
전라남도,완도군,완도읍,군내리 822번지 111호,중앙시장,그 밖의 대규모점포,34.3144079,126.7539883
경기도,성남시수정구,태평동,3683호,현대시장,그 밖의 대규모점포,37.4417130,127.1319737
대구광역시,수성구,수성동2가,39-4 수성종합시장,태백시장,그 밖의 대규모점포,35.8551035,128.6167362
대구광역시,중구,대신동,115번지 377 호,서문시장제4지구시장,그 밖의 대규모점포,35.8692999,128.5823072
인천광역시,중구,인현동,1호,동인천지하아케이트,그 밖의 대규모점포,37.4762891,126.6314744
서울특별시,강남구,신사동,510번지 11호,강남시장,복합쇼핑몰,37.5183176,127.0199960
부산광역시,동구,범일2동,290번지 1호 부산진시장,부산진시장,그 밖의 대규모점포,35.1362089,129.0587077
부산광역시,동구,범일2동,290번지 1호 부산진시장,사단법인 부산진시장번영회,시장,35.1362089,129.0587077
경기도,성남시중원구,성남동,4214호,모란시장,그 밖의 대규모점포,37.4306485,127.1274097
전북특별자치도,부안군,부안읍,서외리 21 상설시장,부안상설시장,그 밖의 대규모점포,35.7271057,126.7329910
대구광역시,중구,대신동,115-379 서문시장 1지구,서문시장제1지구포목시장,그 밖의 대규모점포,35.8693976,128.5798461
대구광역시,북구,칠성동1가,276-163,칠성시장,그 밖의 대규모점포,35.8763055,128.6053736
서울특별시,동대문구,휘경동,151-3,이경시장,시장,37.5946237,127.0660394
서울특별시,마포구,연남동,227번지 15호,동진시장,시장,37.5619658,126.9269897
서울특별시,마포구,망원2동,480번지 1호,성산시장,시장,37.5591543,126.9071536
서울특별시,영등포구,문래동3가,16호,영일시장,그 밖의 대규모점포,37.5182881,126.9012280
충청남도,아산시,온천동,41번지 2호,온양상설시장,그 밖의 대규모점포,36.7841279,127.0015837
서울특별시,마포구,공덕동,256번지 10호,공덕시장,시장,37.5457283,126.9540959
서울특별시,동대문구,전농동,295번지 52호,전농로타리시장,시장,37.5783453,127.0578075
대구광역시,수성구,만촌동,640호,만촌시장,그 밖의 대규모점포,35.8718101,128.6463860
경상남도,마산시,오동동,290호,자유시장,그 밖의 대규모점포,35.2086749,128.5817035
서울특별시,송파구,마천동,140번지 2호,마천시장,그 밖의 대규모점포,37.4990539,127.1499761
광주광역시,서구,양동,5번지 101 호,양동시장,그 밖의 대규모점포,35.1527814,126.9044526
서울특별시,중구,남대문로2가,123호,롯데쇼핑본점영플라자,백화점,37.5635257,126.9817302
충청남도,천안시,사직동,33호,천일시장,그 밖의 대규모점포,36.8024396,127.1499029
대전광역시,동구,원동,38번지 1호,중앙도매시장,시장,36.3277753,127.4333632
서울특별시,금천구,시흥동,831번지 6호,시흥중앙시장,그 밖의 대규모점포,37.4521172,126.9082249
대전광역시,동구,신인동,52번지 1호,대전상가,그 밖의 대규모점포,36.3217980,127.4366245
대전광역시,동구,인동,52-1,(주)대전상가,시장,36.3217980,127.4366245
대전광역시,동구,인동,52번지 1호,대전상가,시장,36.3217980,127.4366245
서울특별시,영등포구,신길동,259호,신동시장,그 밖의 대규모점포,37.5063577,126.9095682
대전광역시,동구,원동,42번지 1호,(주)중앙메가프라자,그 밖의 대규모점포,36.3267292,127.4339577
대전광역시,동구,원동,42번지 1호,중앙메가프라자,시장,36.3267292,127.4339577
부산광역시,중구,동광동1가,1번지 10호,부산데파트,시장,35.1000002,129.0361298
부산광역시,북구,구포동,589번지 50호,구포시장,그 밖의 대규모점포,35.2084246,129.0033977
서울특별시,중구,충무로1가,52번지 5호 신세계백화점건물,신세계백화점,백화점,37.5600171,126.9812137
대구광역시,중구,동인동4가,460호,중앙시장,그 밖의 대규모점포,35.8691582,128.6125298
서울특별시,은평구,응암동,300번지 11 호,양지시장,그 밖의 대규모점포,37.398992,126.925908
서울특별시,동대문구,제기동,650호,동서시장,시장,37.5798178,127.0415478
서울특별시,성북구,장위동,301호,번동시장,그 밖의 대규모점포,37.6213218,127.0479728
서울특별시,중구,을지로4가,9번지 6호,대림상가,그 밖의 대규모점포,37.5668659,126.9955150
서울특별시,마포구,신수동,288번지 1호,신수시장,시장,37.5454382,126.9355815
서울특별시,마포구,서교동,357번지 1호,서교시장,시장,37.5535251,126.9216751
서울특별시,동대문구,이문동,292번지 10호,이문제일시장,시장,37.5975955,127.0611378
인천광역시,남구,용현동,140호,용일시장,그 밖의 대규모점포,37.4545576,126.6578050
인천광역시,남구,학익동,293호,용학시장,그 밖의 대규모점포,37.4444069,126.6662491
서울특별시,마포구,서교동,485번지 14호,영진시장,시장,37.5537405,126.9125255
대구광역시,서구,비산동,434호,서부시장,그 밖의 대규모점포,35.8750038,128.5722628
부산광역시,부산진구,당감동,238번지 89호,당감시장,시장,35.1645073,129.0421550
대구광역시,수성구,범어동,29-1호,로타리시장,그 밖의 대규모점포,35.8627343,128.6250562
전라남도,목포시,용당동,1052호,동부시장,그 밖의 대규모점포,34.8041152,126.3919661
부산광역시,부산진구,부전동,256번지 6호,서면시장,시장,35.1565870,129.0581237
인천광역시,동구,송림동,50번지 48호,동부시장,시장,37.4774845,126.6461280
부산광역시,중구,남포동4가,37번지 1호,자갈치시장,시장,35.0967415,129.0311144
부산광역시,중구,남포동4가,37-1호,자갈치시장,그 밖의 대규모점포,35.0967415,129.0311144
서울특별시,관악구,봉천동,502번지 4호,봉천현대시장,시장,37.4869397,126.9466754
서울특별시,구로구,구로동,169번지 2 호,배영설비(주),그 밖의 대규모점포,37.4901329,126.8919084
서울특별시,중구,충무로4가,120번지 3 호,진양상가,그 밖의 대규모점포,37.5624139,126.9959435
서울특별시,관악구,봉천동,951번지 25호,봉일시장,그 밖의 대규모점포,37.4860470,126.9392338
서울특별시,강북구,수유동,32번지 2호 수유중앙시장,수유중앙시장,그 밖의 대규모점포,37.6404620,127.0200149
대구광역시,중구,대봉동,55번지 61 호,대구맨션마켓,그 밖의 대규모점포,35.8611058,128.6016455
전라남도,목포시,남교동,108번지 40 호,제일시장,그 밖의 대규모점포,34.7944697,126.3835196
경상북도,포항시북구,죽도동,2-4호,죽도시장,그 밖의 대규모점포,36.0363475,129.3683914
서울특별시,구로구,고척동,50번지 48 호,고척시장,그 밖의 대규모점포,37.5028273,126.8636548
서울특별시,구로구,고척동,50번지 48호,고척스카이프라자,그 밖의 대규모점포,37.5028273,126.8636548
서울특별시,영등포구,영등포동5가,24호,동남시장,그 밖의 대규모점포,37.5206032,126.9056773
인천광역시,남구,숭의동,124번지 37 호,숭의자유시장,그 밖의 대규모점포,37.4665070,126.6494803
서울특별시,강북구,번1동,413번지 3호,북부시장,시장,37.6371193,127.0293926
부산광역시,동래구,온천동,147호,온천시장,그 밖의 대규모점포,35.2181564,129.0605983
서울특별시,성북구,석관동,338번지 18호,새석관시장,그 밖의 대규모점포,37.6099200,127.0561294
충청북도,청주시,청원구,우암동 346-2번지,북부시장,그 밖의 대규모점포,36.6484268,127.4858882
서울특별시,광진구,중곡동,229번지 5호,중곡제일시장,그 밖의 대규모점포,37.5645949,127.0819286
서울특별시,광진구,자양동,6번지 20호,조양시장,그 밖의 대규모점포,37.5398853,127.0684669
대구광역시,수성구,수성동2가,39-1호,동성시장,그 밖의 대규모점포,35.8557162,128.6167894
강원특별자치도,태백시,황지동,38호,사단법인황지자유시장,그 밖의 대규모점포,37.1693491,128.9794222
인천광역시,남구,숭의동,124호,평화자유시장,그 밖의 대규모점포,37.4665070,126.6494803
서울특별시,종로구,숭인동,206-9 신설종합시장 숭인동,신설종합시장,시장,37.5726722,127.0203594
서울특별시,동대문구,답십리동,495-1,동부시장,시장,37.5676419,127.0523272
대구광역시,수성구,수성동2가,39번지 4호 수성종합시장,수성시장,그 밖의 대규모점포,35.8557162,128.6167894
인천광역시,중구,인현동,1호,(합)구지하자유시장,그 밖의 대규모점포,37.4762891,126.6314744
대구광역시,중구,교동,67-12 교동시장,교동시장,그 밖의 대규모점포,35.8731378,128.5965936
경기도,성남시수정구,수진동,6042호,제일시장,그 밖의 대규모점포,35.079849,129.02098
서울특별시,은평구,불광동,631번지 1호,대호프라자상가,복합쇼핑몰,37.6147577,126.9328692
서울특별시,광진구,자양동,44번지 2호,노룬산시장,그 밖의 대규모점포,37.5369524,127.0644997
경기도,광명시,광명동,150번지 17 호,광명시장,그 밖의 대규모점포,37.4584542,126.8515496
서울특별시,관악구,봉천동,951번지 25호,봉일시장,그 밖의 대규모점포,37.4860470,126.9392338
인천광역시,남동구,간석동,224호,간석자유시장,그 밖의 대규모점포,35.865545,128.576268
서울특별시,은평구,응암동,427번지 126호,응암시장,그 밖의 대규모점포,37.5942269,126.9188531
경상남도,마산시,회원동,49번지 1호,태화종합시장,그 밖의 대규모점포,35.2221080,128.5521399
부산광역시,동래구,복천동,229번지 28호,동래시장,그 밖의 대규모점포,35.2034281,129.0854591
서울특별시,강서구,방화동,620호,(주)공항시장,시장,37.5639115,126.8064296
대전광역시,서구,도마동,113-17호,도마시장,그 밖의 대규모점포,36.3177291,127.3717211
서울특별시,서대문구,홍제3동,294번지 6호,유진상가,시장,37.5914096,126.9429552
서울특별시,마포구,합정동,375번지 1호,합정시장,시장,37.5482211,126.9131807
대구광역시,서구,내당동,968호,새길시장,그 밖의 대규모점포,35.8650362,128.5715996
인천광역시,남구,주안동,549번지 1 호,주안자유시장,그 밖의 대규모점포,37.4555118,126.6760649
서울특별시,영등포구,대림동,963호,대림시장,그 밖의 대규모점포,37.4916019,126.9078204
부산광역시,연제구,거제동,486번지 1호,거제시장,그 밖의 대규모점포,35.1819204,129.0728240
충청남도,천안시,사직동,3호,중앙시장,그 밖의 대규모점포,36.8034453,127.1500571
대구광역시,수성구,범어동,1004호,신천시장,그 밖의 대규모점포,35.8651646,128.6193370
서울특별시,중구,을지로6가,17번지,통일상가,그 밖의 대규모점포,37.5686422,127.0077487
서울특별시,은평구,대조동,14번지 24호,불광시장(주),그 밖의 대규모점포,37.6105540,126.9293057
부산광역시,부산진구,범천동,839번지 52호,부산평화시장,시장,35.1424597,129.0631625
서울특별시,영등포구,도림동,176호,도림시장,그 밖의 대규모점포,37.5099873,126.8983688
인천광역시,남구,도화동,263호,제일시장,그 밖의 대규모점포,37.4755597,126.6666004
경기도,수원시팔달구,영동,8번지,영동시장,시장,37.2771731,127.0186010
충청남도,천안시,성황동,86번지 2호,자유시장,그 밖의 대규모점포,36.8125199,127.1521282
대구광역시,북구,노원동2가,375호,팔달시장,그 밖의 대규모점포,35.8890290,128.5708314
대구광역시,중구,동인동4가,460호,동국철물시장,그 밖의 대규모점포,35.8691582,128.6125298
전라남도,순천시,주암면,창촌리 246-1호,창촌시장,그 밖의 대규모점포,35.0576163,127.2794407
서울특별시,성동구,성수동2가,289번지 4호,(주)인트램,그 밖의 대규모점포,37.5492356,127.0561503
서울특별시,용산구,서계동,260번지 1호,만리시장,시장,37.5513004,126.9636272
서울특별시,구로구,오류동,38번지 7 호,오류시장,그 밖의 대규모점포,37.4967606,126.8441099
전라남도,완도군,노화읍,이포리 168호,노화읍5일시장,그 밖의 대규모점포,34.1776879,126.5738504
대구광역시,서구,원대동3가,1434번지 4호,원대신시장,그 밖의 대규모점포,35.8852410,128.5752638
전라남도,완도군,금일읍,화목리 739번지 1 호,금일읍 5일시장,그 밖의 대규모점포,34.3543844,127.0205305
서울특별시,영등포구,양평동1가,30호,양남시장,그 밖의 대규모점포,37.5228738,126.8911548
강원특별자치도,정선군,고한읍,고한리 62번지 430호 10통,고한시장상인회,시장,37.2001009,128.8552197
경기도,수원시,팔달구,매산로1가 57번지 3호,역전시장,시장,37.2668451,127.0027136
부산광역시,부산진구,범천동,844-1호,부산중앙시장,그 밖의 대규모점포,35.1442844,129.0610941
서울특별시,강북구,수유동,54번지 5호 수유시장,수유시장,그 밖의 대규모점포,37.6312397,127.0231295
전라남도,목포시,남교동,88호,중앙식료시장,그 밖의 대규모점포,34.7943165,126.3828750
강원특별자치도,정선군,정선읍,봉양1리 349번지 20호,정선시장상인회,시장,35.2128,128.5746
인천광역시,동구,송현동,100호,송현자유시장,시장,35.19715,129.098571
강원특별자치도,태백시,철암동,278-1호,사단법인철암시장,그 밖의 대규모점포,37.1299572,129.0458917
서울특별시,영등포구,신길동,116번지 15호,대신시장,그 밖의 대규모점포,37.5116824,126.9172471
제주특별자치도,제주시,일도이동,1148번지 2호,(주)동문시장,시장,35.875665,128.605012
강원특별자치도,정선군,사북읍,사북리 366번지 59호 8통 3반,사북시장상인회,시장,37.2273136,128.8167839
강원특별자치도,원주시,중앙동,62번지 55호 중앙시장 2층 다동 19호,중앙시장,시장,37.3500758,127.9499076
강원특별자치도,원주시,중앙동,57번지,자유시장,시장,37.3509072,127.9489227
강원특별자치도,원주시,명륜동,26번지 남부시장 2층,남부시장,시장,37.3430282,127.9544594
경상북도,포항시북구,대신동,54-2호,북부시장,그 밖의 대규모점포,36.0480766,129.3700561
경상북도,포항시북구,흥해읍,성내리 호,흥해시장,그 밖의 대규모점포,37.398992,126.925908
경상북도,포항시북구,흥해읍,성내리 호,흥해시장,그 밖의 대규모점포,37.56025,126.902358
경상북도,포항시북구,신광면,토성리 호,신광시장,그 밖의 대규모점포,37.732255,127.049116
경상북도,포항시북구,청하면,미남리 호,청하시장,그 밖의 대규모점포,35.8964,128.5674
제주특별자치도,제주시,구좌읍,세화리 1500번지 5호,세화민속오일시장,시장,33.5252877,126.8574992
제주특별자치도,서귀포시,중문동,2123번지 1호,중문오일시장,시장,33.2508066,126.4241676
충청북도,청주시,상당구,서문동 150-8번지,서문공설시장,그 밖의 대규모점포,36.6350770,127.4856781
제주특별자치도,서귀포시,성산읍,성산리 181번지 6호,성산오일시장,시장,33.4637408,126.9334675
서울특별시,중구,남창동,49번지,서울남대문시장,그 밖의 대규모점포,37.5594165,126.9779413
전라남도,완도군,군외면,원동리 222번지 8 호,군외5일시장,그 밖의 대규모점포,34.3879397,126.6475380
전라남도,순천시,승주읍,서평리 423-1호,승주시장,그 밖의 대규모점포,35.0132340,127.3885926
전라남도,순천시,주암면,광천리 54-1호,주암시장,그 밖의 대규모점포,35.0757677,127.2351977
전라남도,목포시,남교동,111번지 9호,중앙공설시장,그 밖의 대규모점포,34.7934017,126.3832325
전라남도,순천시,별량면,봉림리 207-4호,별량시장,그 밖의 대규모점포,34.8741416,127.4517467
전라남도,순천시,황전면,괴목리 45-1호,괴목시장,그 밖의 대규모점포,35.1025656,127.4274331
전라남도,완도군,고금면,농상리 385호,고금면5일시장,그 밖의 대규모점포,34.3954230,126.8000155
서울특별시,은평구,대조동,14번지 37 호,대조시장,그 밖의 대규모점포,37.6105540,126.9293057
대전광역시,동구,중동,76호,대전도매시장,그 밖의 대규모점포,36.3302022,127.4329199
대전광역시,동구,중동,76번지 28호,대전도매시장,시장,36.3302022,127.4329199
서울특별시,구로구,구로동,736번지 1 호,구로시장,그 밖의 대규모점포,37.4886400,126.8854727
대구광역시,중구,덕산동,38호,덕산시장,그 밖의 대규모점포,35.8665921,128.5924608
인천광역시,남구,학익동,273번지 3 호,학익시장,그 밖의 대규모점포,37.4423714,126.6663417
서울특별시,중구,을지로6가,17번지 48호,평화시장,그 밖의 대규모점포,37.5686422,127.0077487
서울특별시,성동구,성수동2가,335번지,뚝도시장,시장,37.5388548,127.0545096
서울특별시,성동구,금호동3가,332번지,금남시장,시장,37.5485708,127.0227349
경상남도,함안군,칠원면,구성리 732호,칠원시장,그 밖의 대규모점포,35.3056988,128.5198685
경상남도,함안군,가야읍,말산리 420-2호,아라시장,그 밖의 대규모점포,35.2761047,128.4061691
서울특별시,성북구,보문동4가,1번지 1 호,보문시장,그 밖의 대규모점포,37.5842895,127.0203659
경기도,안양시만안구,안양동,676번지 44호,안양중앙시장,그 밖의 대규모점포,37.3997576,126.9202415
대구광역시,북구,대현동,390호,동대구시장,그 밖의 대규모점포,35.8811356,128.6089338
서울특별시,동대문구,제기동,1019 경동시장,경동시장,시장,37.5791905,127.0393021
서울특별시,용산구,이태원동,56번지 9호,이태원시장,시장,37.5340462,126.9895859
서울특별시,은평구,수색동,205번지 21 호,수일시장,그 밖의 대규모점포,35.190042,129.090439
경상남도,함안군,군북면,중암리 83-10호,군북시장,그 밖의 대규모점포,35.2611033,128.3465717
경상북도,포항시남구,동해면,도구리 호,기북시장,그 밖의 대규모점포,34.316731,126.745525
경상북도,포항시남구,동해면,도구리 호,기북시장,그 밖의 대규모점포,37.577998,127.047757
경상북도,포항시남구,동해면,도구리 호,기북시장,그 밖의 대규모점포,35.2063,128.5812
경상북도,포항시남구,동해면,도구리 호,기북시장,그 밖의 대규모점포,37.49602,127.149972
경상북도,영천시,대창면,대창리 1076번지 11호,대창공설시장,그 밖의 대규모점포,35.8860099,128.8889252
경상북도,영천시,신녕면,화성리 866번지 1호,신녕공설시장,그 밖의 대규모점포,36.0420251,128.7874114
충청남도,서산시,동문동,900호,동부시장,그 밖의 대규모점포,36.7824395,126.4553796
경상북도,영천시,금호읍,교대리 167번지 35호,금호공설시장,그 밖의 대규모점포,35.9323443,128.8744049
서울특별시,종로구,예지동,6번지 1호,광장시장,복합쇼핑몰,37.5700678,126.9989495
경상북도,영천시,완산동,982번지 3호,영천공설시장,그 밖의 대규모점포,35.9637804,128.9389346
제주특별자치도,제주시,일도일동,1103호,동문공설시장,그 밖의 대규모점포,33.5121864,126.5281880
제주특별자치도,제주시,일도1동,1103번지,동문공설시장,시장,33.5121864,126.5281880
제주특별자치도,제주시,용담1동,135번지 9호,서문공설시장,시장,33.5117993,126.5182208
서울특별시,동대문구,청량리동,738번지,청량리현대코아,그 밖의 대규모점포,37.5814633,127.0444088
부산광역시,강서구,명지동,"1-377,1-381호",(주)명지시장,시장,35.1127699,128.9316603
부산광역시,강서구,대저2동,2014번지 29호,덕두시장,그 밖의 대규모점포,35.1797679,128.9559899
경상북도,포항시남구,구룡포읍,구룡포리 호,구룡포시장,그 밖의 대규모점포,37.592932,127.065725
부산광역시,강서구,대저1동,2343번지 20호,사덕시장,그 밖의 대규모점포,35.2132299,128.9828001
경상북도,포항시북구,흥해읍,성내리 호,오천시장,그 밖의 대규모점포,37.398992,126.925908
경상북도,포항시북구,흥해읍,성내리 호,오천시장,그 밖의 대규모점포,37.56025,126.902358
충청남도,서산시,해미면,읍내리 202호,해미시장(신시장),그 밖의 대규모점포,36.7109886,126.5454880
경상북도,포항시북구,송라면,광천리 호,송라시장,그 밖의 대규모점포,36.7878,127.001
경상북도,포항시북구,송라면,광천리 호,송라시장,그 밖의 대규모점포,37.550192,126.960025
경상북도,포항시북구,송라면,광천리 호,기계시장,그 밖의 대규모점포,36.7878,127.001
경상북도,포항시북구,송라면,광천리 호,기계시장,그 밖의 대규모점포,37.550192,126.960025
경상북도,포항시남구,동해면,도구리 호,죽장시장,그 밖의 대규모점포,34.316731,126.745525
경상북도,포항시남구,동해면,도구리 호,죽장시장,그 밖의 대규모점포,37.577998,127.047757
경상북도,포항시남구,동해면,도구리 호,죽장시장,그 밖의 대규모점포,35.2063,128.5812
경상북도,포항시남구,동해면,도구리 호,죽장시장,그 밖의 대규모점포,37.49602,127.149972
전북특별자치도,진안군,진안읍,군상리 406번지 7호,진안시장,시장,35.7931262,127.4288444
충청남도,천안시,동남구,병천면 병천리 360번지 1호,병천시장,그 밖의 대규모점포,36.7666105,127.3025128
경상북도,포항시남구,동해면,도구리 호,포항시장,그 밖의 대규모점포,34.316731,126.745525
경상북도,포항시남구,동해면,도구리 호,포항시장,그 밖의 대규모점포,37.577998,127.047757
경상북도,포항시남구,동해면,도구리 호,포항시장,그 밖의 대규모점포,35.2063,128.5812
경상북도,포항시남구,동해면,도구리 호,포항시장,그 밖의 대규모점포,37.49602,127.149972
경상북도,포항시남구,동해면,도구리 호,장기시장,그 밖의 대규모점포,34.316731,126.745525
경상북도,포항시남구,동해면,도구리 호,장기시장,그 밖의 대규모점포,37.577998,127.047757
경상북도,포항시남구,동해면,도구리 호,장기시장,그 밖의 대규모점포,35.2063,128.5812
경상북도,포항시남구,동해면,도구리 호,장기시장,그 밖의 대규모점포,37.49602,127.149972
충청남도,천안시,서북구,성환읍 성환리 449번지 1호,성환시장,그 밖의 대규모점포,36.9189417,127.1304577
