County,City,Town,Address,Theater_Name,Theater_Type,Latitude,Longitude
전라남도,강진군,강진읍,동성리 192-9 강진군 어울림센터 3층,강진영화관 1관,영화관,34.640764,126.7727088
인천광역시,미추홀구,학익동,0 시티오씨엘 3단지,메가박스중앙(주)인천학익지점 컴포트5관,영화관,37.441007,126.647164
경상북도,의성군,안계면,용기리 843-5 안계행복플랫폼,안계행복영화관,영화관,36.3848872,128.4379655
경상북도,의성군,의성읍,후죽리 508-1 의성군청소년문화의집,의성작은영화관 2관,영화관,36.3533755,128.6966161
서울특별시,마포구,서교동,354-5 라이즈호텔,모노플렉스 앳 라이즈,영화관,37.5544357,126.9212425
전라남도,화순군,화순읍,광덕리 88 군민회관 2층,화순시네마 제1관,영화관,35.0582787,126.9852543
충청북도,청주시,흥덕구,오송읍 봉산리 996 7층,롯데시네마 오송 1관,영화관,36.6187095,127.3166358
전라남도,곡성군,곡성읍,읍내리 776-6,곡성작은영화관 1관,영화관,35.2792996,127.28955
전라남도,담양군,담양읍,지침리 112-6,담양담빛영화관 2관,영화관,35.3162738,126.9855842
강원특별자치도,강릉시,성남동,254,롯데시네마강릉1상영관,영화관,37.7511458,128.8951654
부산광역시,해운대구,좌동,1467-4 지팝건축물,메가박스해운대(장산)6관,영화관,35.1705254,129.1770622
충청북도,단양군,단양읍,별곡리 산 12-4 올누림센터 2층 단양작은영화관,단양작은영화관 1관,영화관,36.9862696,128.3628138
전라남도,무안군,무안읍,성남리 812-13 무안군 복합문화센터,1관,영화관,34.9865951,126.4723698
광주광역시,광산구,쌍암동,654-2 힐스테이트 첨단,롯데시네마 광주첨단 영화관 1관,영화관,35.2212382,126.8421636
경기도,파주시,문발동,532-3,밀크북 극장,영화관,37.7074768,126.6876031
울산광역시,중구,성남동,3-6,CGV 울산성남 1관,영화관,35.5562324,129.3213085
전라북도,부안군,부안읍,봉덕리 574-13,마실영화관 1관,영화관,35.7270754,126.736695
대구광역시,북구,동천동,894-1 세븐밸리,메가박스 대구세븐밸리 5관,영화관,35.9441127,128.56035
경상남도,창녕군,남지읍,남지리 181-8,창녕군작은영화관 1관,영화관,35.3954439,128.481997
강원특별자치도,철원군,서면,와수리 1160-3 철원 복합커뮤니티센터,작은영화관 달빛 5관,영화관,38.2377972,127.439534
경기도,수원시,장안구,정자동 111-14,메가박스중앙(주)수원스타필드지점 Dolby Atmos관,영화관,37.2875553,126.9913313
경기도,남양주시,다산동,6192-1,씨네큐 남양주 다산점 3관,영화관,37.6100609,127.1673699
부산광역시,사하구,장림동,316-8,롯데시네마 부산장림 1관,영화관,35.0809758,128.9757485
경기도,수원시,팔달구,인계동 1125-1,메가박스중앙(주)수원인계지점 컴포트1관,영화관,37.2609544,127.0322284
경기도,화성시,영천동,844-1 M동 B201호,씨네큐 동탄 4관,영화관,37.2159295,127.1018182
경기도,김포시,풍무동,38-1,포포시네마 프레시관,영화관,37.6099623,126.7236686
제주특별자치도,서귀포시,동홍동,1372-1,메가박스제주 서귀포점 1관,영화관,33.2616361,126.5627615
충청북도,제천시,모산동,203-13,제천 의림지 자동차 극장,자동차극장,37.1763639,128.2117237
경기도,파주시,문발동,644 롯데프리미엄아울렛,롯데시네마 파주아울렛 2관,영화관,37.7180873,126.6925927
제주특별자치도,서귀포시,안덕면,서광리 지하1층,씨네라운지 2관,영화관,33.297567,126.29379
전라북도,장수군,장수읍,두산리 474 장수한누리전당,장수한누리영화관 2관,영화관,35.6415458,127.5183728
경기도,동두천시,생연동,364-1,CGV동두천 2관,영화관,37.897195,127.0583336
경기도,구리시,갈매동,552-4,CGV구리갈매 3관,영화관,37.6357051,127.1231394
경상남도,의령군,의령읍,서동리 712 의령도깨비영화관,의령도깨비영화관 1관,영화관,35.3183101,128.2525688
전라남도,진도군,진도읍,동외리 1140 아리랑시네마,진도아리랑 시네마 2관,영화관,34.4805051,126.2702267
대전광역시,대덕구,오정동,172-5,소소아트시네마,영화관,36.3513356,127.4213989
경기도,화성시,송동,"725-1 더샵 동탄센텀폴리스 1,2단지",CGV 동탄그랑파사쥬 4관,영화관,37.1678626,127.1061966
인천광역시,서구,가정동,0 루원지웰시티푸르지오 상가동 지하1호,CGV 인천가정 제3관,영화관,37.526592,126.669564
경기도,남양주시,화도읍,녹촌리 46-23,CGV 남양주 화도 1관,영화관,37.649431,127.2957717
부산광역시,영도구,동삼동,1009,CGV 드라이브 인 영도,자동차극장,35.0622929,129.0834388
대구광역시,달서구,죽전동,273-27,CGV 대구죽전 2관,영화관,35.8505923,128.5364012
강원특별자치도,인제군,기린면,서리 3-1,CGV기린,영화관,37.9653851,128.3190731
경기도,용인시,처인구,역북동 89-18,CGV DRIVE IN 용인크랙사이드,자동차극장,37.2483783,127.1919206
인천광역시,미추홀구,주안동,0 포레나 미추홀,CGV인천시민공원 1관,영화관,37.457447,126.681004
인천광역시,서구,청라동,162-2,씨네큐 청라 1관,영화관,37.5339026,126.6503015
충청남도,아산시,온천동,79-1,CGV아산 1관,영화관,36.7802304,127.0084602
서울특별시,강남구,삼성동,159 코엑스,코엑스 부티크 프라이빗 2호,영화관,37.5125278,127.0588432
충청남도,천안시,동남구,청당동 547,롯데시네마 천안청당 3관,영화관,36.7830686,127.1560968
경상북도,성주군,성주읍,경산리 597-2,성주별고을시네마 1관,영화관,35.916886,128.2853179
제주특별자치도,제주시,연동,1454 지하1층,롯데시네마 제주연동 2관,영화관,33.4806716,126.4946153
전라남도,영암군,영암읍,동무리 36-30,영암기찬시네마 1관,영화관,34.8001912,126.7015621
경기도,화성시,마도면,석교리 243-2,화성시 작은영화관 1관,영화관,37.2049945,126.7702967
경기도,시흥시,정왕동,1734-2 E MART시화점,시네마코리아 시흥정왕 2관,영화관,37.3459421,126.7368715
경기도,남양주시,다산동,6143,CGV 다산 4관 (인케이 다산시네마),영화관,37.6132992,127.1520129
전라북도,임실군,임실읍,이도리 277 지하1층 임실작은별영화관,임실한마당 작은별영화관(치즈관),영화관,35.6150724,127.2869725
경기도,고양시,일산서구,대화동 2307-16 K-TREE,케이트리호텔 X 모노플렉스,영화관,37.6684674,126.748107
서울특별시,동작구,신대방동,686-48 동작 협성휴포레 시그니처,롯데시네마 신대방 2관,영화관,37.486331,126.9052356
경기도,군포시,금정동,916 힐스테이트 금정역,메가박스(주)금정AK플라자지점(컴포트4관),영화관,37.3723276,126.9448583
경기도,광명시,소하동,1344 광명G타워,5관,영화관,37.4458253,126.8941423
강원특별자치도,춘천시,석사동,980,메가박스중앙(주) 춘천석사지점 6관,영화관,37.8632768,127.7481241
경기도,수원시,권선구,호매실동 1397-2,메가박스 수원 호매실점 1관,영화관,37.2587606,126.9643628
충청북도,음성군,음성읍,"읍내리 536-6 설성문화회관, 3층",설성시네마 2관,영화관,36.9348568,127.6905674
충청남도,금산군,금산읍,하옥리 334-24,금산시네마 1관,영화관,36.0992711,127.4907599
충청북도,제천시,강제동,304-21,CGV 제천 6관,영화관,37.1235063,128.2219364
인천광역시,부평구,갈산동,94,롯데시네마 부평갈산 5관,영화관,37.5153364,126.7273131
경기도,광명시,일직동,514,CGV광명역1관,영화관,37.4228425,126.8869104
서울특별시,도봉구,방학동,707-6,CGV 방학 6관,영화관,37.6653512,127.0436789
서울특별시,중구,정동,22 경향신문사,서울아트시네마,영화관,37.5681726,126.9700038
경기도,화성시,송동,726-1,안영채X모노플렉스,영화관,37.1668945,127.1051375
강원특별자치도,양구군,양구읍,상리 353-1 정중앙시네마,정중앙시네마 2관,영화관,38.1087801,127.9850005
서울특별시,마포구,동교동,166-14 동교동 스타피카소,독립영화전용관 인디스페이스,영화관,37.5572023,126.9247532
강원특별자치도,인제군,북면,원통리 459-4,원통영화관,영화관,38.1201405,128.2067122
울산광역시,동구,방어동,58-2,씨지브이 울산동구1관,영화관,35.4898849,129.4309504
강원특별자치도,고성군,간성읍,신안리 146-3 달홀문화센터,달홀영화관 2관,영화관,38.3791024,128.4740602
경상남도,양산시,덕계동,234-12,영화공장,영화관,35.3825555,129.1574364
경기도,가평군,조종면,현리 410-6,조종시네마 제1관,영화관,37.8178612,127.3481945
경기도,평택시,장당동,154 판매시설동 301호,CGV평택고덕 3관,영화관,37.0340841,127.0695118
전라북도,남원시,고죽동,66-3,NH시네마 3관,영화관,35.4257541,127.4114705
전라남도,순천시,해룡면,남가리 99 순천만플라자 모다아울렛,루프탑시네마 모다순천점,자동차극장,34.9258722,127.5443418
서울특별시,마포구,서교동,367-5 상상마당빌딩,KT&G 상상마당 cinema,영화관,37.5510027,126.9210324
부산광역시,부산진구,부전동,521-1 KT&G 상상마당부산,CGV서면상상마당 제3관,영화관,35.1542795,129.0573041
부산광역시,강서구,명지동,3586-4,명지플러스시네마 5관,영화관,35.0944378,128.9031205
경기도,시흥시,능곡동,235-1 시흥 플랑드르,롯데시네마 시흥장현 4관,영화관,37.3712003,126.8069678
세종특별자치시,장군면,대교리,514-10,초이자동차극장,자동차극장,36.5027006,127.2122538
전라북도,전주시,덕진구,송천동2가 1422 파인트리몰 5~6층,롯데시네마 전주송천관 7관,영화관,35.8670454,127.1209578
충청남도,천안시,서북구,불당동 1537-2,롯데시네마 천안불당 6관,영화관,36.8132876,127.1082702
전라북도,전주시,덕진구,송천동2가 1329-1 로마네시티 현대썬앤빌 전주,CGV 전주에코시티 1관,영화관,35.8730644,127.1246375
경기도,광명시,일직동,512-3,메가박스 컴포트 6관,영화관,37.4187526,126.8826531
서울특별시,서초구,서초동,1335 서초그랑자이,CGV Salon 서초,영화관,37.4890918,127.0261924
대구광역시,북구,연경동,1078-2,CGV대구연경 6관,영화관,35.9413527,128.6228515
경기도,용인시,기흥구,구갈동 679,기흥CGV 1관,영화관,37.2800352,127.119369
경상북도,영천시,완산동,1402 고은스퀘어,롯데시네마 영천관,,35.9630184,128.9407336
대전광역시,유성구,도룡동,3-1,돌비시네마관,영화관,36.3773621,127.3843144
경상북도,울진군,후포면,후포리 857-8,엠시네마 자동차극장,자동차극장,36.6938418,129.4432653
경기도,화성시,오산동,967-157,롯데시네마 동탄 6관,영화관,37.2003816,127.0973188
경상북도,경주시,황성동,800-22,롯데시네마 경주황성관 1관,영화관,35.8808088,129.2181376
충청남도,천안시,서북구,불당동 1485,CGV 천안시청 1관,영화관,36.8191203,127.1100756
경기도,하남시,덕풍동,831-1 현대지식산업센터 한강미사2차(25BL),롯데시네마 하남미사 6관,영화관,37.5588932,127.2041218
전라남도,해남군,해남읍,해리 355-1 작은영화관 청소년복합문화센터,해남시네마 1관,영화관,34.5692047,126.6059207
서울특별시,마포구,동교동,167-2 LC TOWER,CGV연남 3관(Suite Cinema),영화관,37.5576804,126.9258925
인천광역시,미추홀구,도화동,1011 더샵 인천스카이타워 1단지,CGV 인천도화점 2관,영화관,37.4700598,126.6651582
부산광역시,강서구,명지동,3432-3,롯데시네마 부산 명지점 5관,영화관,35.0928421,128.9116633
경기도,성남시,수정구,시흥동 296-3,롯데시네마 판교 2관,영화관,37.4137028,127.0982698
부산광역시,기장군,기장읍,시랑리 산 46,오시리아 자동차야외극장,자동차극장,35.1946151,129.2147839
강원특별자치도,삼척시,도계읍,전두리 58-8 NH농협은행 도계지점,도계작은영화관(가람영화관 3관),영화관,37.2297071,129.0431391
경상남도,함안군,가야읍,말산리 58-132 함안군작은영화관,함안군 작은영화관 1관,영화관,35.2775343,128.4107917
강원특별자치도,속초시,금호동,473-235,롯데시네마 속초1관,영화관,38.2032252,128.5888876
경기도,남양주시,별내동,1005,롯데시네마 별내 5관,영화관,37.6448492,127.1273961
충청북도,보은군,보은읍,이평리 116-1 결초보은 문화누리관,보은영화관 with 씨네큐 2관,영화관,36.4873684,127.7230735
경상북도,울진군,울진읍,읍내리 77-2 울진군청별관,울진작은영화관,영화관,36.9922362,129.4001324
충청북도,충주시,교현동,539-1,CGV 충주교현 1관,영화관,36.9810177,127.9278413
경상북도,경산시,중방동,897,CGV경산 1관,영화관,35.8330903,128.736729
경상북도,칠곡군,석적읍,포남리 608 칠곡호이영화관및청소년문화의집,칠곡호이영화관(씨네Q) 2관,영화관,36.0513775,128.4093277
충청남도,아산시,방축동,379,큐브시네마,자동차극장,36.7767035,126.9784631
전라남도,영광군,영광읍,남천리 87,영광 작은영화관,영화관,35.272394,126.5075757
강원특별자치도,삼척시,성남동,173-3 가람영화관,가람영화관 2관,영화관,37.4399616,129.1583456
전라남도,함평군,함평읍,내교리 828-56 황금박쥐관·나비관 영상관,함평자동차극장,자동차극장,35.0588456,126.5226385
경기도,김포시,풍무동,202-1,CGV김포 6관,영화관,37.6070147,126.7235567
전라북도,순창군,순창읍,남계리 471 작은 영화관,천재의 공간 영화산책 1관,영화관,35.3740775,127.1447999
충청남도,당진시,수청동,1041,롯데시네마 당진 1관,영화관,36.8872895,126.6466592
서울특별시,서대문구,연희동,194-25,라이카시네마 S관,영화관,37.5651782,126.9309402
경상남도,하동군,하동읍,읍내리 237-13,하동 영화관 1관,영화관,35.0692238,127.7492939
인천광역시,연수구,송도동,8-21 송도타임스페이스,CGV송도타임스페이스 3관,영화관,37.3840928,126.6419245
경기도,하남시,망월동,1100 힐스테이트 미사역 그랑파사쥬(12-1BL),CGV하남미사 7관,영화관,37.5637984,127.1917751
경기도,양주시,장흥면,일영리 44-18,장흥 자동차극장 2관,자동차극장,37.7245507,126.9504799
강원특별자치도,횡성군,횡성읍,읍하리 281-1 횡성시네마,횡성시네마 2관,영화관,37.4914145,127.9784785
경기도,남양주시,다산동,6141 현대프리미엄아울렛 SPACE1 3~5층,메가박스중앙(주)남양주현대아울렛스페이스원지점 4관,영화관,37.616102,127.1527218
전라북도,전주시,덕진구,장동 1111 전북혁신도시 더 M city 센텀,메가박스 전주혁신점 5관,영화관,35.8390163,127.060152
경상북도,영양군,영양읍,서부리 2-15 영양문화원,영양 작은영화관,영화관,36.6634989,129.1175735
전라북도,진안군,진안읍,군하리 143 마이골작은영화관,마이골작은영화관 1관,영화관,35.7892312,127.423103
경상남도,창원시,성산구,상남동 77-4,CGV 창원상남(3관),영화관,35.2227339,128.681386
서울특별시,중랑구,묵동,234-1,롯데시네마 중랑관 1관,영화관,37.6151502,127.0760161
경기도,안성시,공도읍,진사리 354 스타필드 안성,메가박스중앙(주)안성스타필드지점 7관,영화관,36.9943814,127.1475326
충청남도,천안시,서북구,불당동 1616 지앤지홀딩스타워 5~8층,씨네큐 천안 불당 3관,영화관,36.8125235,127.1074645
충청남도,논산시,내동,452,CGV논산 제5관,영화관,36.1830931,127.0975123
경상남도,진주시,충무공동,225-1,CGV 진주혁신 6관,영화관,35.1806302,128.143954
경상남도,산청군,신안면,하정리 930-1,산청군 작은영화관 2관,영화관,35.3013284,127.9711702
충청남도,논산시,내동,382-32,메가박스 논산 제1관,영화관,36.1899105,127.0990354
경상남도,고성군,고성읍,서외리 77-1 고성군 작은영화관,CGV고성 2관,영화관,34.9769466,128.3158337
강원특별자치도,정선군,정선읍,봉양리 144-9 아리아리정선시네마,아리아리 정선시네마 1관,영화관,37.3786212,128.6641417
강원특별자치도,정선군,고한읍,고한리 63-54 고한작은영화관,고한시네마 1관,영화관,37.1994979,128.8571673
경기도,파주시,야당동,1066,CGV 파주야당 4관,영화관,37.7131712,126.7599312
인천광역시,미추홀구,학익동,401-21,CGV 인천학익점 3관,영화관,37.4456252,126.6518047
경기도,파주시,금촌동,329-158번지,메가박스 파주금촌(7관),영화관,37.7649401,126.7747411
대전광역시,유성구,용산동,579 현대프리미엄아울렛 대전점,메가박스중앙(주)대전현대아울렛지점 1관,영화관,36.4239095,127.3986899
세종특별자치시,어진동,510,엠브릿지,메가박스중앙(주) 세종청사지점 제4관,영화관,36.5027371,127.2579948
세종특별자치시,나성동,821,세종가로수길 5층,메가박스중앙(주) 세종나성지점 5관,영화관,36.4834934,127.2637536
경기도,수원시,장안구,천천동 516,롯데시네마 북수원 1관,영화관,37.300664,126.9841012
경기도,포천시,소흘읍,송우리 110-3,CGV포천(2관),영화관,37.8296675,127.1499058
서울특별시,강남구,도곡동,174-3,롯데컬처웍스(주) 도곡7관,영화관,37.4874592,127.0471432
경상남도,창원시,마산회원구,내서읍 중리 1043-1,메가박스(주)창원내서지점 2관,영화관,35.2490389,128.5106842
경기도,용인시,기흥구,고매동 889,메가박스중앙(주)용인기흥지점(컴포트 1관),영화관,37.2237296,127.1148582
제주특별자치도,제주시,한림읍,"한림리 887-2 1층, 한림 작은영화관",한림 작은영화관 제1관,영화관,33.4094261,126.2685896
충청남도,천안시,동남구,성남면 화성리 188-6,천안자동차극장 1관,자동차극장,36.7565772,127.2622946
경기도,고양시,덕양구,"행신동 762-2 로터스플레이스 5,6층",씨지브이(주) 고양행신 제6관,영화관,37.6136194,126.8345112
경기도,양주시,옥정동,963-12,CGV 양주옥정 2관,영화관,37.8194198,127.0921605
전라남도,완도군,완도읍,가용리 9-191번지 완도맞춤형복합문화센터,완도 빙그레 시네마 1관,영화관,34.3238995,126.7415353
경기도,수원시,영통구,하동 1017-2 갤러리아 광교,CGV광교 4관,영화관,37.2852032,127.0573994
대전광역시,중구,문화동,1-13 기독교연합봉사회관,대전독립영화전용관 씨네인디 U,영화관,36.3210806,127.4098094
제주특별자치도,제주시,이도이동,"1776-3 메카플러스, 3층",씨지브이 제주 8관,영화관,33.5000872,126.5273202
경기도,부천시,소사구,옥길동 745-5,CGV부천옥길2관,영화관,37.4676275,126.8232194
경상남도,김해시,율하동,1347-2번지,CGV김해율하제 3관,영화관,35.1699938,128.8135022
경기도,용인시,기흥구,청덕동 556 용인테크노밸리,메가박스(테크노밸리) 6관,영화관,37.2914026,127.1480633
울산광역시,울주군,상북면,등억알프스리 517 산악문화센터,알프스시네마2관,영화관,35.5562804,129.0679368
경상북도,상주시,서문동,140-2번지,롯데시네마 상주 3관,영화관,36.4160838,128.1543978
경기도,화성시,송동,694,CGV 동탄호수공원 제6관,영화관,37.1713241,127.1049809
경상남도,양산시,삼호동,1010-3번지,CGV 양산삼호점 3관,영화관,35.4139113,129.1678289
경기도,포천시,영북면,운천리 514-6,포천)클라우드시네마 2관,영화관,38.0907872,127.2719967
울산광역시,북구,신천동,51 신천CGV LEEPLEX,CGV울산신천 1관,영화관,35.6349816,129.3557742
대전광역시,서구,관저동,1735,롯데컬처웍스(주)롯데시네마 대전 관저 2관,영화관,36.3025884,127.3337163
경기도,오산시,원동,335-10,CGV(오산중앙)7관,영화관,37.1419832,127.0709907
서울특별시,성동구,성수동1가,656-335 메가박스 스퀘어,메가박스중앙(주) 성수지점 1관,영화관,37.5418829,127.044969
서울특별시,마포구,동교동,160-4 아일렉스,메가박스중앙(주) 홍대지점 1관,영화관,37.5560723,126.9220973
충청북도,충주시,달천동,786-3,롯데시네마 충주점 5관,영화관,36.9617535,127.8982096
경기도,부천시,소사구,옥길동 768 스타필드시티 부천,메가박스 중앙(주) 부천 스타필드시티지점 5관,영화관,37.4615357,126.8139516
서울특별시,성북구,동선동1가,1-2 유타,CGV 성신여대입구 1관,영화관,37.59262,127.0171859
서울특별시,성북구,동선동1가,1-2 유타몰 12층,CGV 성신여대입구 5관,영화관,37.59262,127.0171859
경상북도,예천군,호명면,산합리 1430 경북빌딩,메가박스 경북도청점 3관,영화관,36.5754691,128.4929107
대전광역시,서구,도안동,1774 KD U PLAZA,CGV 가수원점 3관,영화관,36.30548,127.3507523
경기도,용인시,수지구,성복동 23 롯데몰성복점,롯데시네마 수지 1관,영화관,37.3127488,127.0833446
경기도,화성시,봉담읍,동화리 564,CGV화성봉담 1관,영화관,37.2190664,126.9555162
인천광역시,중구,중산동,1883-12 세영프라자,시네마코리아 영종하늘 1관,영화관,37.4897298,126.5613928
경기도,수원시,권선구,금곡동 1114-1 리더스 빌딩 10층호,롯데시네마 서수원 1관,영화관,37.2750138,126.9540954
경기도,수원시,권선구,금곡동 1114-1 리더스 빌딩 9층호,롯데시네마 서수원 6관,영화관,37.2750138,126.9540954
부산광역시,부산진구,부전동,227-2 삼정타워 11층,CGV서면삼정타워제8관,영화관,35.1530108,129.0596068
대구광역시,달성군,현풍읍,중리 490,롯데시네마 무비로드 1관,영화관,35.6932037,128.456334
경기도,이천시,중리동,201-1번지,Premium 10,영화관,37.2797283,127.4440849
강원특별자치도,양양군,양양읍,남문리 210-36,양양작은영화관 2관,영화관,38.0744018,128.6245221
광주광역시,동구,불로동,1-21,CGV광주금남로 5관,영화관,35.1469089,126.9146692
대전광역시,중구,대흥동,205-1,메가박스중앙(주) 대전중앙로지점 5관,영화관,36.3276504,127.4241233
충청북도,음성군,맹동면,동성리 500,CGV 충북혁신 1관,영화관,36.90804,127.5405988
충청북도,음성군,맹동면,동성리 500번지,CGV 충북혁신 2관,영화관,36.90804,127.5405988
경상남도,창원시,마산합포구,월남동5가 4-1 경남은행,롯데시네마 프리미엄 경남대 3관,영화관,35.1807994,128.5597752
경상남도,양산시,물금읍,가촌리 1292 라피에스타,메가박스중앙(주) 양산증산지점 2관,영화관,35.3098713,129.0093999
전라남도,보성군,보성읍,원봉리 2-27,보성작은영화관 2관,영화관,34.7651327,127.0783471
경기도,가평군,가평읍,대곡리 148-3,1939시네마1관,영화관,37.8238028,127.5129559
전라북도,익산시,모현동1가,876,롯데시네마 익산모현관 제1관,영화관,35.9498924,126.9397116
서울특별시,강서구,등촌동,639-23 3~9층,CGV 등촌 2관,영화관,37.5578822,126.8560652
경기도,용인시,기흥구,청덕동 556번지 용인테크노밸리,메가박스 용인테크노밸리 1관,영화관,37.2914026,127.1480633
경기도,용인시,처인구,역북동 510,롯데시네마 용인역북 5관,영화관,37.2354738,127.1883041
경기도,성남시,수정구,신흥동 4124 신흥역 시네마타워,롯데컬처웍스(주) 롯데시네마 성남중앙 8관,영화관,37.4413144,127.1464464
경상남도,사천시,사천읍,수석리 339-3,롯데시네마사천 (제6관),영화관,35.0813139,128.0822735
경기도,하남시,학암동,660 스타필드시티 위례점,CGV스타필드시티위례3관,영화관,37.4800573,127.1484006
울산광역시,북구,진장동,120-9 CGV,CGV 울산진장 제6관,영화관,35.5758471,129.3559333
제주특별자치도,제주시,이호이동,257번지,제주 자동차 극장,자동차극장,33.4956233,126.4671517
충청북도,괴산군,칠성면,율원리 산 4-7 지원센터,자연드림 괴산극장 2관,영화관,36.7705828,127.8623711
제주특별자치도,제주시,삼양이동,1477-8,메가박스 제주삼화 2관,영화관,33.520527,126.5882031
인천광역시,중구,운서동,3088-3번지 영종예스타워복합상영관,메가박스 영종 1관,영화관,37.4922979,126.498775
강원특별자치도,인제군,인제읍,남북리 388 하늘내린센터,내린관,영화관,38.0607443,128.1652997
경기도,김포시,구래동,6882-4 두원타워,메가박스 중앙(주)김포한강신도시점 2관,영화관,37.6449184,126.6244595
광주광역시,서구,광천동,49-1 유스퀘어(광천터미널),CGV 광주터미널 11관,영화관,35.1603093,126.8801306
광주광역시,광산구,하남동,832 TERRACE56 PICNICMALL,CGV 광주하남 1관,영화관,35.1783186,126.8065154
경기도,용인시,기흥구,구갈동 234 힐스테이트 기흥,롯데시네마 용인기흥 6관,영화관,37.2739169,127.1183672
경기도,용인시,수지구,상현동 1116-4번지,CGV 광교상현 1관,영화관,37.2969288,127.0680994
대구광역시,동구,봉무동,1548,메가박스중앙(주) 대구이시아지점 1관,영화관,35.9207668,128.6357119
대전광역시,서구,둔산동,1279 6층,롯데시네마 대전센트럴관 1관,영화관,36.3518533,127.379419
울산광역시,울주군,범서읍,중리 225-1 범서온천지지워터피아,범서온천 자동차극장,자동차극장,35.625533,129.2216817
충청북도,옥천군,옥천읍,문정리 408-15,향수시네마 1관,영화관,36.3038891,127.5753115
서울특별시,종로구,신문로2가,1-181 복합문화공간 에무 3층,에무 시네마 2관,영화관,37.5720887,126.9690127
충청북도,충주시,연수동,1325,메가박스 충주연수 1관,영화관,36.9874916,127.9411519
대전광역시,서구,오동,181-1번지,별빛영화마을 대전자동차극장,자동차극장,36.2318441,127.3174305
경기도,안성시,석정동,139-1,CGV 안성 3관,영화관,37.0121692,127.2571905
경기도,하남시,망월동,1079-2 성산타워,메가박스 미사강변점 제3관,영화관,37.566409,127.1896451
서울특별시,서대문구,창천동,20-25 아트레온,CGV신촌아트레온 10관[CGV아트하우스],영화관,37.5565693,126.940232
서울특별시,노원구,상계동,727-1번지 조광빌딩 지하2층,더숲 아트시네마 제2관,영화관,37.6541617,127.0614627
인천광역시,부평구,부평동,159-15번지 부평일번가,CINE Q 부평 3관,영화관,37.4919962,126.7245167
인천광역시,서구,청라동,155-7 청라스퀘어세븐 350호,CGV 청라 6관,영화관,37.532296,126.6416614
전라북도,군산시,조촌동,450-21 롯데몰 군산점,롯데시네마 군산몰 4관,영화관,35.976449,126.7385869
전라북도,전주시,완산구,효자동3가 1531-2 M-SQUARE,CGV서전주 2관,영화관,35.8168191,127.1064548
광주광역시,광산구,우산동,1597-1,롯데시네마 광산 1관,영화관,35.1599993,126.8096399
경기도,포천시,소흘읍,무림리 41,포천자동차극장,자동차극장,37.776163,127.1391939
경기도,화성시,오산동,967-150,CGV동탄역 제5관,영화관,37.2019432,127.0973493
경상북도,영주시,영주동,497,롯데시네마 영주,영화관,36.8272303,128.6177208
서울특별시,광진구,자양동,9-4 몰오브케이,CGV 건대입구 제1관,영화관,37.5397932,127.0669454
충청남도,청양군,청양읍,읍내리 191-5 청양군문화체육센타,청양시네마 1관,영화관,36.4515139,126.8011576
경기도,시흥시,정왕동,1771-1 서영베니스스퀘어,CGV 배곧2관,영화관,37.366858,126.717824
충청남도,보령시,대천동,422-4번지,명보시네마 1관,영화관,36.3520815,126.5907521
부산광역시,기장군,정관읍,매학리 717-6,CGV 정관 9관,영화관,35.3214152,129.1783912
부산광역시,기장군,정관읍,매학리 717-6번지,CGV 정관 8관,영화관,35.3214152,129.1783912
서울특별시,중구,을지로6가,17-2 현대시티타워,CGV 동대문 제5관,영화관,37.5686422,127.0077487
경기도,파주시,금촌동,329-158,메가박스 파주금촌(6관),영화관,37.7649401,126.7747411
전라남도,여수시,웅천동,1720-1,메가박스 여수웅천점 3관,영화관,34.7491047,127.6789523
전라남도,여수시,웅천동,1720-1번지,메가박스 여수웅천점 8관,영화관,34.7491047,127.6789523
충청북도,청주시,청원구,오창읍 양청리 820-1번지,메가박스 오창 제3관,영화관,36.7122601,127.4285674
충청북도,청주시,청원구,오창읍 양청리 820-1,메가박스 오창 제1관,영화관,36.7122601,127.4285674
경상북도,구미시,봉곡동,36,씨네Q 구미봉곡점 3관,영화관,36.1382803,128.3152046
부산광역시,기장군,정관읍,매학리 777-1번지,메가박스 정관 1관,영화관,35.3194338,129.1783542
인천광역시,서구,청라동,165-12 지젤엠청라 4층,메가박스 청라점 4관,영화관,37.5336949,126.6557155
전라남도,나주시,빛가람동,203-3번지 티씨씨타워 4층,CGV 나주점 1관,영화관,35.0239047,126.7930166
충청남도,홍성군,홍성읍,고암리 1042,CGV 홍성 (제6관),영화관,36.6010812,126.6762899
충청남도,홍성군,홍성읍,고암리 1042 리산인플렉스 6층,CGV 홍성(제5관),영화관,36.6010812,126.6762899
충청남도,홍성군,홍북읍,신경리 555번지,(주)홍성메가 2관,영화관,36.6593795,126.6789816
서울특별시,강서구,마곡동,797-1 퀸즈파크나인,메가박스중앙(주) 마곡지점 5관,영화관,37.5593148,126.8352273
경기도,광주시,역동,16-1,CGV경기광주점 1관,영화관,37.407587,127.2584596
충청남도,태안군,태안읍,동문리 8-2,태안 작은영화관 2관,영화관,36.7550589,126.3110283
경기도,성남시,수정구,창곡동 23-4 위례한화오벨리스크센트럴스퀘어 지하1층,롯데컬처웍스(주) 롯데시네마위례 6관,영화관,37.472478,127.140793
경상북도,경주시,신평동,"150-10 외 9필지, 2~4층",씨네큐 경주보문점 6관,영화관,35.8394215,129.2912173
경기도,고양시,덕양구,동산동 370,메가박스중앙(주) 고양스타필드지점 4관,영화관,37.6471016,126.8947736
서울특별시,노원구,상계동,727-1번지 지하1층,더숲 아트시네마 제1관,영화관,37.6541617,127.0614627
경상북도,포항시,남구,오천읍 원리 1134,주식회사 유명남포항 1관,영화관,35.9745058,129.4034278
경상남도,사천시,실안동,1062번지,메가박스삼천포점 3관,영화관,34.9492768,128.0377966
서울특별시,용산구,한강로3가,40-961,씨지브이 용산아이파크몰 제13관,영화관,37.5316113,126.9653154
강원특별자치도,강릉시,구정면,어단리 478-132,(주)강릉자동차극장,자동차극장,37.6938438,128.896228
강원특별자치도,원주시,무실동,1857-10 9층,롯데시네마 원주무실점 8관,영화관,37.3348592,127.930149
경기도,시흥시,정왕동,2514-1번지 M-플러스 7-8F,메가박스 시흥배곧 6관,영화관,37.3696578,126.7305327
경기도,시흥시,정왕동,2514-1번지 M플러스 7-8F,메가박스 시흥배곧 5관,영화관,37.3696578,126.7305327
경기도,시흥시,정왕동,2514-1번지 7-8F,메가박스 시흥배곧 1관,영화관,37.3696578,126.7305327
강원특별자치도,원주시,반곡동,1903-2,메가박스 원주혁신점 8관,영화관,37.3279777,127.9862081
인천광역시,연수구,송도동,176-5 송도트리플스트리트,메가박스중앙(주) 송도지점 제7관,영화관,37.3786553,126.6628423
서울특별시,강북구,번동,449-1,(주)써니트수유 롯데시네마 수유,영화관,37.6356926,127.0238275
경기도,남양주시,별내동,936-4,메가박스 별내점 제6관,영화관,37.6558,127.1266427
전라남도,고흥군,고흥읍,호형리 952-9,고흥 작은영화관(제2관),영화관,34.6148509,127.296749
전라남도,광양시,금호동,624-12,CGV 광양 4상영관,영화관,34.9353683,127.7220897
강원특별자치도,정선군,정선읍,봉양리 144-9,아리아리 정선시네마 2관,영화관,37.3786212,128.6641417
충청남도,예산군,예산읍,대회리 233-4,예산시네마,영화관,36.6761449,126.8478771
강원특별자치도,춘천시,온의동,587-8 ~9 (2필지),메가박스 남춘천3관,영화관,37.8665246,127.7200407
강원특별자치도,춘천시,온의동,587-8 587-9(2필지),메가박스 남춘천 2관,영화관,37.8665246,127.7200407
강원특별자치도,춘천시,온의동,587-8 587-9 (2필지),메가박스 남춘천 1관,영화관,37.8665246,127.7200407
강원특별자치도,춘천시,온의동,587-8 ~9(2필지),메가박스 남춘천 4관,영화관,37.8665246,127.7200407
부산광역시,사하구,하단동,526-6번지,CGV하단아트몰링 4관,영화관,35.1066959,128.9663798
부산광역시,사하구,하단동,526-6,CGV하단아트몰링 2관,영화관,35.1066959,128.9663798
경기도,평택시,비전동,1090-2,CGV 평택소사 6관,영화관,37.0004724,127.1115024
광주광역시,북구,생용동,90,광주자동차극장-씨네드림,자동차극장,35.2238536,126.9006077
경상북도,포항시,북구,덕산동 113-12번지,인디플러스 포항,영화관,36.0409491,129.3673294
광주광역시,동구,충장로4가,29-2,CGV 광주충장로 5관,영화관,35.1487762,126.9130789
광주광역시,동구,충장로4가,29-2번지,CGV 광주충장로,영화관,35.1487762,126.9130789
경상남도,김해시,대청동,302-5,씨지브이 김해장유 제1관~제6관,영화관,35.1919384,128.8020045
서울특별시,도봉구,창동,715-14번지,메가박스 창동 3관,영화관,37.6546068,127.0387849
서울특별시,도봉구,창동,715-14,메가박스 창동 1관,영화관,37.6546068,127.0387849
전라남도,광양시,광양읍,덕례리 702,CGV 광양엘에프스퀘어 1관,영화관,34.9618704,127.5653953
충청남도,부여군,부여읍,동남리 617,스타박스 2관,영화관,36.276456,126.9137347
경기도,파주시,야당동,483-3번지 에스비프라자 4층,메가박스 파주운정점 제7관,영화관,37.7057946,126.7587386
서울특별시,송파구,문정동,618 파크하비오,메가박스 송파파크하비오점(6관),영화관,37.4806169,127.1236753
경기도,파주시,목동동,"927 3,4층",롯데시네마 파주운정관 제1관,영화관,37.7295278,126.7367686
인천광역시,서구,연희동,378 인천아시아드주경기장,롯데시네마 인천아시아드 1관,영화관,37.546549,126.6639613
경상남도,양산시,물금읍,가촌리 1269-13,롯데시네마 양산물금관(1관),영화관,35.3180165,129.0018986
대구광역시,동구,신천동,1506,메가박스중앙 (주)대구 신세계지점 2관,영화관,35.8778615,128.6289904
서울특별시,은평구,진관동,63,롯데시네마 은평 8관,영화관,37.6374843,126.9180367
충청북도,청주시,상당구,용암동 1703,롯데시네마 청주용암 제2관,영화관,36.6070313,127.5030746
대구광역시,달서구,월성동,1846,CGV 대구월성 4관,영화관,35.8246183,128.5269727
충청남도,천안시,동남구,문화동 99-1,천안인생극장,영화관,36.8071093,127.1521053
강원특별자치도,철원군,갈말읍,신철원리 646 철원문화원,철원 작은영화관 삼부연,영화관,38.1452737,127.3128504
경상북도,경산시,하양읍,금락리 607번지 4층,메가박스 경산하양 5관,영화관,35.9136647,128.823289
경상북도,경산시,하양읍,금락리 607번지 2층,메가박스 경산하양 1관,영화관,35.9136647,128.823289
경상북도,김천시,율곡동,1123번지,CGV 김천율곡 5관,영화관,36.1148779,128.183447
전라북도,임실군,성수면,도인리 689,4D 영상관,영화관,35.6327981,127.3012723
충청북도,영동군,영동읍,계산리 679-4,영동레인보우영화관 1관,영화관,36.173029,127.7774676
경기도,화성시,향남읍,하길리 1470-2,롯데시네마 향남(제1관),영화관,37.1152036,126.9123695
강원특별자치도,원주시,반곡동,1903-3,메가박스 원주혁신점 1관,영화관,37.3277639,127.9865968
경상남도,진주시,충무공동,35,롯데시네마 진주혁신 제4관,영화관,35.1801162,128.1399333
경기도,하남시,신장동,616,메가박스중앙(주) 하남스타필드지점 4관,영화관,37.5454832,127.2237108
경기도,고양시,일산동구,백석동 1237 일산 요진 와이시티,메가박스중앙(주)백석벨라시타지점 101호,영화관,37.6424632,126.7927528
경기도,의정부시,민락동,"804-6 해동타워 8,9층",롯데시네마 의정부민락 7관,영화관,37.744239,127.0965143
부산광역시,중구,남포동5가,18-1,메가박스 부산극장4관,영화관,35.0986327,129.0287519
강원특별자치도,화천군,상서면,"산양리 737 DMZ시네마, 다목적체육관",화천읍관(산천어시네마),영화관,38.2099215,127.6625494
경상남도,합천군,합천읍,합천리 512 합천시네마,합천시네마 1관,영화관,35.5676023,128.1576563
전라남도,여수시,소호동,928번지,여수자동차극장,자동차극장,34.7304607,127.6428403
경기도,파주시,탄현면,법흥리 1652-26번지,헤이리 시네마,영화관,37.7916052,126.6977281
충청남도,천안시,동남구,문화동 101-2,인디플러스 천안,영화관,36.8082823,127.1520655
대전광역시,서구,탄방동,744 세이탄방점,CGV 대전탄방 2관,영화관,36.3471796,127.3888548
경기도,의정부시,민락동,메가타워 메가박스 5~8층,메가박스 의정부 민락점 3관,영화관,37.745748,127.095728
경기도,군포시,산본동,1145-6 10층,롯데시네마 산본피트인(제1관),영화관,37.3578093,126.930686
경기도,남양주시,별내동,936-4 6층,메가박스 별내점 제4관,영화관,37.6558,127.1266427
부산광역시,해운대구,우동,1467,소극장(CINEMA 2),영화관,35.171212,129.127145
서울특별시,종로구,신문로2가,1-181,에무 시네마 1관,영화관,37.5720887,126.9690127
경상남도,남해군,남해읍,차산리 760 문화체육센터 1층,보물섬시네마,영화관,34.8450838,127.8995559
서울특별시,중랑구,상봉동,501,CGV상봉7관,영화관,37.5974441,127.0922516
전라남도,고흥군,고흥읍,호형리 산 13-7,고흥 작은영화관,영화관,34.6149122,127.296898
전라북도,전주시,완산구,고사동 355-1,CGV 전주고사 3관,영화관,35.8203124,127.1421165
인천광역시,남동구,논현동,747-1번지,메가박스 인천논현7관,영화관,37.3974275,126.7273757
인천광역시,남동구,논현동,747-1번지 6층,메가박스 인천논현8관,영화관,37.3974275,126.7273757
충청북도,진천군,진천읍,읍내리 652번지,메가박스 진천점 1관,영화관,36.8599302,127.4395002
서울특별시,영등포구,영등포동4가,442,CGV 영등포 12관(IMAX),영화관,37.5170973,126.9033464
충청남도,서산시,동문동,193-1번지,롯데시네마 서산관 (7관),영화관,36.7788675,126.4656869
대구광역시,달서구,상인동,241,롯데시네마 상인 제2관,영화관,35.8164691,128.5391401
강원특별자치도,평창군,용평면,장평리 374-2 해피웨딩홀,HAPPY700 평창시네마 1관,영화관,37.588901,128.4163223
강원특별자치도,평창군,용평면,장평리 374-2,HAPPY700 평창시네마 2관,영화관,37.588901,128.4163223
경상북도,고령군,대가야읍,지산리 471-1,대가야시네마 2관,영화관,35.7189224,128.2609146
세종특별자치시,종촌동,673,,CGV 세종3관,영화관,36.5025935,127.2475571
경상남도,창원시,마산합포구,동성동 268 지하1층,씨네아트 리좀,영화관,35.2060801,128.5757657
충청남도,서천군,장항읍,신창리 137-1,서천군 기벌포영화관,영화관,36.0131361,126.6941814
서울특별시,강남구,삼성동,159,코엑스 소상영관 B,영화관,37.5125278,127.0588432
부산광역시,해운대구,우동,539-10 라뮤에뜨 2층,CGV 해운대 6관,영화관,35.162989,129.1584974
서울특별시,강서구,등촌동,"73-1 4,5,6층",롯데시네마 가양 1관,영화관,37.5616187,126.8532543
전라남도,장흥군,장흥읍,건산리 318-2,정남진시네마 2관,영화관,34.6756812,126.9080372
경상북도,문경시,모전동,859-2,메가박스중앙(주) 문경 제1관,영화관,36.5873171,128.1902844
울산광역시,울주군,상북면,등억알프스리 515-2,알프스시네마 1관,영화관,35.5563185,129.0676552
인천광역시,서구,당하동,1098-5 홀리랜드,메가박스 검단점 COMFORT 2관,영화관,37.5879548,126.67538
인천광역시,서구,당하동,1098-5번지 홀리랜드,메가박스 검단점 COMFORT 1관,영화관,37.5879548,126.67538
경상남도,사천시,사천읍,수석리 331-7,롯데시네마사천(제3관),영화관,35.0809389,128.081875
경상남도,사천시,사천읍,수석리 331,롯데시네마사천 (제2관),영화관,35.0809232,128.0823941
경기도,수원시,영통구,이의동 1338,롯데시네마 광교 제1관,영화관,37.2862347,127.0558753
경기도,성남시,분당구,백현동 541,CGV판교 TEMPUR CINEMA,영화관,37.3927738,127.1120506
강원특별자치도,영월군,영월읍,영흥리 990-2,영월시네마 1관,영화관,37.1844987,128.4704676
충청남도,서산시,동문동,1029-1,CGV서산 7관,영화관,36.7785892,126.4564747
경상남도,거창군,거창읍,중앙리 90-2,롯데시네마 거창 1관,영화관,35.6874142,127.9131768
서울특별시,강동구,천호동,42,CGV 천호 5관,영화관,37.5457197,127.142281
서울특별시,강서구,화곡동,"1073-10 메가박스(주) 화곡점 401,501호",메가박스 화곡 3관,영화관,37.5406056,126.8375628
대전광역시,유성구,봉명동,1016-7,메가박스중앙(주)대전유성지점 5관,영화관,36.3523801,127.3446181
전라남도,여수시,웅천동,1720-3,CGV여수웅천(제7관),영화관,34.7487485,127.6787759
전라남도,여수시,웅천동,1699-501,CGV여수웅천(제1관),영화관,34.746502,127.671619
인천광역시,강화군,강화읍,국화리 239,강화작은영화관,영화관,37.7452107,126.4746102
제주특별자치도,제주시,아라일동,2574,메가박스 제주아라 6관,영화관,33.4838561,126.5358615
대구광역시,중구,수동,1-6,독립영화전용관 오오극장,영화관,35.8707448,128.5894156
충청남도,천안시,서북구,불당동 1289,CGV천안펜타포트(3관),영화관,36.798284,127.101363
부산광역시,기장군,기장읍,당사리 64,롯데시네마 동부산 제1관,영화관,35.1922582,129.2128161
경기도,구리시,인창동,419-7 6~8층 롯데시네마 구리아울렛,롯데시네마 구리아울렛 5관,영화관,37.6118729,127.1405367
경기도,남양주시,별내동,936-4 황산빌딩 7층,메가박스 별내점(제2관),영화관,37.6558,127.1266427
경기도,평택시,평택동,185-104,CGV평택 4관,영화관,36.9916031,127.0838543
충청남도,당진시,읍내동,1532,CGV당진점,영화관,36.9019476,126.6303472
경기도,광명시,일직동,500,롯데시네마 광명아울렛 7관,영화관,37.4241728,126.8834649
경기도,수원시,권선구,서둔동 296-77 롯데몰,롯데시네마 수원관 제6관,영화관,37.2642637,126.9973654
경기도,수원시,권선구,서둔동 296-77,롯데시네마 수원관 제8관,영화관,37.2642637,126.9973654
경기도,김포시,운양동,1296-9 8층~9층,CGV김포운양 4관,영화관,37.6548576,126.6840464
서울특별시,송파구,신천동,29,롯데시네마 월드타워(제5관),영화관,37.5131119,127.1034576
서울특별시,강남구,신사동,532-1 지하2층,픽처하우스,영화관,37.5230117,127.0220363
서울특별시,마포구,동교동,159-8,CGV홍대 3관,영화관,37.556433,126.9227638
전라북도,완주군,봉동읍,둔산리 881,완주 휴(休) 시네마 2관,영화관,35.9624486,127.1286694
경기도,포천시,소흘읍,직동리 321-1,광릉수목원 자동차 극장,자동차극장,37.7805211,127.1646243
인천광역시,미추홀구,주안동,141-8번지 10~11층,CGV 남주안점 4관,영화관,37.4634943,126.6807547
인천광역시,미추홀구,주안동,141-8 12~13층,CGV 남주안점 5관,영화관,37.4634943,126.6807547
인천광역시,미추홀구,주안동,141-8번지 12~13층,CGV 남주안점 6관,영화관,37.4634943,126.6807547
전라북도,전주시,완산구,효자동1가 434,CGV전주효자1관(3층),영화관,35.8070222,127.1158636
부산광역시,중구,중앙동7가,43-2,롯데시네마 광복 제8관,영화관,35.0970827,129.0364332
전라남도,순천시,해룡면,신대리 2139,CGV순천신대 3관,영화관,34.9259846,127.5524031
경기도,성남시,분당구,서현동 256,CGV 서현점 1관,영화관,37.3873781,127.1224371
경기도,파주시,문산읍,당동리 892,씨제이 씨지브이 주식회사 (문산점 1관),영화관,37.8666601,126.7841183
경기도,성남시,분당구,서현동 262-2,메가박스중앙(주) 분당지점 3관,영화관,37.3855506,127.1223185
전라북도,고창군,고창읍,읍내리 457,동리시네마 제1관,영화관,35.4316749,126.7025578
경기도,용인시,기흥구,보라동 31,한국민속촌 자동차극장 2관,자동차극장,37.2593583,127.1231522
울산광역시,남구,삼산동,1569-1 업스퀘어(7층 골드클래스관),CGV울산삼산 제11관,영화관,35.5419627,129.3388287
전라북도,무주군,무주읍,당산리 1199-3,제2관 태권관,영화관,36.0025763,127.6624621
경상남도,김해시,부원동,901 아이스퀘어몰,롯데시네마 김해부원 제7관,영화관,35.2259292,128.8840162
충청북도,청주시,흥덕구,복대동 288-14 3층,CGV 청주지웰시티 1관,영화관,36.6425776,127.429202
전라남도,구례군,용방면,죽정리 931 B동,자연드림 시네마 1관,영화관,35.2735544,127.4129742
강원특별자치도,홍천군,홍천읍,연봉리 388-2,홍천시네마 1관,영화관,37.6781802,127.8729879
울산광역시,중구,성남동,256-24,롯데시네마 울산성남 제1관,영화관,35.5531653,129.3205118
경기도,김포시,걸포동,1574-3번지,CGV 김포한강 1관,영화관,37.6322184,126.7072535
인천광역시,동구,송현동,92-7,인천미림극장 주식회사,영화관,37.4755119,126.6343302
전라북도,정읍시,수성동,525-1,CGV 2관,영화관,35.5698998,126.8495504
대구광역시,중구,남일동,65-1,CGV대구아카데미제4관,영화관,35.8699358,128.5942424
대구광역시,중구,남일동,65-1 아카데미극장,CGV대구아카데미제3관,영화관,35.8699358,128.5942424
충청남도,아산시,모종동,555-5,롯데시네마 아산터미널1관,영화관,36.7847464,127.0158251
전라북도,익산시,영등동,149-1,씨지브이익산 제1관,영화관,35.9580736,126.9737638
제주특별자치도,제주시,아라일동,2574 메가타워,메가박스 제주아라 1관,영화관,33.4838561,126.5358615
경기도,수원시,팔달구,팔달로3가 85-4,(주)다연(메가박스 수원남문점) 4관,영화관,37.2760732,127.0163519
경기도,수원시,팔달구,팔달로3가 84-5,(주)다연(메가박스 수원남문점) 1관,영화관,37.2762909,127.0159086
광주광역시,동구,황금동,12-2번지,롯데시네마 충장로 5관,영화관,35.148102,126.9146537
서울특별시,구로구,신도림동,692 디큐브시티 제타워동 7~8층 일부,롯데컬처웍스(주)롯데시네마 제1관,영화관,37.5086046,126.888931
대구광역시,북구,구암동,769-1번지 태을빌딩 6층,롯데시네마 프리미엄 칠곡 3관,영화관,35.9421787,128.5639002
대구광역시,북구,구암동,769-1번지 태을빌딩 8층,롯데시네마 프리미엄 칠곡 4관,영화관,35.9421787,128.5639002
전라북도,김제시,검산동,산 62-1 청소년수련관 1층,지평선시네마 제2관,영화관,35.8146638,126.9009773
전라북도,김제시,검산동,산 62-1 청소년 수련관 1층,지평선시네마 제1관,영화관,35.8146638,126.9009773
경기도,안성시,공도읍,양기리 306,롯데시네마 안성관,영화관,37.0078166,127.1995906
경상남도,김해시,신문동,1414,롯데시네마 김해아울렛 제4관,영화관,35.1850622,128.8290116
경기도,남양주시,화도읍,마석우리 255-24,롯데시네마 마석 1관,영화관,37.650356,127.3094274
서울특별시,서대문구,창천동,20-25,CGV신촌아트레온 5관,영화관,37.5565693,126.940232
제주특별자치도,제주시,이도이동,1776-3,씨지브이 제주 4관,영화관,33.5000872,126.5273202
부산광역시,북구,덕천동,398-2,메가박스 덕천 9관,영화관,35.2111787,129.0075266
울산광역시,남구,삼산동,1569-1 업스퀘어 6층,CGV울산삼산 제4관,영화관,35.5419627,129.3388287
울산광역시,남구,삼산동,1569-1 업스퀘어 8층,CGV울산삼산 제8관,영화관,35.5419627,129.3388287
서울특별시,노원구,중계동,509-2 홈플러스,CGV 중계 제5관,영화관,37.639929,127.0686141
서울특별시,금천구,가산동,60-8 현대시티아울렛 가산점,롯데시네마 가산디지털(제3관),영화관,37.4775962,126.8890743
서울특별시,중구,충정로1가,68번지,청춘극장,영화관,37.5671139,126.9687005
전라남도,목포시,죽동,23,목포극장1926 GS관,영화관,34.7905702,126.3838021
경상남도,진주시,대안동,13-13번지,메가박스 진주(태양의 제국)제5관,영화관,35.1938619,128.0836627
충청북도,충주시,성서동,383번지,메가박스씨앤씨점(11관),영화관,36.9705149,127.9331434
서울특별시,동작구,사당동,147-53번지 골든시네마타워 12층,아트나인 9관,영화관,37.4847671,126.9815275
경기도,안산시,단원구,고잔동 541-1번지 동서코아 지하209호,명화극장,영화관,37.3171566,126.838979
대구광역시,중구,동성로2가,88-22,CGV대구한일 2관,영화관,35.8704611,128.5953729
경기도,고양시,일산동구,백석동 1242 고양종합터미날 5층,CGV고양백석 1관,영화관,37.6432565,126.7897258
경상남도,창원시,진해구,석동 543-3,롯데시네마 진해 제5관,영화관,35.1588076,128.6974143
충청북도,청주시,흥덕구,비하동 332-1,롯데시네마 서청주 제3관,영화관,36.6446565,127.4213918
대구광역시,서구,내당동,463-62 M플라자,롯데시네마광장관 6관,영화관,35.8557087,128.5506969
인천광역시,연수구,동춘동,926 스퀘어원 4층,CGV 인천연수 5관,영화관,37.4059842,126.6837019
서울특별시,영등포구,여의도동,23,CGV여의도 3관(VeatBox관),영화관,37.5249915,126.9253126
서울특별시,영등포구,여의도동,23 IFC,CGV여의도 7관(TEMPUR CINEMA관),영화관,37.5249915,126.9253126
충청남도,보령시,대천동,324-4,씨지브이 보령 2관,영화관,36.3496005,126.5928546
서울특별시,마포구,서교동,490 메세나폴리스 2층,롯데시네마 합정 제2관,영화관,37.5509421,126.9137874
서울특별시,광진구,자양동,227-7 더샵스타시티,롯데시네마 건대입구관 (제1관),영화관,37.5378082,127.0726426
경기도,양주시,광사동,651-6번지,롯데시네마 양주고읍 제3관,영화관,37.7956956,127.0789305
경기도,의정부시,의정부동,168-54 신세계백화점 10층,CGV 의정부 제5관,영화관,37.7371915,127.0463911
경기도,파주시,탄현면,낙하리 265-10,자유로 자동차 극장 2관,자동차극장,37.8339968,126.7352936
경기도,안양시,동안구,호계동 1039,롯데시네마 평촌(제7관),영화관,37.3902376,126.9504777
강원특별자치도,강릉시,임당동,119-3,강릉독립예술극장 신영,영화관,37.7547458,128.8966792
서울특별시,강북구,수유동,168-12,CGV  수유 2관,영화관,37.6423931,127.0298677
광주광역시,광산구,장덕동,1678,롯데시네마 수완 1관,영화관,35.1891968,126.8193677
경기도,양주시,광사동,"651-1 9층 1,2,3호 10층 1,2,3,4호",메가박스 양주 3관,영화관,37.7962081,127.0801258
대전광역시,동구,용전동,68-2 대전복합터미널 동관 3~4층,CGV대전터미널 6관,영화관,36.3515014,127.4375375
서울특별시,강서구,방화동,886 스카이파크,롯데시네마 김포공항 (4관),영화관,37.565064,126.8030045
대구광역시,수성구,대흥동,504 B2F,CGV대구스타디움제3관,영화관,35.8295332,128.6866949
대구광역시,중구,계산동2가,200,CGV대구현대 제5관,영화관,35.8667667,128.5906226
광주광역시,서구,치평동,1218-1,CGV광주상무 제10관,영화관,35.1542945,126.8510105
대구광역시,동구,봉무동,1545 이시아폴리스라이프스타일센터,씨네Q 대구이시아 1관,영화관,35.9215564,128.6373451
경기도,부천시,원미구,중동 1141-2 8층~14층,롯데시네마 부천 제3관,영화관,37.5028525,126.7731903
경기도,부천시,원미구,상동 529-2 뮤지엄만화규장각 내 1층,만화영화상영관,영화관,37.5120355,126.74659
세종특별자치시,조치원읍,교리,24-1 4층~6층,(주)버킷스튜디오 메가박스 세종 2관,영화관,36.603063,127.2981249
경기도,양주시,광적면,광석리 132번지,양주문예회관,영화관,37.8132485,126.9712425
전라북도,전주시,완산구,고사동 429-5,전주디지털독립영화관,영화관,35.8183912,127.1425449
경기도,남양주시,진접읍,금곡리 1081-2 래일스타 10층,롯데컬처웍스(주)롯데시네마진접,영화관,37.7120291,127.1866491
서울특별시,광진구,화양동,1번지 건국대학교 예술문화대학 지하1층,KU시네마테크,영화관,37.5425462,127.0737364
경기도,화성시,반송동,96 메타폴리스 A동,CGV동탄 3관(Private Box 융합관),영화관,37.2049405,127.0688768
인천광역시,남동구,논현동,646-2 4층,CGV 인천논현4관,영화관,37.4022533,126.7086185
경기도,고양시,일산서구,대화동 2602 레이킨스 몰 3층,메가박스중앙(주)킨텍스지점 7관,영화관,37.6679353,126.7515109
서울특별시,동대문구,전농동,"591-53 청량리민자역사 8층,9층",롯데시네마청량리 제5관,영화관,37.5809947,127.0470245
경기도,화성시,반송동,93-2,메가박스 동탄 8관,영화관,37.2045495,127.0727949
대구광역시,동구,율하동,1117,롯데시네마 율하관(제6관),영화관,35.8683955,128.6933644
경상남도,통영시,무전동,986 롯데시네마 줌아울렛관 3층,롯데시네마 통영 (2관),영화관,34.8591694,128.4302917
경상남도,통영시,무전동,986 롯데시네마 줌아울랫관 3층,롯데시네마 통영 (5관),영화관,34.8591694,128.4302917
경기도,안산시,단원구,고잔동 717-2,롯데시네마 안산고잔관 제6관,영화관,37.3087842,126.8289245
광주광역시,동구,서석동,47-1,광주독립영화관(G시네마),영화관,35.1469161,126.9222634
경상북도,포항시,북구,흥해읍 용전리 719-1번지,포항자동차극장2관,자동차극장,36.1203881,129.3311414
경상남도,양산시,중부동,685-6,메가박스 양산점 5관,영화관,35.3382758,129.0269396
서울특별시,영등포구,영등포동4가,442 타임스퀘어 4층,CGV 영등포 제2관[4D],영화관,37.5170973,126.9033464
경기도,용인시,기흥구,상갈동 100번지,루블루시네마 4관,영화관,37.2694196,127.1058603
경상북도,안동시,용상동,1426-1번지,CGV 안동 5관,영화관,36.5611336,128.7493672
서울특별시,중랑구,상봉동,130-3 상봉뉴월드시네마 4층,메가박스중앙(주) 상봉지점 1관,영화관,37.5932384,127.0746975
강원특별자치도,동해시,천곡동,863,롯데시네마동해관2관,영화관,37.5221585,129.1153027
강원특별자치도,강릉시,옥천동,189 7층,(주) CGV 강릉지점 6관,영화관,37.7556737,128.8986932
경기도,용인시,처인구,김량장동 301-3번지 시네마일번가 5~8층,CGV 용인 1관,영화관,37.235082,127.2059644
서울특별시,광진구,군자동,477-12번지,메가박스 군자9,영화관,37.5557951,127.0783511
서울특별시,양천구,목동,917-6 행복한세상백화점 7층,메가박스중앙(주) 목동지점 3관,영화관,37.5293781,126.8760503
서울특별시,송파구,문정동,516 가든파이브라이프영관 10층,CGV 송파 6관,영화관,37.4791682,127.1242625
서울특별시,송파구,문정동,516 가든파이브라이프영관10층,CGV 송파 4관,영화관,37.4791682,127.1242625
대전광역시,동구,가오동,557,CGV대전가오 제4관,영화관,36.3069376,127.45802
전라남도,여수시,광무동,42번지,여수 시민회관,영화관,34.7475164,127.7276843
부산광역시,해운대구,우동,1495,CGV 센텀시티 CDC B관,영화관,35.1689629,129.1295857
부산광역시,해운대구,우동,1495 신세계백화점 8층,CGV센텀시티 4DX관,영화관,35.1689629,129.1295857
서울특별시,관악구,신림동,1641-2 14층,롯데시네마 신림 제3관,영화관,37.4838521,126.9301841
제주특별자치도,제주시,노형동,1288-5,CGV제주노형5관,영화관,33.4858646,126.4783248
서울특별시,중구,봉래동2가,122번지 서울역,KTX시네마,영화관,37.5582052,126.9695857
강원특별자치도,원주시,단계동,877-1 7~10층,CGV원주8관,영화관,37.3448535,127.9309608
서울특별시,성동구,행당동,168-151 왕십리민자역사,CGV 왕십리 8관,영화관,37.5612997,127.0383909
인천광역시,부평구,부평동,738-21,롯데시네마 부평역사 7관,영화관,37.4896896,126.7226854
울산광역시,동구,서부동,110-1,HD아트센터,영화관,35.5229788,129.4309788
서울특별시,성북구,동선동1가,1-2,"CGV 성신여대입구 2관 02-3415-6781, ",영화관,37.59262,127.0171859
서울특별시,중구,을지로6가,18-21 굿모닝시티,(주)지원엠엠시네마 동대문지점 1관,영화관,37.5668781,127.0072907
서울특별시,서대문구,대현동,"11-1번지 이화캠퍼스복합단지 지하 4,5층",아트하우스 모모-이화·KB 시네마 2관,영화관,37.5625661,126.9474588
서울특별시,서대문구,대신동,85 하늬솔빌딩,필름포럼 2관,영화관,37.5641432,126.944524
서울특별시,서대문구,대신동,85 외 6필지 하니솔빌딩 A동 지하1층,필름포럼 1관,영화관,37.5641432,126.944524
경상남도,창원시,성산구,"대원동 121 W224,W306,W401",CGV창원더시티 5관,영화관,35.240057,128.6528932
경상남도,창원시,성산구,"대원동 121 W224,W306,401",CGV창원더시티 4관,영화관,35.240057,128.6528932
부산광역시,동래구,온천동,"502-3 (10,11층)",롯데시네마 동래관(제4관),영화관,35.211809,129.077444
경기도,안산시,단원구,고잔동 725-1,CGV안산 5관,영화관,37.3138911,126.8310476
대구광역시,중구,동성로2가,66-1,롯데시네마 동성로 제3관,영화관,35.8701619,128.5966888
강원특별자치도,춘천시,퇴계동,1017 7층,CGV 춘천12관,영화관,37.850566,127.7437431
강원특별자치도,춘천시,퇴계동,1017 3층,BodyCare Seat관(CGV춘천 1관),영화관,37.850566,127.7437431
강원특별자치도,춘천시,퇴계동,1017,CGV 춘천4관,영화관,37.850566,127.7437431
강원특별자치도,춘천시,퇴계동,1017 5층,CGV 춘천5관,영화관,37.850566,127.7437431
경기도,시흥시,대야동,568-1 7층,CGV 시흥 제4관,영화관,37.4469842,126.791707
서울특별시,마포구,동교동,166-6,롯데시네마 홍대입구관 제3관,영화관,37.5573392,126.9252986
부산광역시,해운대구,우동,1496,롯데시네마 센텀시티 제1관,영화관,35.169878,129.1310488
서울특별시,구로구,구로동,3-25 테크노마트 신도림점 12층,CINE Q 신도림점 제10관,영화관,37.5069878,126.8903511
전라북도,전주시,완산구,평화동1가 604-1,롯데시네마 전주평화6관,영화관,35.796227,127.1325035
강원특별자치도,원주시,단계동,873 아트스페이스빌딩 7층,메가박스 원주1관,영화관,37.3450115,127.9297944
서울특별시,강남구,논현동,3 외2필지,메가박스 브로드웨이 6관,영화관,37.516543,127.0215851
대구광역시,달성군,가창면,냉천리 27-9번지,씨네밸리,자동차극장,35.7878214,128.6354946
충청북도,청주시,상당구,서문동 29-2,CGV청주서문10관,영화관,36.6349778,127.4869393
경상북도,구미시,원평동,147-9번지,롯데시네마 프리미엄구미센트럴 6관,영화관,36.1291066,128.3347506
부산광역시,남구,대연동,73-15 스파크 8층,CGV대연 6관,영화관,35.1373407,129.0992614
부산광역시,남구,대연동,73-15 스파크,CGV대연 5관,영화관,35.1373407,129.0992614
부산광역시,남구,대연동,73-15 스파크 6층,CGV대연 4관,영화관,35.1373407,129.0992614
부산광역시,남구,대연동,73-15 스파크6층,CGV대연 3관,영화관,35.1373407,129.0992614
경기도,부천시,원미구,"상동 539-1 소풍 6,7,8층",CGV소풍 9관,영화관,37.504155,126.7566364
경기도,부천시,원미구,"상동 539-1 6,7,8층",CGV소풍 IMAX관,영화관,37.504155,126.7566364
경상북도,포항시,남구,상도동 582 밸류플러스 7층,메가박스 포항 컴포트 7관,영화관,36.0127361,129.3488933
부산광역시,금정구,부곡동,298-2,롯데컬처웍스(주)롯데시네마오투 3관,영화관,35.2283215,129.089794
경기도,오산시,원동,763-21번지,CGV 오산(1관),영화관,37.1460598,127.07039
서울특별시,동작구,사당동,147-53 골든씨네마 7층,메가박스(주) 이수지점 3관,영화관,37.4847671,126.9815275
경상남도,통영시,북신동,698-1 월드지브이존,CGV통영(2관),영화관,34.8572748,128.42558
서울특별시,양천구,목동,916 현대백화점 지하2층,메가박스중앙(주)더부티크목동현대백화점108(THE BOUTIQUE),영화관,37.5268538,126.8750343
서울특별시,강남구,신사동,602,씨네 드 쉐프 A관,영화관,37.5243474,127.0294301
충청남도,천안시,동남구,대흥동 102-10 오렌지씨네스타 5층,CGV천안 4관,영화관,36.807708,127.1483996
서울특별시,강북구,미아동,35-4 트레지오 쇼핑몰 10층,씨지브이 미아점 3관,영화관,37.6120705,127.0307587
서울특별시,강북구,미아동,35-4 트레지오 쇼핑몰 9층,씨지브이 미아점 1관,영화관,37.6120705,127.0307587
서울특별시,강북구,미아동,35-4 트레지오 쇼핑몰 11층,씨지브이 미아점 4관,영화관,37.6120705,127.0307587
경기도,고양시,일산동구,"장항동 867외1필지 지상3,4,5,6층",CGV일산(IMAX관),영화관,37.6558822,126.7719922
경기도,고양시,일산동구,"장항동 867외1필지 지상 3,4,5,6층",CGV일산(6관),영화관,37.6558822,126.7719922
경기도,고양시,일산동구,"장항동 867 867외1필지 지상3,4,5,6층",CGV일산(4관),영화관,37.6558822,126.7719922
경기도,용인시,수지구,죽전동 1285 (주)신세계백화점경기점,CGV신세계경기 TEMPUR CINEMA,영화관,37.3250206,127.1081446
서울특별시,강남구,역삼동,814-6 스타플렉스 6층,CGV 강남제1관,영화관,37.5016542,127.0263905
서울특별시,강남구,역삼동,814-6 스타플렉스 8층,CGV 강남제3관,영화관,37.5016542,127.0263905
서울특별시,강남구,역삼동,814-6 스타플랙스 10층,CGV 강남제4관,영화관,37.5016542,127.0263905
서울특별시,강남구,역삼동,814-6 스타플렉스 10층,CGV 강남제6관,영화관,37.5016542,127.0263905
강원특별자치도,속초시,조양동,1506-1,메가박스 속초점 2관,영화관,38.1890593,128.5859435
경기도,안산시,단원구,고잔동 539-2 조이월드상가 901호,롯데시네마센트럴락1관,영화관,37.3185728,126.8380376
대구광역시,북구,동천동,895-2 6층,메가박스 북대구지점 제1관,영화관,35.944067,128.561738
대구광역시,북구,동천동,895-2 지상8층,메가박스 북대구지점 제3관,영화관,35.944067,128.561738
대구광역시,북구,동천동,895-2 지상10층,메가박스 북대구지점 제5관,영화관,35.944067,128.561738
전라북도,군산시,나운동,114-34,롯데시네마군산나운7관,영화관,35.9616893,126.7047406
경상북도,구미시,원평동,68-1번지,씨지브이구미(제1관),영화관,36.1300888,128.3275566
경상북도,구미시,원평동,68-1,씨지브이구미(제3관),영화관,36.1300888,128.3275566
충청남도,천안시,동남구,신부동 354-1,CGV천안터미널 8관,영화관,36.8202926,127.1567545
광주광역시,북구,중흥동,362-2,메가박스 전대 5관,영화관,35.1726056,126.9124482
경기도,용인시,기흥구,중동 833번지 쥬네브썬월드빌딩 7001호,CGV동백 제1관,영화관,37.2780425,127.1517093
경기도,용인시,기흥구,중동 833 쥬네브썬월드빌딩 7001호,CGV동백 제2관,영화관,37.2780425,127.1517093
부산광역시,동래구,온천동,153-8 SKHUBSKY,씨지브이동래 제7관,영화관,35.2213101,129.0855842
서울특별시,관악구,봉천동,862-1 12층,롯데시네마 서울대입구제2관,영화관,37.4810535,126.9522146
경상남도,거제시,장평동,1211,CGV거제 4관,영화관,34.8910818,128.6165933
부산광역시,금정구,장전동,292-4 라퓨타아일랜드,메가박스중앙(주)부산대지점 7관,영화관,35.2301106,129.0881144
경기도,화성시,병점동,844-1 씨네샤르망,롯데시네마 병점관,영화관,37.2138257,127.0425877
인천광역시,계양구,작전동,899-1 8층,CGV계양 4관,영화관,37.5338765,126.7345163
인천광역시,계양구,작전동,899-1 10층,CGV계양 5관,영화관,37.5338765,126.7345163
경기도,수원시,장안구,조원동 893 아일렛 4층,CGV북수원제1관,영화관,37.3035304,127.0074559
전라남도,목포시,상동,860-1번지 극장동 3층,메가박스 목포하당(포르모) 7관,영화관,34.8072946,126.4258281
경기도,수원시,팔달구,인계동 1113 11~12 7층~10층,CGV동수원 씨네앤포레,영화관,37.2642654,127.0323874
경기도,수원시,팔달구,인계동 1113-11 7층~10층동,CGV동수원 제3관,영화관,37.2639541,127.0322508
서울특별시,서대문구,신촌동,74-12 5층,메가박스중앙(주)신촌지점 5관,영화관,37.5598057,126.9419226
서울특별시,서대문구,신촌동,74-12,메가박스중앙(주)신촌지점 6관,영화관,37.5598057,126.9419226
경기도,수원시,권선구,탑동 761-6,세기필름,영화관,37.2747219,126.9767197
충청남도,홍성군,홍북읍,상하리 88-22번지,용봉산시네마,자동차극장,36.6435574,126.6618757
경기도,남양주시,호평동,640,메가박스 남양주 2관,영화관,37.6550813,127.2441014
경상남도,거제시,고현동,961-57,스카라 거제 제6관,영화관,34.8893107,128.6246905
광주광역시,광산구,쌍암동,688-4번지,메가박스 첨단 4관,영화관,35.2212222,126.8523511
광주광역시,광산구,쌍암동,688-4 폭스존,메가박스 첨단 1관,영화관,35.2212222,126.8523511
경기도,포천시,군내면,하성북리 618,포천반월아트홀,영화관,37.8959729,127.2106255
충청북도,청주시,청원구,율량동 500-3,CGV청주율량 1관,영화관,36.666723,127.4950423
경상남도,창원시,마산합포구,해운동 68 유로스퀘어,메가박스 마산 1관,영화관,35.1818927,128.5638704
경상북도,구미시,공단동,"253-2 박스인빌딩 4층 일부 5층,6층,7층",롯데시네마 구미공단 (1관),영화관,36.1042751,128.3849786
광주광역시,북구,용봉동,17-1,CJ CGV 광주용봉1관,영화관,35.1823828,126.9127094
경상북도,구미시,진평동,1023-1,메가박스중앙 구미강동점 5관,영화관,36.1071355,128.417789
서울특별시,중구,충무로2가,65-9,CGV명동역 씨네라이브러리 3관,영화관,37.5613449,126.985343
서울특별시,중구,충무로2가,65-9번지,인사이드시네마,영화관,37.5613449,126.985343
제주특별자치도,제주시,이도이동,1776-3 4층(서광로 17),씨지브이 제주 1관,영화관,33.5000872,126.5273202
제주특별자치도,제주시,이도이동,1776-3 (서광로17),씨지브이 제주 2관,영화관,33.5000872,126.5273202
인천광역시,부평구,부평동,152-1,롯데시네마 부평9 1관,영화관,37.4938246,126.7266083
대구광역시,달서구,이곡동,1244-1,롯데시네마 성서9 (제9관),영화관,35.8544268,128.5078228
전라남도,순천시,덕암동,151번지 701호,메가박스 7관,영화관,34.9412389,127.510869
제주특별자치도,서귀포시,법환동,914번지,롯데시네마 서귀포 6관,영화관,33.246454,126.5089903
전라남도,순천시,덕암동,151 701호,메가박스 4관,영화관,34.9412389,127.510869
경기도,부천시,소사구,괴안동 113-1 역곡하이뷰 6~8층,CGV역곡 2관,영화관,37.484456,126.8109947
경기도,성남시,중원구,성남동 3499 9층,메가박스 성남모란 1관,영화관,37.4313971,127.1297654
제주특별자치도,서귀포시,법환동,914,롯데시네마 서귀포 1관,영화관,33.246454,126.5089903
광주광역시,광산구,쌍암동,694-35,CGV첨단점 4관,영화관,35.2164704,126.8503422
서울특별시,중구,충무로1가,24-23번지 캣츠빌딩,씨큐엔(CQN)명동1관,영화관,37.5612801,126.9841168
서울특별시,노원구,상계동,713,롯데시네마 노원(제4관),영화관,37.6551499,127.0610983
강원특별자치도,원주시,단구동,1511-2 (스타월드 6층),롯데시네마 남원주3관,영화관,37.3308615,127.948733
강원특별자치도,춘천시,죽림동,189,롯데시네마춘천 5관,영화관,37.8780371,127.7277376
경기도,고양시,덕양구,화정동 966-1번지 씨네마플러스 4/5/6층,(주)씨지브이 화정5관,영화관,37.6358316,126.8331873
경기도,고양시,덕양구,화정동 966-1 씨네마플러스 4/5/6층,(주)씨지브이 화정1관,영화관,37.6358316,126.8331873
경기도,안산시,상록구,성포동 590,롯데시네마 안산1관(샤롯데관),영화관,37.3174307,126.8473179
인천광역시,미추홀구,관교동,15 지하1층,롯데시네마 인천터미널 3관,영화관,37.4414292,126.7013271
광주광역시,광산구,우산동,1587-1번지,메가박스 하남 8관,영화관,35.1629287,126.811511
경기도,의정부시,의정부동,494 외 6필지,CGV 의정부태흥 1관,영화관,37.7380313,127.0436104
경기도,평택시,비전동,830,메가박스 평택비전 5관,영화관,36.9958737,127.1124078
충청남도,천안시,서북구,두정동 68-1 센트하임 4층,주식회사 트리스타 메가박스 천안(제2관),영화관,36.8325314,127.1473579
경기도,오산시,원동,300-8 씨네마아울렛 5층,롯데시네마 오산 7관,영화관,37.1422829,127.0738937
경상남도,창원시,성산구,중앙동 99-1 메가플렉스,메가박스창원5관,영화관,35.2213656,128.6757218
인천광역시,연수구,청학동,496-4 연수동광장프라자 10층,CGV 연수역 9관,영화관,37.4177491,126.6771108
서울특별시,은평구,대조동,240번지 팜스퀘어,CGV불광제1관,영화관,37.6097418,126.9290005
서울특별시,은평구,대조동,240 팜스퀘어,CGV불광제4관,영화관,37.6097418,126.9290005
충청북도,청주시,흥덕구,석곡동 2-3번지,아트시네마,영화관,36.6099767,127.4338584
서울특별시,강동구,성내동,549-1번지,메가박스 강동10,영화관,37.5285342,127.1251615
광주광역시,동구,충장로3가,8번지,듀오씨네마,영화관,35.1491508,126.9153759
서울특별시,종로구,명륜2가,41-9 지하1층,CGV 대학로 5관,영화관,37.5834726,126.9998487
경기도,평택시,서정동,818-36,롯데컬처웍스(주) 롯데시네마 송탄3관,영화관,37.067226,127.0610144
서울특별시,중구,필동3가,55-17 A-1,태형영화,영화관,37.5579067,126.9962435
서울특별시,영등포구,영등포동,618-496 외 12필지,롯데시네마 영등포 6관,영화관,37.5159236,126.9073819
경상남도,창원시,마산회원구,합성동 126-4,씨지브이마산8 6관,영화관,35.2375637,128.5823881
서울특별시,중구,남대문로2가,130,롯데시네마 에비뉴엘 <2관>,영화관,37.5641159,126.9819319
경상남도,김해시,내동,1131-4 휴앤락몰,CGV 김해9 제1관,영화관,35.242169,128.8685866
경상남도,밀양시,내이동,1565-16번지,밀양시네마2관,영화관,35.4992815,128.7461828
부산광역시,해운대구,좌동,1479-1번지 웅신시네아트 704-1,롯데시네마 해운대 제9관,영화관,35.1691562,129.1766672
인천광역시,미추홀구,주안동,30-1 카라아울렛 7층,CGV주안역 9관,영화관,37.4655588,126.6803981
충청남도,공주시,신관동,248-3번지,메가박스 공주제6관,영화관,36.4735289,127.1387529
충청남도,부여군,부여읍,구아리 208-3번지 금성빌딩 4층,금성시네마,영화관,36.2812821,126.9117033
전라남도,목포시,상동,1129-6,CGV목포평화광장3관,영화관,34.7993231,126.433214
부산광역시,사상구,괘법동,533-1,메가박스중앙(주) 사상지점 1관,영화관,35.1633381,128.9819791
서울특별시,서초구,서초동,"1317-20 아라타워, 11층",메가박스중앙(주) 강남 7관,영화관,37.4979543,127.0265348
서울특별시,서초구,서초동,"1317-20 아라타워, 9층",메가박스중앙(주) 강남 2관,영화관,37.4979543,127.0265348
서울특별시,서초구,서초동,"1317-20 아라타워, 10층",메가박스중앙(주) 강남 3관,영화관,37.4979543,127.0265348
경기도,부천시,원미구,심곡동 175-6 6층,롯데시네마 부천역관 제1관,영화관,37.4854845,126.7825198
경기도,부천시,원미구,심곡동 175-6 (7층),롯데시네마 부천역관 제5관,영화관,37.4854845,126.7825198
경기도,부천시,원미구,심곡동 175-6 (6층),롯데시네마 부천역관 제3관,영화관,37.4854845,126.7825198
울산광역시,중구,성남동,251-8,메가박스 울산점 7관,영화관,35.5543623,129.3210866
전라남도,목포시,상동,892,CGV 목포제2관,영화관,34.8025043,126.4198674
전라북도,전주시,완산구,고사동 181 3층 우측,메가박스 전주객사 제1관,영화관,35.8208919,127.1437413
전라북도,전주시,완산구,고사동 181 3층 좌측,메가박스 전주객사점 제3관,영화관,35.8208919,127.1437413
전라북도,전주시,완산구,고사동 181 5층 우측,메가박스 전주객사점  제4관,영화관,35.8208919,127.1437413
전라북도,전주시,완산구,고사동 181 5층 좌측,메가박스 전주객사점 제6관,영화관,35.8208919,127.1437413
전라북도,전주시,완산구,고사동 181 7층 우측,메가박스 전주객사점 제7관,영화관,35.8208919,127.1437413
전라북도,전주시,완산구,고사동 181 7층 좌측,메가박스 전주객사점 10관,영화관,35.8208919,127.1437413
서울특별시,종로구,돈의동,137 지하2층,CGV피카디리1958 1관,영화관,37.5710437,126.9912337
서울특별시,종로구,돈의동,137 피카디리플러스,CGV 피카디리1958 2관,영화관,37.5710437,126.9912337
서울특별시,종로구,돈의동,137 지하4층,CGV피카디리1958 4관,영화관,37.5710437,126.9912337
서울특별시,종로구,명륜2가,41-9 대학로CGV 2층,CGV 대학로 6관,영화관,37.5834726,126.9998487
서울특별시,금천구,독산동,291-5,롯데시네마 독산 제7관,영화관,37.4694139,126.8974581
서울특별시,용산구,한강로3가,40-999,씨지브이 용산아이파크몰 제2관,영화관,37.5295577,126.9641642
경상남도,창원시,의창구,팔용동 30-1,CGV 창원6 제6관,영화관,35.2346121,128.6420041
경상남도,진주시,가좌동,700-1 (주)엠비씨 경남,롯데시네마 엠비씨네 시그니처 M,영화관,35.1637617,128.1073442
경상남도,진주시,중안동,"12-13 씨네피아9관(8,9층)",메가박스 진주중안 1관,영화관,35.1928224,128.082619
경기도,광명시,광명동,"150-19 크로앙스 7,8층",롯데시네마 광명5관,영화관,37.4794666,126.8556398
대구광역시,수성구,범물동,1273 동아백화점 수성점 9층,CGV 대구수성 제2관,영화관,35.8210867,128.6404323
서울특별시,강동구,성내동,44-1번지,롯데시네마 1관,영화관,37.5366433,127.1253388
경기도,안산시,단원구,고잔동 535-1,메가박스 안산 중앙 5관,영화관,37.3179413,126.8356393
서울특별시,종로구,명륜2가,41-9 4층,CGV 대학로 8관,영화관,37.5834726,126.9998487
서울특별시,종로구,명륜2가,41-9 지하2층,CGV 대학로 3관,영화관,37.5834726,126.9998487
서울특별시,종로구,명륜2가,41-9 지하3층,CGV 대학로 2관,영화관,37.5834726,126.9998487
서울특별시,종로구,명륜2가,41-9 3층,CGV 대학로 7관,영화관,37.5834726,126.9998487
서울특별시,구로구,개봉동,297-2번지,떼아뜨르 이동영화,영화관,37.4856219,126.8507463
강원특별자치도,속초시,영랑동,570-5,문화프로덕션,영화관,38.2128051,128.5887494
전라북도,전주시,완산구,서신동 971 롯데백화점(7~8층우측1번째),롯데시네마전주8(제8관),영화관,35.8345301,127.1218052
서울특별시,성북구,돈암동,538-98,아리랑시네센터 제2관,영화관,37.5999148,127.0138629
경기도,안양시,만안구,안양동 676-1 PROJECT 500 TOWER,롯데시네마 안양일번가 (1관),영화관,37.3997576,126.9202415
경상북도,포항시,북구,대흥동 563-3,롯데시네마 포항 2관,영화관,36.0366169,129.3629602
대전광역시,유성구,지족동,905-4,CGV 유성노은 1관,영화관,36.372547,127.3185062
충청북도,청주시,흥덕구,가경동 1416-3 드림플러스 8층,CGV청주터미널 1관,영화관,36.6261788,127.4312356
인천광역시,중구,경동,238-1번지,애관극장 5관,영화관,37.4725168,126.6296556
부산광역시,연제구,거제동,1208,CGV 아시아드 제4관,영화관,35.1909444,129.0614127
대전광역시,서구,탄방동,746 로데오타운 5층,메가박스중앙(주) 대전지점 1관,영화관,36.3472996,127.3880059
서울특별시,강남구,신사동,651-21번지,씨네시티3관,영화관,37.5228996,127.0370628
충청남도,서산시,동문동,193-1번지 외 2필지,롯데시네마 서산관(6관),영화관,36.7788675,126.4656869
전라남도,순천시,장천동,54-1,씨제이 씨지브이 주식회사(순천6관),영화관,34.950762,127.4863373
전라남도,화순군,도곡면,천암리 814번지,도곡시네마,자동차극장,35.0241381,126.9035854
인천광역시,미추홀구,주안동,166-1 메인프라자 8층,영화공간 주안2관,영화관,37.4612943,126.6806166
경기도,부천시,원미구,심곡동 383-1 씨네마홀 6층,CGV부천역 2관,영화관,37.4858724,126.7811492
경기도,고양시,일산서구,주엽동 22 그랜드백화점일산점,롯데시네마주엽(일산)2관,영화관,37.6709918,126.7611891
경기도,부천시,원미구,심곡동 383-1 씨네마홀 8층,CGV부천역 6관,영화관,37.4858724,126.7811492
경기도,부천시,원미구,심곡동 383-1 씨네마홀 7층,CGV부천역 4관,영화관,37.4858724,126.7811492
강원특별자치도,속초시,장사동,24-1,태형영화,자동차극장,38.2099465,128.5282737
서울특별시,은평구,녹번동,85-4번지,이동상영관,영화관,37.6039377,126.9283639
경기도,광명시,하안동,1번지,미래상영관(이동상영관),영화관,37.460205,126.86905
전라북도,전주시,완산구,고사동 288-2,조이앤시네마 전주4관,영화관,35.8211082,127.1422334
경기도,의정부시,의정부동,148-10번지,의정부극장 5관,영화관,37.7392819,127.0513116
경상남도,창원시,마산회원구,합성동 267 마산시외버스터미널,롯데시네마 마산(합성동)7관,영화관,35.2389458,128.5837211
전라북도,전주시,완산구,고사동 340-3,전주시네마 제6관,영화관,35.8202795,127.1413777
경기도,부천시,원미구,중동,CGV부천8  1관,영화관,37.487812,126.768185
광주광역시,서구,치평동,1223-3번지,메가박스 상무 5관,영화관,35.1543009,126.854407
경기도,고양시,일산동구,장항동 764 라페스타C,롯데시네마 라페스타(1관),영화관,37.6615469,126.7686061
울산광역시,남구,삼산동,1480-1,롯데시네마 울산9(9관),영화관,35.5384501,129.3383349
충청북도,청주시,흥덕구,오송읍 서평리 600-1,오송자동차극장,자동차극장,36.5851716,127.3145567
경상북도,포항시,북구,덕산동 235-4,CGV 북포항(3관),영화관,36.0407456,129.3681826
경상북도,안동시,옥동,734번지 (테마프라자501호),롯데시네마 프리미엄 안동 1관,영화관,36.5662293,128.6999962
경상북도,안동시,옥동,734번지 테마프라자 401호,롯데시네마 프리미엄 안동 5관,영화관,36.5662293,128.6999962
경기도,광명시,철산동,436,OLC광명철산극장 제5관,영화관,37.4751078,126.8697517
경기도,의정부시,의정부동,170-11번지,태흥시네마2 2관,영화관,37.7387704,127.0498765
경상북도,구미시,원평동,123-7번지,G플렉스아트홀어린이극장,영화관,36.129596,128.3308313
서울특별시,중구,장충동2가,201-6번지,씨너스 이오이(EOE)4 남산자동차극장,자동차극장,37.5515597,127.0025553
서울특별시,중구,초동,19-4번지 초동빌딩3층,시네아스트극장,영화관,37.5645987,126.9924834
서울특별시,중구,충무로4가,131-6번지,극동극장,영화관,37.5619293,126.9950267
서울특별시,중구,충무로1가,"24-23번지 8,9,10층",명동시네마,영화관,37.5612801,126.9841168
서울특별시,중구,초동,18-5번지,"명보 <<1,2,5관>>",영화관,37.5646994,126.9932177
서울특별시,중구,초동,41번지,스카라극장,영화관,37.5641169,126.9925774
서울특별시,마포구,성산동,515 월드컵쇼핑몰내 1층,메가박스중앙(주)상암월드컵경기장지점 Dolby Atmos관,영화관,37.5682884,126.8972733
인천광역시,부평구,청천동,386번지 386,아이즈빌씨지브이부평10 10관,영화관,37.5218638,126.7034829
인천광역시,부평구,청천동,386번지,아이즈빌씨지브이부평10 5관,영화관,37.5218638,126.7034829
경기도,군포시,산본동,1142-2 4층,CGV 산본(5관),영화관,37.3588953,126.9333876
부산광역시,북구,화명동,2275-1,메가박스 화명 1관,영화관,35.2347651,129.0097575
강원특별자치도,삼척시,남양동,34-20,아카데미극장,영화관,37.4431432,129.1646082
서울특별시,중구,회현동2가,26-1번지,뉴아트프로덕션(이동상영관),영화관,37.5588984,126.9833128
제주특별자치도,서귀포시,색달동,2889-1번지,시네메드자동차극장,자동차극장,33.2461233,126.4145102
서울특별시,종로구,낙원동,284-6번지,허리우드클래식,영화관,37.5725833,126.9878024
서울특별시,종로구,신문로1가,226 흥국생명빌딩,씨네큐브광화문 2관,영화관,37.5697351,126.9722948
경기도,수원시,팔달구,매산로1가 18 수원역사6층,메가박스중앙(주)수원AK플라자 컴포트2관,영화관,37.2661789,126.9998957
인천광역시,중구,경동,238번지,애관극장 1관,영화관,37.4723649,126.6298246
경기도,가평군,가평읍,읍내리 513번지,가평군청,영화관,37.8313779,127.5097211
전라남도,목포시,죽교동,7-3번지,제일극장,영화관,34.7975883,126.3783172
경기도,용인시,기흥구,보라동 107번지,애플스타 한국민속촌점,자동차극장,37.2602288,127.1208596
충청북도,청주시,상당구,북문로1가 174-5번지,씨네월드,영화관,36.6349003,127.4889371
경기도,김포시,사우동,928 지하2층,김포극장 GH관,영화관,37.6194075,126.7193529
서울특별시,용산구,한강로3가,16-9 4~5층,롯데시네마 용산 제8관,영화관,37.5328143,126.9597291
대전광역시,동구,자양동,155-3번지,우송예술회관(비상설상영장),영화관,36.3378121,127.4459001
전라남도,목포시,죽동,23번지,시네마 목포 1관,영화관,34.7905702,126.3838021
서울특별시,중구,필동1가,3-3번지 세원빌딩 306호,이스트라인시네마(이동상영관),영화관,37.56192,126.9920936
경기도,용인시,처인구,김량장동 346번지,문예회관,영화관,37.2319346,127.1988708
경기도,안양시,동안구,관양동 1606 평촌주공공이 9층,CGV평촌3관,영화관,37.3929927,126.9622608
경기도,시흥시,정왕동,2327-2 외1필지 4층,롯데시네마(시화관) 제2관,영화관,37.3514629,126.741736
경상북도,김천시,평화동,245-82번지,메가박스 김천 1관,영화관,36.1252486,128.110767
서울특별시,강남구,논현동,3-5 1층,메가박스 브로드웨이 4관,영화관,37.5164491,127.02196
서울특별시,강남구,논현동,3-5 4층,메가박스 브로드웨이 2관,영화관,37.5164491,127.02196
서울특별시,강남구,논현동,3-5 2층,메가박스 브로드웨이 1관,영화관,37.5164491,127.02196
대구광역시,중구,종로1가,29-4,메가박스 프리미엄 만경관 6관,영화관,35.8709521,128.5905418
서울특별시,노원구,중계동,506-1,CGV 하계 제4관,영화관,37.6388313,127.0647694
인천광역시,연수구,옥련동,504,송도유원지자동차극장,자동차극장,37.4201024,126.646344
경기도,안양시,만안구,안양동 88-1 8층,롯데시네마 안양(2관),영화관,37.4050389,126.9200774
경상남도,산청군,신안면,하정리 242-3번지,지리산시네파크,자동차극장,35.2969245,127.9921757
서울특별시,강남구,역삼동,814-6번지,주공공이 1관,,37.5016542,127.0263905
대구광역시,북구,칠성동2가,20,CGV대구 2관,영화관,35.8851422,128.5897939
광주광역시,서구,치평동,1222-1번지,메가박스 상무 8관,영화관,35.1546168,126.8538879
경상남도,창원시,성산구,"상남동 79 롯데백화점3,5층",롯데시네마창원7(5관),영화관,35.2245526,128.6819141
서울특별시,서초구,잠원동,69-2번지,가나시청각,영화관,37.5065114,127.0047346
강원특별자치도,고성군,간성읍,하리 27-1,고성문화의 집,영화관,38.3787854,128.4669862
서울특별시,강남구,신사동,651-21,CGV 청담씨네시티 CINEMA SWEETBOX PREMIUM 관,영화관,37.5228996,127.0370628
대구광역시,동구,용수동,50-1,씨네팔공산,자동차극장,35.9870124,128.6943865
서울특별시,구로구,구로동,573 애경백화점 6층,CGV구로10 제5관,영화관,37.501188,126.882844
서울특별시,중구,명동2가,83-5 아바타빌딩 8층,CGV 명동 2관,영화관,37.5634253,126.9828988
경기도,구리시,인창동,676-2,CGV 구리 2관,영화관,37.6018085,127.1420859
경기도,수원시,권선구,"권선동 1189 터미널동, 할인점동",메가박스 수원지점 2관,영화관,37.2504584,127.0208873
충청북도,청주시,서원구,사창동 488 지하 2층,메가박스 청주사창 컴포트 2관,영화관,36.6325652,127.4604499
충청북도,청주시,서원구,사창동 488 4층,메가박스 청주사창 컴포트 4관,영화관,36.6325652,127.4604499
울산광역시,남구,삼산동,"1480-1 시네마동 2,3,4,6층",롯데시네마 울산9(2관),영화관,35.5384501,129.3383349
대전광역시,중구,문화동,1-16 세이2 지상6~8층,CGV대전9 제7관(CGV아트하우스),영화관,36.3210118,127.4089631
충청북도,청주시,상당구,북문로1가 170-1 쥬네쓰,메가박스 청주성안길6관,영화관,36.6352479,127.4881
부산광역시,부산진구,부전동,503-15 롯데백화점부산본점 10층,롯데시네마 부산본점관 제3관,영화관,35.1566597,129.0560055
대전광역시,동구,중동,27-11,대전아트시네마,영화관,36.3301328,127.4304601
울산광역시,북구,산하동,166-1,"블루마씨네 1관, 2관",자동차극장,35.6402638,129.4313372
경기도,평택시,현덕면,권관리 321,평택호자동차극장,자동차극장,36.9212637,126.922077
부산광역시,부산진구,부전동,205-2 대한시네마,대한시네마 제1관,영화관,35.1542109,129.0601917
서울특별시,강남구,논현동,1-3번지,클래식시네마스페이스(주),,37.5162623,127.0206474
경상북도,안동시,삼산동,140-5,중앙시네마,영화관,36.565129,128.7308301
서울특별시,서초구,반포동,"19-3 센트럴시티, 지하1층",메가박스중앙(주) 센트럴 더부티크 102호,영화관,37.5043625,127.003641
경기도,성남시,분당구,구미동 159 분당월드유통센타4층,시.지.브이오리11 제10관,영화관,37.34008,127.1069719
전라남도,여수시,광무동,42-4번지,여수시(시민회관),영화관,34.746835,127.7279616
광주광역시,동구,대인동,7-1,롯데시네마 6관,영화관,35.154825,126.9120547
부산광역시,부산진구,전포동,892-20 지오플레이스 6층,CGV서면 8관,영화관,35.1494192,129.0639484
부산광역시,중구,남포동5가,24-1번지,메가박스 부산극장 5관,영화관,35.0985615,129.0282257
부산광역시,중구,남포동5가,24-1,메가박스 부산극장TABLE관,영화관,35.0985615,129.0282257
서울특별시,강남구,삼성동,159-0번지,메가박스씨네플렉(주),,37.5125278,127.0588432
대전광역시,서구,괴정동,423-1 10층,롯데시네마 대전(제1관),영화관,36.3406292,127.3895613
경기도,성남시,분당구,야탑동 341 테마폴리스 지하2층,CGV야탑8 제3관,영화관,37.4131266,127.1273424
광주광역시,남구,주월동,126620번지,호남시청각사,영화관,35.13205,126.900308
대전광역시,중구,대흥동,4-5번지 지상7층,대전극장3관,영화관,36.3261228,127.4303908
대전광역시,중구,대흥동,4-5번지,대전극장,영화관,36.3261228,127.4303908
경상북도,구미시,원평동,124-3번지,중앙극장1관,영화관,36.129232,128.3314339
광주광역시,남구,주월동,1266-20번지,호남영배사,영화관,35.1326088,126.9068339
전라북도,전주시,완산구,서신동 965-3번지 대우대창 103-306,시청각 교육 영화사,영화관,35.8347841,127.1182484
서울특별시,강남구,역삼동,816,씨티극장 4관,영화관,37.5003767,127.0269317
인천광역시,남동구,구월동,1130,CGV인천14 제10관,영화관,37.4519427,126.7018707
경상북도,구미시,원평동,125-1번지,코스모스극장2관,영화관,36.1306511,128.3312884
서울특별시,강남구,논현동,91-6번지,씨네하우스 3관,,37.5215818,127.0354804
서울특별시,용산구,후암동,244-80번지,서경필름(이동상영관),영화관,37.5493317,126.9793087
광주광역시,동구,호남동,9-3 석산빌딩 3층,무등영상,영화관,35.1486294,126.9116407
광주광역시,동구,동명동,243번지,계림극장,영화관,35.1533049,126.9202467
광주광역시,동구,충장로5가,62-9번지,광주극장,영화관,35.1498943,126.9122929
경기도,안양시,동안구,호계동 1039-3 뉴코아아울렛 11층,CGV범계6관,영화관,37.3891921,126.951187
광주광역시,북구,양산동,183번지,광주영화사,영화관,35.2094517,126.8778592
서울특별시,광진구,구의동,546-4 테크노마트10층,CGV강변11 제6관,영화관,37.5357043,127.0957763
서울특별시,강남구,논현동,4-15번지,씨네마강남 2관,,37.5170099,127.0225763
서울특별시,강남구,논현동,97-26번지,씨네예술관 2관,,37.5210198,127.0355304
서울특별시,강남구,논현동,123-2번지,강남비디오소극장,,37.5115607,127.0238748
서울특별시,강남구,논현동,4-15,CGV 강남제2관,영화관,37.5170099,127.0225763
서울특별시,강남구,신사동,603-2,CGV압구정 제3관,영화관,37.5245876,127.0288474
인천광역시,부평구,부평동,534-27,대한극장 2관,영화관,37.4910721,126.7222823
인천광역시,부평구,부평동,534-27번지,대한극장 1관,영화관,37.4910721,126.7222823
서울특별시,강남구,논현동,58-3번지,(주)케이엠티브이,,37.5141332,127.0292062
경기도,양평군,양평읍,양근리 422-2번지,양평시네마,영화관,37.4911501,127.4891337
부산광역시,중구,남포동5가,18-1번지,메가박스 부산극장 2관,영화관,35.0986327,129.0287519
경상북도,경주시,노동동,73-2 2층,롯데시네마 2관,영화관,35.8416161,129.2132493
경기도,동두천시,생연동,616-5번지,문화극장 2관,영화관,37.9085738,127.0557061
경기도,동두천시,생연동,616-2,문화극장 1관,영화관,37.9082716,127.0557941
강원특별자치도,원주시,학성동,329-2,문화극장,영화관,37.3547628,127.9471786
강원특별자치도,원주시,평원동,368,아카데미,영화관,37.350957,127.952082
경기도,동두천시,생연동,828-2번지,문화극장 3관,영화관,37.9088044,127.0520405
