School_Name,School_Type,County,City,Town,Address,Latitude,Longitude
대전생활과학고등학교,고등학교,대전광역시,대덕구,오정동,225-7,36.3498313,127.4230626
서석고등학교,고등학교,강원특별자치도,홍천군,서석면,풍암리 269-1 번지,37.70937582,128.1897158
대구보건고등학교,고등학교,대구광역시,달서구,두류동,1207-1,35.85810993,128.5726243
대전대성고등학교,고등학교,대전광역시,중구,목동,95-1,36.331971,127.4070779
범박고등학교,고등학교,경기도,부천시,소사구,범박동 113-70,37.46768281,126.811738
선정국제관광고등학교,고등학교,서울특별시,은평구,갈현동,227-5,37.61870451,126.9090316
화성반월고등학교,고등학교,경기도,화성시,반월동,945,37.224712,127.0550943
대구상원고등학교,고등학교,대구광역시,달서구,상인동,1,35.82168481,128.5394052
계남고등학교,고등학교,경기도,부천시,원미구,중동 1185-1,37.49619693,126.7726105
김포외국어고등학교,고등학교,경기도,김포시,월곶면,갈산리 465-33,37.7012131,126.567517
한국치즈과학고등학교,고등학교,전북특별자치도,임실군,강진면,갈담리 333,35.53327378,127.164754
고성중앙고등학교,고등학교,경상남도,고성군,고성읍,수남리 524,34.96643696,128.3200109
청송여자고등학교,고등학교,경상북도,청송군,청송읍,월막리 315,36.43586526,129.058736
대구고등학교,고등학교,대구광역시,남구,대명동,187,35.84910923,128.588795
원주삼육고등학교,고등학교,강원특별자치도,원주시,무실동,산139 번지,37.3260422,127.9227366
울산생활과학고등학교,고등학교,울산광역시,동구,화정동,300,35.50423681,129.4210107
포항제철고등학교,고등학교,경상북도,포항시,남구,지곡동 477,36.02845443,129.3281483
청심국제고등학교,고등학교,경기도,가평군,설악면,송산리 8-4,37.6870224,127.5405562
대전중앙고등학교,고등학교,대전광역시,중구,중촌동,14-1,36.33842277,127.4147891
호서고등학교,고등학교,충청남도,당진시,원당동,918-6,36.89972495,126.639123
학산고등학교,고등학교,충청북도,영동군,학산면,서산리 902,36.10090506,127.6820366
상모고등학교,고등학교,경상북도,구미시,상모동,447-1,36.08449575,128.351716
전북제일고등학교,고등학교,전북특별자치도,익산시,평화동,169,35.93424298,126.9418576
창원용호고등학교,고등학교,경상남도,창원시,의창구,용호동 68-2,35.23322478,128.6767571
서울의료보건고등학교,고등학교,서울특별시,중구,중림동,324-14,37.55729809,126.966773
울산여자상업고등학교,고등학교,울산광역시,남구,신정동,787,35.52903416,129.3098873
동천고등학교,고등학교,부산광역시,남구,대연동,1572,35.14433722,129.0868043
정화여자고등학교,고등학교,대구광역시,수성구,범어동,산105-1,35.84940778,128.6418878
원덕고등학교,고등학교,강원특별자치도,삼척시,원덕읍,호산리 370 번지,37.17859678,129.3315382
충남예술고등학교,고등학교,충청남도,천안시,서북구,성거읍 천흥리 498-3,36.86844127,127.204377
쌘뽈여자고등학교,고등학교,충청남도,논산시,부창동,1,36.200474,127.0854946
하성고등학교,고등학교,경기도,김포시,하성면,마곡리 640-1,37.71800637,126.628412
제주외국어고등학교,고등학교,제주특별자치도,제주시,애월읍,고성리 94,33.43397575,126.4259791
한서고등학교,고등학교,서울특별시,강서구,방화동,478-34,37.5747927,126.8081439
안양공업고등학교,고등학교,경기도,안양시,만안구,안양동 881-3,37.39956392,126.914329
명지고등학교,고등학교,서울특별시,서대문구,홍은동,361-30,37.58491135,126.9270902
창원과학고등학교,고등학교,경상남도,창원시,의창구,서상동 697,35.2567644,128.6198339
덕정고등학교,고등학교,경기도,양주시,고암동,121-1,37.83754226,127.071727
상일미디어고등학교,고등학교,서울특별시,강동구,상일동,189,37.54858748,127.1708235
세종예술고등학교,고등학교,세종특별자치시,연기면,세종리,551-2,36.49034261,127.269259
상산고등학교,고등학교,전북특별자치도,전주시,완산구,효자동1가 260,35.80508487,127.1197274
울산미용예술고등학교,고등학교,울산광역시,울주군,웅촌면,곡천리 408,35.465558,129.2047008
거제옥포고등학교,고등학교,경상남도,거제시,옥포동,1254-1,34.90540807,128.685988
대전체육고등학교,고등학교,대전광역시,유성구,원신흥동,530-1,36.33651309,127.3406536
창원대산고등학교,고등학교,경상남도,창원시,의창구,대산면 제동리 280-1,35.33334459,128.7103474
숙명여자고등학교,고등학교,서울특별시,강남구,도곡동,91,37.49147536,127.0526126
명덕고등학교,고등학교,서울특별시,강서구,내발산동,169-1,37.553907,126.8342915
숭의과학기술고등학교,고등학교,광주광역시,남구,방림동,50-3,35.12743476,126.9231472
경성전자고등학교,고등학교,부산광역시,서구,서대신동3가,184-4,35.11658597,129.0124449
선일빅데이터고등학교,고등학교,서울특별시,은평구,갈현동,240-1,37.620337,126.9119931
계성고등학교,고등학교,서울특별시,성북구,길음동,1284-15,37.6074936,127.0201836
금곡고등학교,고등학교,부산광역시,북구,금곡동,1892,35.244353,129.0119466
신진과학기술고등학교,고등학교,서울특별시,은평구,응암동,114-1,37.59871385,126.9188364
한림공업고등학교,고등학교,제주특별자치도,제주시,한림읍,한림리 871,33.40652604,126.2699123
청주여자고등학교,고등학교,충청북도,청주시,청원구,율량동 534,36.66774008,127.489702
건양대학교병설건양고등학교,고등학교,충청남도,논산시,양촌면,남산리 564,36.14155764,127.2343403
동두천중앙고등학교,고등학교,경기도,동두천시,지행동,340-2,37.89165104,127.0581024
창원명곡고등학교,고등학교,경상남도,창원시,의창구,명곡동 24-5,35.25456647,128.6488225
이화여자대학교병설미디어고등학교,고등학교,서울특별시,중랑구,망우동,220,37.6031324,127.1053324
부산대학교사범대학부설고등학교,고등학교,부산광역시,금정구,부곡동,351-1,35.23281825,129.0956533
대정여자고등학교,고등학교,제주특별자치도,서귀포시,대정읍,하모리 1363,33.22918877,126.2533142
밀성고등학교,고등학교,경상남도,밀양시,내이동,602-7,35.50154853,128.7509238
안남고등학교,고등학교,인천광역시,계양구,작전동,392-10,37.52503666,126.7271275
아산고등학교,고등학교,충청남도,아산시,온천동,30-3,36.78906056,127.0046035
선명여자고등학교,고등학교,경상남도,진주시,평거동,695-7,35.16415402,128.0420882
데레사여자고등학교,고등학교,부산광역시,동구,범일동,1376,35.13744208,129.0550458
서울금융고등학교,고등학교,서울특별시,양천구,신월동,43-8,37.5376165,126.8256209
김제농생명마이스터고등학교,고등학교,전북특별자치도,김제시,신풍동,499-1,35.79232044,126.8904613
강릉고등학교,고등학교,강원특별자치도,강릉시,초당동,57-2 번지,37.78891804,128.9159872
세현고등학교,고등학교,서울특별시,강서구,가양동,1491,37.56043066,126.8636211
문막고등학교,고등학교,강원특별자치도,원주시,문막읍,문막리 237,37.305216,127.8147585
약사고등학교,고등학교,울산광역시,중구,약사동,893,35.57354536,129.3359984
정광고등학교,고등학교,광주광역시,광산구,소촌동,815,35.15514287,126.7960286
제주대학교사범대학부설고등학교,고등학교,제주특별자치도,제주시,용담삼동,581,33.513785,126.5102401
세광고등학교,고등학교,충청북도,청주시,서원구,성화동 360-1,36.6032833,127.4529213
인천초은고등학교,고등학교,인천광역시,서구,청라동,193-2,37.52929109,126.657114
청원고등학교,고등학교,충청북도,청주시,청원구,오창읍 구룡리 376-3,36.71412973,127.4150059
온양여자고등학교,고등학교,충청남도,아산시,풍기동,214-25,36.77844834,127.0135701
속초고등학교,고등학교,강원특별자치도,속초시,장사동,460 번지,38.22494068,128.5842853
신성여자고등학교,고등학교,제주특별자치도,제주시,영평동,2459-2,33.47698922,126.5640675
경기예술고등학교,고등학교,경기도,부천시,원미구,중동 1031,37.50575359,126.761362
남산고등학교,고등학교,부산광역시,금정구,남산동,982,35.26808358,129.0859013
신송고등학교,고등학교,인천광역시,연수구,송도동,2-11,37.3920074,126.6596644
성덕고등학교,고등학교,서울특별시,강동구,천호동,23-3,37.54996367,127.1419039
광양고등학교,고등학교,서울특별시,광진구,자양동,668,37.52937892,127.0851823
대덕여자고등학교,고등학교,부산광역시,사상구,덕포동,산8-41,35.17944488,128.9933857
소담고등학교,고등학교,세종특별자치시,소담동,9-149,,36.482211,127.30282
서도고등학교,고등학교,인천광역시,강화군,서도면,주문도리 53,37.64803766,126.2524746
합천여자고등학교,고등학교,경상남도,합천군,합천읍,합천리 972,35.56353322,128.1545726
동탄중앙고등학교,고등학교,경기도,화성시,청계동,531,37.20125793,127.110424
전주제일고등학교,고등학교,전북특별자치도,전주시,완산구,남노송동 180-1,35.82095883,127.1580639
율면고등학교,고등학교,경기도,이천시,율면,고당리 545,37.08769127,127.5425144
군자디지털과학고등학교,고등학교,경기도,시흥시,거모동,1418-2,37.35053779,126.7860428
경산여자고등학교,고등학교,경상북도,경산시,옥곡동,7,35.8177642,128.7299454
대일관광고등학교,고등학교,서울특별시,양천구,신정동,1318-3,37.51141377,126.8349067
둔촌고등학교,고등학교,서울특별시,강동구,둔촌동,79-3,37.53143258,127.1438087
태인고등학교,고등학교,전북특별자치도,정읍시,태인면,태성리 627-5,35.652648,126.9389432
온양고등학교,고등학교,충청남도,아산시,실옥동,183-18,36.78370153,126.9951754
광문고등학교,고등학교,서울특별시,강동구,고덕동,295,37.56046181,127.1585463
세종장영실고등학교,고등학교,세종특별자치시,금남면,호탄리,53-4,36.47763276,127.299462
대전반석고등학교,고등학교,대전광역시,유성구,지족동,993,36.38691878,127.3135242
녹동고등학교,고등학교,전라남도,고흥군,도양읍,용정리 1318,34.53882429,127.1421118
전주여자고등학교,고등학교,전북특별자치도,전주시,덕진구,인후동2가 35-1,35.83662729,127.145885
성수고등학교,고등학교,서울특별시,성동구,성수동1가,685-143,37.54734181,127.0382534
천안오성고등학교,고등학교,충청남도,천안시,서북구,성성동 1-4,36.841527,127.142135
속초여자고등학교,고등학교,강원특별자치도,속초시,교동,802-1 번지,38.19910408,128.5679325
일동고등학교,고등학교,경기도,포천시,일동면,기산리 96-59,37.96063289,127.3144197
향동고등학교,고등학교,경기도,고양시,덕양구,향동동 540,37.59643105,126.893446
북일여자고등학교,고등학교,충청남도,천안시,동남구,신부동 287,36.83197659,127.159192
전북여자고등학교,고등학교,전북특별자치도,전주시,덕진구,고랑동 721-1,35.87301072,127.084068
부흥고등학교,고등학교,경기도,안양시,동안구,비산동 1102-2,37.39330664,126.9446222
용인삼계고등학교,고등학교,경기도,용인시,처인구,포곡읍 삼계리 673,37.29465951,127.2406099
노원고등학교,고등학교,서울특별시,노원구,상계동,664,37.66180319,127.0540195
합천평화고등학교,고등학교,경상남도,합천군,적중면,황정리 292,35.5399597,128.2843169
금호고등학교,고등학교,광주광역시,북구,운암동,140,35.1785969,126.8855126
용산철도고등학교,고등학교,서울특별시,용산구,한강로3가,65-209,37.524303,126.9673581
도원고등학교,고등학교,대구광역시,달서구,도원동,1453,35.80527659,128.5454882
이현고등학교,고등학교,경기도,이천시,갈산동,588,37.28562125,127.457756
부천공업고등학교,고등학교,경기도,부천시,소사구,송내동 455,37.48141243,126.7667974
천안공업고등학교,고등학교,충청남도,천안시,동남구,신부동 383-3,36.81484693,127.1556508
대전여자상업고등학교,고등학교,대전광역시,중구,선화동,80-2,36.3338799,127.4216785
화명고등학교,고등학교,부산광역시,북구,화명동,2259,35.23954676,129.0106915
진영고등학교,고등학교,경상남도,김해시,진영읍,진영리 275-21,35.30476772,128.7300047
원주여자고등학교,고등학교,강원특별자치도,원주시,반곡동,1816-1번지,37.33681027,127.9770553
풍문고등학교,고등학교,서울특별시,강남구,자곡동,643,37.47133617,127.0999634
경남정보고등학교,고등학교,경상남도,진주시,호탄동,884-2,35.15788733,128.1168163
형석고등학교,고등학교,충청북도,증평군,증평읍,미암리 603,36.79378517,127.5925775
금호고등학교,고등학교,서울특별시,성동구,금호동1가,1822,37.5536215,127.0234338
문현여자고등학교,고등학교,부산광역시,남구,문현동,40-1,35.14513702,129.0739485
세연고등학교,고등학교,부산광역시,남구,대연동,산128-1,35.13964921,129.085826
창녕슈퍼텍고등학교,고등학교,경상남도,창녕군,창녕읍,말흘리 321,35.53432206,128.5034538
경북일고등학교,고등학교,경상북도,예천군,호명면,산합리 1395,36.57903,128.484984
장항공업고등학교,고등학교,충청남도,서천군,장항읍,화천리 330,36.01394132,126.6856731
신안해양과학고등학교,고등학교,전라남도,신안군,압해읍,학교리 677,34.86192398,126.3145296
정주고등학교,고등학교,전북특별자치도,정읍시,금붕동,415,35.54287125,126.8902183
서울도시과학기술고등학교,고등학교,서울특별시,성북구,하월곡동,90-1,37.607309,127.0337159
제천산업고등학교,고등학교,충청북도,제천시,고명동,765,37.11962871,128.2342425
염광고등학교,고등학교,서울특별시,노원구,월계동,820,37.63028445,127.0492646
봉평고등학교,고등학교,강원특별자치도,평창군,봉평면,창동리 332번지,37.61770857,128.381367
신철원고등학교,고등학교,강원특별자치도,철원군,갈말읍,지포리 85 번지,38.14706658,127.3038496
통진고등학교,고등학교,경기도,김포시,통진읍,마송리 25-6,37.68585311,126.6021476
남주고등학교,고등학교,제주특별자치도,서귀포시,동홍동,1907,33.27652166,126.5649677
이천제일고등학교,고등학교,경기도,이천시,안흥동,148-1,37.27825888,127.4613952
김해삼문고등학교,고등학교,경상남도,김해시,삼문동,67-6,35.19861147,128.796785
안법고등학교,고등학교,경기도,안성시,구포동,176,37.01333556,127.273268
영산고등학교,고등학교,부산광역시,해운대구,반송동,248-1,35.22605862,129.1554497
한백고등학교,고등학교,경기도,화성시,영천동,696,37.20763155,127.1133605
논산대건고등학교,고등학교,충청남도,논산시,등화동,5,36.18480394,127.0784383
경기국제통상고등학교,고등학교,경기도,부천시,원미구,중동 1171-1,37.50046935,126.7608615
충북에너지고등학교,고등학교,충청북도,청주시,상당구,미원면 내산리 218-2,36.63980192,127.6571479
효양고등학교,고등학교,경기도,이천시,부발읍,산촌리 337-5,37.26529772,127.4796168
신등고등학교,고등학교,경상남도,산청군,신등면,양전리 43-2,35.38846187,128.0130664
고흥고등학교,고등학교,전라남도,고흥군,고흥읍,호형리 1259-4,34.60657361,127.2942935
무안고등학교,고등학교,전라남도,무안군,무안읍,성남리 1000,34.98164887,126.467027
서림고등학교,고등학교,전북특별자치도,부안군,부안읍,봉덕리 165,35.721138,126.7428757
강릉중앙고등학교,고등학교,강원특별자치도,강릉시,입암동,525번지,37.75736497,128.9150334
김포제일고등학교,고등학교,경기도,김포시,운양동,1300-1,37.65315497,126.677731
동국대학교사범대학부속여자고등학교,고등학교,서울특별시,광진구,구의동,238-1,37.54192936,127.086973
화천고등학교,고등학교,강원특별자치도,화천군,하남면,위라리 502,38.09694119,127.7082684
남대전고등학교,고등학교,대전광역시,중구,대사동,183,36.31074837,127.4278195
충북고등학교,고등학교,충청북도,청주시,서원구,분평동 233,36.60854214,127.4817144
성지고등학교,고등학교,부산광역시,남구,우암동,110-87,35.12880982,129.0806464
사천고등학교,고등학교,경상남도,사천시,사천읍,정의리 62,35.08702707,128.095984
광주경신여자고등학교,고등학교,광주광역시,북구,용봉동,718-1,35.17473839,126.8926244
고흥산업과학고등학교,고등학교,전라남도,고흥군,고흥읍,등암리 216,34.60253833,127.275209
이천양정여자고등학교,고등학교,경기도,이천시,관고동,77,37.2846442,127.436821
상일여자고등학교,고등학교,서울특별시,강동구,상일동,189,37.54858748,127.1708235
다산고등학교,고등학교,경기도,이천시,사음동,150-6,37.29104059,127.4288967
익산고등학교,고등학교,전북특별자치도,익산시,금마면,동고도리 565,35.99491837,127.0554286
한봄고등학교,고등학교,경기도,수원시,권선구,탑동 614,37.25945904,126.9693453
완도금일고등학교,고등학교,전라남도,완도군,금일읍,화목리 88,34.34940103,127.0324393
덕문고등학교,고등학교,부산광역시,강서구,성북동,401,35.05108195,128.8289400328
천안고등학교,고등학교,충청남도,천안시,동남구,봉명동 205-1,36.80941687,127.1343416
상계고등학교,고등학교,서울특별시,노원구,상계동,738,37.65272468,127.0554534
상일고등학교,고등학교,경기도,부천시,원미구,상동 572-2,37.49818386,126.7437111
한영고등학교,고등학교,서울특별시,강동구,상일동,166,37.549132,127.1577731
청주공업고등학교,고등학교,충청북도,청주시,상당구,영동 79,36.6376457,127.485635
고창여자고등학교,고등학교,전북특별자치도,고창군,고창읍,교촌리 295,35.4393866,126.6990768
한광고등학교,고등학교,서울특별시,강서구,화곡동,488-2,37.53884371,126.857922
목천고등학교,고등학교,충청남도,천안시,동남구,목천읍 서리 54-1,36.78283528,127.2318896
영동산업과학고등학교,고등학교,충청북도,영동군,영동읍,부용리 42-1,36.17254541,127.7711799
부여전자고등학교,고등학교,충청남도,부여군,임천면,만사리 199,36.17627488,126.8917865
대진고등학교,고등학교,대구광역시,달서구,대곡동,1036,35.80569844,128.518376
함백고등학교,고등학교,강원특별자치도,정선군,신동읍,조동리 263-11,37.21571556,128.6737459
해밀고등학교,고등학교,세종특별자치시,해밀동,116,,36.52623718,127.270897
홍주고등학교,고등학교,충청남도,홍성군,홍성읍,오관리 516,36.5927793,126.6625916
청주대성고등학교,고등학교,충청북도,청주시,청원구,내덕동 261,36.65378546,127.490659
경기상업고등학교,고등학교,서울특별시,종로구,청운동,89-3,37.58925853,126.9700571
금산하이텍고등학교,고등학교,충청남도,금산군,진산면,읍내리 172,36.14234919,127.3738609
대신고등학교,고등학교,경기도,여주시,대신면,후포리 258-1,37.36353482,127.6081153
동암고등학교,고등학교,전북특별자치도,전주시,완산구,효자동2가 1200-2,35.80652136,127.1012295
부산컴퓨터과학고등학교,고등학교,부산광역시,동구,초량동,827-6,35.1210635,129.0329123
경남과학고등학교,고등학교,경상남도,진주시,진성면,가진리 75-19,35.20163805,128.2253125
전라고등학교,고등학교,전북특별자치도,전주시,덕진구,송천동1가 137-25,35.8607435,127.1251438
태전고등학교,고등학교,경기도,광주시,태전동,698-12,37.385998,127.2327654
대천여자고등학교,고등학교,충청남도,보령시,대천동,500-2,36.35975001,126.5849396
소사고등학교,고등학교,경기도,부천시,소사구,소사본동 401-8,37.46496623,126.8001855
풍무고등학교,고등학교,경기도,김포시,풍무동,411-5,37.60345824,126.719225
서일여자고등학교,고등학교,대전광역시,서구,관저동,1980,36.29429961,127.3235457
황지정보산업고등학교,고등학교,강원특별자치도,태백시,황지동,59-2 번지,37.16869509,128.9877203
예일디자인고등학교,고등학교,서울특별시,은평구,구산동,8-3,37.6109459,126.9147928
해강고등학교,고등학교,부산광역시,해운대구,우동,1417-1,35.16411392,129.137539
상록고등학교,고등학교,경기도,안산시,상록구,본오동 828-87,37.298894,126.874685
운양고등학교,고등학교,경기도,김포시,운양동,1325-6,37.64514407,126.6896798
경남해양과학고등학교,고등학교,경상남도,남해군,삼동면,지족리 192-1,34.83089787,128.004177
대광고등학교,고등학교,부산광역시,사하구,당리동,286-1,35.10127615,128.9725723
대구소프트웨어마이스터고등학교,고등학교,대구광역시,달성군,구지면,창리 324,35.66325082,128.4136189
사상고등학교,고등학교,부산광역시,사상구,덕포동,150-1,35.16888033,128.9855372
야로고등학교,고등학교,경상남도,합천군,야로면,구정리 178,35.70324314,128.1697233
하남고등학교,고등학교,경기도,하남시,망월동,778-1,37.5603837,127.1856182
인평자동차고등학교,고등학교,인천광역시,부평구,산곡동,369-303,37.492252,126.702193
천안신당고등학교,고등학교,충청남도,천안시,서북구,신당동 286-2,36.85148352,127.1597115
창의고등학교,고등학교,경기도,화성시,목동,350,37.18003972,127.120726
빛고을고등학교,고등학교,광주광역시,북구,신용동,674,35.21071222,126.862344
김해가야고등학교,고등학교,경상남도,김해시,내동,1146-4,35.23622926,128.8710793
평촌고등학교,고등학교,경기도,안양시,동안구,호계동 1054,37.3865366,126.954746
물금고등학교,고등학교,경상남도,양산시,물금읍,범어리 2673-11,35.335613,129.0163375
함평학다리고등학교,고등학교,전라남도,함평군,함평읍,내교리 518,35.0603902,126.5147447
홍성여자고등학교,고등학교,충청남도,홍성군,홍성읍,대교리 343-3,36.60770606,126.6685113
고양동산고등학교,고등학교,경기도,고양시,덕양구,동산동 362,37.64465312,126.887603
천안제일고등학교,고등학교,충청남도,천안시,동남구,원성동 260,36.80863404,127.1532984
효령고등학교,고등학교,대구광역시,군위군,효령면,중구리 355,36.15464034,128.5778532
충남드론항공고등학교,고등학교,충청남도,홍성군,광천읍,광천리 124-11,36.50507898,126.6277951
울산기술공업고등학교,고등학교,울산광역시,울주군,온산읍,덕신리 630-6,35.43889079,129.3080231
살레시오고등학교,고등학교,광주광역시,북구,일곡동,482,35.21688754,126.8920601
남원용성고등학교,고등학교,전북특별자치도,남원시,도통동,213-1,35.41795647,127.3929209
순천미래과학고등학교,고등학교,전라남도,순천시,서면,동산리 107,34.99825546,127.4880054
신일비즈니스고등학교,고등학교,경기도,고양시,일산서구,일산동 1041,37.683058,126.7621788
백마고등학교,고등학교,경기도,고양시,일산동구,백석동 1138,37.65198233,126.7940121
여강고등학교,고등학교,경기도,여주시,북내면,신접리 200,37.32944528,127.6834973
서영여자고등학교,고등학교,전북특별자치도,정읍시,수성동,310,35.57916708,126.8520797
국립전통예술고등학교,고등학교,서울특별시,금천구,시흥동,산24-17,37.44637069,126.906487
한솔고등학교,고등학교,경기도,성남시,분당구,정자동 115,37.36677616,127.1156884
대전한빛고등학교,고등학교,대전광역시,중구,안영동,600,36.28124455,127.3733529
동원고등학교,고등학교,경상남도,통영시,광도면,죽림리 산377-1,34.87046484,128.4130674
전북과학고등학교,고등학교,전북특별자치도,익산시,금마면,용순리 210,36.01457166,127.0347845
대전도안고등학교,고등학교,대전광역시,유성구,원신흥동,561,36.33692213,127.3373195
강일고등학교,고등학교,서울특별시,강동구,강일동,685-1,37.5638281,127.1779035
대명여자고등학교,고등학교,부산광역시,동래구,명장동,534,35.21211001,129.0962141
배방고등학교,고등학교,충청남도,아산시,배방읍,북수리 729,36.76914725,127.0664537
대전외국어고등학교,고등학교,대전광역시,서구,내동,220-13,36.33658566,127.3656242
낙동고등학교,고등학교,부산광역시,북구,덕천동,297-1,35.217064,129.0096023
주산산업고등학교,고등학교,충청남도,보령시,주산면,금암리 506,36.19860758,126.6363604
양명여자고등학교,고등학교,경기도,안양시,만안구,안양동 65-1,37.40697627,126.9221725
순창제일고등학교,고등학교,전북특별자치도,순창군,순창읍,장덕리 100,35.37893092,127.1514256
제주여자상업고등학교,고등학교,제주특별자치도,제주시,건입동,1043-6,33.514671,126.536353
대전동산고등학교,고등학교,대전광역시,중구,문화동,361-1,36.31611842,127.4044919
명호고등학교,고등학교,부산광역시,강서구,명지동,3236-3,35.08062883,128.900075
서해고등학교,고등학교,경기도,시흥시,정왕동,1886-6,37.36059293,126.7239075
진부고등학교,고등학교,강원특별자치도,평창군,진부면,하진부리 258-2 번지,37.63615526,128.552629
여수중앙여자고등학교,고등학교,전라남도,여수시,덕충동,1633,34.75308935,127.7329194
KIS High School,고등학교,제주특별자치도,서귀포시,대정읍,구억리 1126,33.28864617,126.2872199
광혜원고등학교,고등학교,충청북도,진천군,광혜원면,광혜원리 1090,36.99429574,127.4280498
상동고등학교,고등학교,경기도,부천시,원미구,상동 620-1,37.49062565,126.7450659
경북기계금속고등학교,고등학교,경상북도,경산시,자인면,북사리 275,35.81989055,128.8217723
조일고등학교,고등학교,대구광역시,동구,신평동,50,35.8820852,128.6944554
개성고등학교,고등학교,부산광역시,부산진구,당감동,642,35.1676735,129.0299526
방어진고등학교,고등학교,울산광역시,동구,화정동,274-1,35.50456253,129.4229041
수도여자고등학교,고등학교,서울특별시,동작구,신대방동,470-13,37.49280146,126.9149071
대구일마이스터고등학교,고등학교,대구광역시,동구,효목동,212,35.88205162,128.6472193
경상국립대학교사범대학부설고등학교,고등학교,경상남도,진주시,가좌동,산182-1,35.1589968042,128.0965456
부산예술고등학교,고등학교,부산광역시,금정구,구서동,72-3,35.24704234,129.0981972
문성고등학교,고등학교,광주광역시,남구,봉선동,599-1,35.12045939,126.9049884
대정고등학교,고등학교,제주특별자치도,서귀포시,대정읍,상모리 3428,33.231926,126.2595004
충남기계공업고등학교,고등학교,대전광역시,중구,문화동,391,36.31199421,127.4035731
한국식품마이스터고등학교,고등학교,충청남도,부여군,홍산면,북촌리 124-2,36.21603727,126.7663663
효정고등학교,고등학교,울산광역시,북구,효문동,507,35.5636665,129.3749966
철성고등학교,고등학교,경상남도,고성군,고성읍,기월리 143-6,34.98406642,128.3201646
천안업성고등학교,고등학교,충청남도,천안시,서북구,업성동 195-5,36.861666,127.1379306
병천고등학교,고등학교,충청남도,천안시,동남구,병천면 탑원리 146-3,36.76421876,127.3133479
선부고등학교,고등학교,경기도,안산시,단원구,선부동 35,37.34138815,126.7939234
서귀포산업과학고등학교,고등학교,제주특별자치도,서귀포시,상효동,1263,33.29764586,126.5947672
서울인공지능고등학교,고등학교,서울특별시,송파구,거여동,354,37.491753,127.1423309
인천아라고등학교,고등학교,인천광역시,서구,당하동,산39-2,37.58715576,126.703948
광주숭일고등학교,고등학교,광주광역시,북구,일곡동,46-24,35.21781348,126.8969064
새롬고등학교,고등학교,세종특별자치시,새롬동,산31,,36.4863377,127.249034
설악고등학교,고등학교,경기도,가평군,설악면,신천리 76-2,37.6819367,127.493938
인천금융고등학교,고등학교,인천광역시,남동구,논현동,580-2,37.40884693,126.7117141
합천고등학교,고등학교,경상남도,합천군,합천읍,합천리 282,35.563368,128.1678996
인천세무고등학교,고등학교,인천광역시,서구,당하동,1019,37.58843573,126.669663
강릉명륜고등학교,고등학교,강원특별자치도,강릉시,교동,233 번지,37.76314126,128.8938677
국원고등학교,고등학교,충청북도,충주시,봉방동,72,36.96948186,127.9269675
영덕여자고등학교,고등학교,경상북도,영덕군,영덕읍,덕곡리 106-1,36.41316714,129.3745519
경성고등학교,고등학교,서울특별시,마포구,연남동,369-1,37.56351064,126.9191663
신일고등학교,고등학교,서울특별시,강북구,미아동,193-1,37.62796722,127.0284031
금명여자고등학교,고등학교,부산광역시,북구,화명동,307,35.24429037,129.0246
창녕옥야고등학교,고등학교,경상남도,창녕군,이방면,장천리 49,35.60057032,128.3801199
심인고등학교,고등학교,대구광역시,달성군,다사읍,죽곡리 816,35.85317023,128.465259
경일고등학교,고등학교,서울특별시,성동구,성수동1가,22-27,37.54382982,127.0478683
제주중앙고등학교,고등학교,제주특별자치도,제주시,월평동,1236,33.47416984,126.5733732
두루고등학교,고등학교,세종특별자치시,고운동,898,,36.51626999,127.2273942
금산산업고등학교,고등학교,충청남도,금산군,금산읍,아인리 107,36.10440219,127.4793939
판곡고등학교,고등학교,경기도,남양주시,호평동,442,37.66291081,127.2428606
호수돈여자고등학교,고등학교,대전광역시,중구,선화동,349-10,36.32671701,127.4144851
평촌과학기술고등학교,고등학교,경기도,안양시,동안구,호계동 1105,37.37360398,126.9626142
미사강변고등학교,고등학교,경기도,하남시,선동,418,37.5777571,127.1837309
경기경영고등학교,고등학교,경기도,부천시,소사구,심곡본동 768-9,37.4750207,126.7730512
정산고등학교,고등학교,충청남도,청양군,정산면,서정리 91-1,36.41385157,126.9502066
대성여자고등학교,고등학교,광주광역시,남구,진월동,산218-1,35.1194595,126.8929965
양현고등학교,고등학교,전북특별자치도,전주시,덕진구,장동 1072,35.842184,127.0587816
민족사관고등학교,고등학교,강원특별자치도,횡성군,안흥면,소사리 1300-1,37.4581917901,128.1457657276
수완고등학교,고등학교,광주광역시,광산구,수완동,924,35.198074,126.8259386
경일고등학교,고등학교,부산광역시,강서구,명지동,299,35.11248236,128.9224148
세인트존스베리 아카데미 제주,고등학교,제주특별자치도,서귀포시,대정읍,구억리 1159,33.28529333,126.2843128
성남고등학교,고등학교,경기도,성남시,중원구,성남동 2870,37.43400578,127.1471688
충남외국어고등학교,고등학교,충청남도,아산시,탕정면,명암리 851,36.80404361,127.061467
경진고등학교,고등학교,경상남도,진주시,상봉동,831-3,35.20041487,128.0663566
광주예술고등학교,고등학교,광주광역시,북구,매곡동,385,35.18631089,126.8878116
가곡고등학교,고등학교,강원특별자치도,삼척시,가곡면,오저리 88,37.14634584,129.2048269
부안제일고등학교,고등학교,전북특별자치도,부안군,행안면,신기리 24,35.72864208,126.7225062
인천중산고등학교,고등학교,인천광역시,중구,중산동,1914-1,37.497751,126.569938
천안여자고등학교,고등학교,충청남도,천안시,동남구,삼룡동 102-1,36.77872802,127.1692327
곡정고등학교,고등학교,경기도,수원시,권선구,권선동 1338,37.24384332,127.0201503
안동중앙고등학교,고등학교,경상북도,안동시,태화동,603-1,36.56002748,128.708754
곤양고등학교,고등학교,경상남도,사천시,곤양면,서정리 50,35.06357858,127.9613145
대전만년고등학교,고등학교,대전광역시,서구,만년동,9,36.36726668,127.372992
정현고등학교,고등학교,경기도,화성시,산척동,산 133-1,37.17352234,127.1114038
평창고등학교,고등학교,강원특별자치도,평창군,평창읍,중리 191 번지,37.37198838,128.404689
수원칠보고등학교,고등학교,경기도,수원시,권선구,금곡동 1073,37.27513582,126.944923
밀양동명고등학교,고등학교,경상남도,밀양시,하남읍,수산리 466,35.37270065,128.7134587
경북바이오마이스터고등학교,고등학교,경상북도,영천시,신녕면,매양리 405,36.04302173,128.7804921
충남삼성고등학교,고등학교,충청남도,아산시,탕정면,명암리 1287,36.80653054,127.0572398
순천금당고등학교,고등학교,전라남도,순천시,조례동,450-7,34.95086788,127.523351
대금고등학교,고등학교,충청북도,음성군,금왕읍,본대리 267-4,36.98184963,127.5279252
천안청수고등학교,고등학교,충청남도,천안시,동남구,청수동 423,36.79141382,127.1591804
화봉고등학교,고등학교,울산광역시,북구,화봉동,1441,35.59529953,129.3700214
순천복성고등학교,고등학교,전라남도,순천시,해룡면,복성리 437,34.94660642,127.544156
신도림고등학교,고등학교,서울특별시,구로구,신도림동,270-2,37.51406292,126.8820838
부여고등학교,고등학교,충청남도,부여군,부여읍,가탑리 259,36.27386362,126.923073
구덕고등학교,고등학교,부산광역시,사상구,학장동,180-9,35.13842716,128.9907463
창녕고등학교,고등학교,경상남도,창녕군,대지면,효정리 104,35.54412474,128.4823584
여주제일고등학교,고등학교,경기도,여주시,가남읍,심석리 350-1,37.20683812,127.5545644
자운고등학교,고등학교,서울특별시,도봉구,창동,1,37.659021,127.050676
진량고등학교,고등학교,경상북도,경산시,진량읍,신상리 1031,35.87727334,128.8110155
단성고등학교,고등학교,경상남도,산청군,단성면,강누리 364-1,35.30632289,127.9643023
이포고등학교,고등학교,경기도,여주시,흥천면,계신리 468,37.376319,127.5168304
새솔고등학교,고등학교,경기도,화성시,송산면,새솔동 157,37.27338862,126.8293429
간디고등학교,고등학교,경상남도,산청군,신안면,외송리 122,35.35849956,127.9445919
서천여자고등학교,고등학교,충청남도,서천군,서천읍,군사리 356-17,36.08139458,126.6938200273
홍익디자인고등학교,고등학교,경기도,화성시,기안동,460-132,37.2167924,126.9796299
박문여자고등학교,고등학교,인천광역시,연수구,송도동,162-3,37.38275068,126.6662372
성일고등학교,고등학교,전북특별자치도,익산시,황등면,황등리 626-1,36.00845511,126.9466218
호남제일고등학교,고등학교,전북특별자치도,전주시,완산구,효자동3가 1233,35.81390641,127.099232
현천고등학교,고등학교,강원특별자치도,횡성군,둔내면,현천리,37.48595998,128.1705362
고양예술고등학교,고등학교,경기도,고양시,일산서구,덕이동 753-11,37.69741041,126.742303
장훈고등학교,고등학교,서울특별시,영등포구,신길동,177-1,37.51334559,126.9162286
김해율하고등학교,고등학교,경상남도,김해시,율하동,1292,35.174104,128.8069805
호남삼육고등학교,고등학교,광주광역시,남구,주월동,468-2,35.1302339,126.893732
도림고등학교,고등학교,인천광역시,남동구,서창동,718,37.42077753,126.752981
금천고등학교,고등학교,충청북도,청주시,상당구,금천동 4-6,36.62779716,127.5119428
마장고등학교,고등학교,경기도,이천시,마장면,양촌리 54,37.25812644,127.3512887
이화여자외국어고등학교,고등학교,서울특별시,중구,순화동,1-1,37.56557732,126.9696417
옥빛고등학교,고등학교,경기도,양주시,옥정동,1053,37.81455085,127.091777
광명북고등학교,고등학교,경기도,광명시,철산동,59-1,37.487906,126.8679386
송림고등학교,고등학교,경기도,성남시,분당구,이매동 378,37.39191272,127.1318098
분당고등학교,고등학교,경기도,성남시,분당구,수내동 25,37.37563295,127.1160677
문명고등학교,고등학교,경상북도,경산시,백천동,산16,35.80503215,128.7451394
천상고등학교,고등학교,울산광역시,울주군,범서읍,천상리 566-14,35.565628,129.2221122
호남고등학교,고등학교,전북특별자치도,정읍시,시기동,475-3,35.55709637,126.851151
벌교상업고등학교,고등학교,전라남도,보성군,벌교읍,회정리 527,34.84667869,127.349561
동래고등학교,고등학교,부산광역시,동래구,칠산동,360,35.20090083,129.0927025
김제서고등학교,고등학교,전북특별자치도,김제시,죽산면,죽산리 600-25,35.77104473,126.8148593
석정여자고등학교,고등학교,강원특별자치도,영월군,영월읍,하송리 318 번지,37.18016344,128.4599183
조선대학교부속고등학교,고등학교,광주광역시,동구,학동,산138-1,35.13505815,126.9308097
천안월봉고등학교,고등학교,충청남도,천안시,서북구,불당동 825,36.80456188,127.1119636
한국나노마이스터고등학교,고등학교,경상남도,밀양시,무안면,신법리 327-1,35.4784026,128.6531771
청원여자고등학교,고등학교,서울특별시,노원구,상계동,641,37.66525155,127.0625329
중흥고등학교,고등학교,경기도,부천시,원미구,중동 1040-4,37.5086048,126.7686513
전남체육고등학교,고등학교,전라남도,무안군,일로읍,월암리 16-4,34.84533769,126.4962094
김해제일고등학교,고등학교,경상남도,김해시,외동,794,35.23962708,128.8538737
가운고등학교,고등학교,경기도,남양주시,다산동,684,37.59944721,127.160699
선일여자고등학교,고등학교,서울특별시,은평구,갈현동,240-1,37.62030421,126.9119931
상무고등학교,고등학교,광주광역시,서구,쌍촌동,1302,35.15479285,126.8596319
충남여자고등학교,고등학교,대전광역시,중구,목동,126,36.32974636,127.4112877
거제상문고등학교,고등학교,경상남도,거제시,문동동,438,34.86339304,128.6467154
도당고등학교,고등학교,경기도,부천시,원미구,도당동 64,37.51862256,126.7909608
천안쌍용고등학교,고등학교,충청남도,천안시,서북구,쌍용동 502-8,36.78875649,127.114008
순천청암고등학교,고등학교,전라남도,순천시,덕월동,279,34.92772924,127.4895729
만리포고등학교,고등학교,충청남도,태안군,소원면,신덕리 180,36.76035844,126.1908228
계성고등학교,고등학교,대구광역시,서구,상리동,산119,35.87117298,128.5283449
한솔고등학교,고등학교,세종특별자치시,한솔동,972,,36.47842598,127.2528048
이천고등학교,고등학교,경기도,이천시,증포동,402,37.28795195,127.4476087
대구중앙고등학교,고등학교,대구광역시,수성구,수성동4가,1145-1,35.86646267,128.6172837
서천여자정보고등학교,고등학교,충청남도,서천군,서천읍,사곡리 45,36.08312752,126.6993362
면목고등학교,고등학교,서울특별시,중랑구,면목동,77,37.58466341,127.0972706
군산상일고등학교,고등학교,전북특별자치도,군산시,문화동,785-3,35.97468767,126.7000666
부산대저고등학교,고등학교,부산광역시,강서구,대저2동,2039,35.17758668,128.956294
경기항공고등학교,고등학교,경기도,광명시,광명동,42-122,37.47331347,126.8570351
목포공업고등학교,고등학교,전라남도,목포시,용당동,171-11,34.79607323,126.4038678
종촌고등학교,고등학교,세종특별자치시,종촌동,678,,36.50463068,127.2458378
삼현여자고등학교,고등학교,경상남도,진주시,상평동,217-1,35.17740441,128.1120405
부명고등학교,고등학교,경기도,부천시,원미구,중동 1173,37.49912254,126.7612672
대구관광고등학교,고등학교,대구광역시,동구,신암동,80,35.89004876,128.6323701
김해고등학교,고등학교,경상남도,김해시,삼정동,267-34,35.23139335,128.8960809
서귀포여자고등학교,고등학교,제주특별자치도,서귀포시,호근동,1561,33.24349575,126.5307976
신광여자고등학교,고등학교,서울특별시,용산구,청파동3가,100,37.54289988,126.9694475
이산고등학교,고등학교,경기도,화성시,오산동,598-3,37.190969,127.0872534
남양주다산고등학교,고등학교,경기도,남양주시,다산동,6050,37.62557654,127.1586637
천안상업고등학교,고등학교,충청남도,천안시,서북구,신당동 98,36.85929729,127.1555454
천안중앙고등학교,고등학교,충청남도,천안시,동남구,원성동 460-1,36.81106206,127.1598874
양곡고등학교,고등학교,경기도,김포시,양촌읍,양곡리 286-1,37.65963944,126.625147
남성고등학교,고등학교,전북특별자치도,익산시,신동,156-4,35.95635944,126.9659967
동래여자고등학교,고등학교,부산광역시,금정구,구서동,72-3,35.24704234,129.0981972
서울여자고등학교,고등학교,서울특별시,마포구,염리동,128-2,37.5477805,126.94907
청란여자고등학교,고등학교,대전광역시,중구,부사동,450-3,36.31073792,127.4295277
서령고등학교,고등학교,충청남도,서산시,동문동,558-29,36.79480039,126.4581655
철원여자고등학교,고등학교,강원특별자치도,철원군,동송읍,이평리 862 번지,38.20530981,127.210088
조종고등학교,고등학교,경기도,가평군,조종면,현리 438,37.81435909,127.3466138
안양문화고등학교,고등학교,경기도,안양시,만안구,안양동 산41-1,37.39571621,126.9090332
원광고등학교,고등학교,전북특별자치도,익산시,부송동,9-4,35.97322975,127.0022827
경안여자고등학교,고등학교,경상북도,안동시,송현동,599-1,36.57650803,128.6833866
한국원자력마이스터고등학교,고등학교,경상북도,울진군,평해읍,월송리 508-3,36.74310804,129.4634936
광주진흥고등학교,고등학교,광주광역시,광산구,신창동,638-5,35.19643601,126.8416886
장성여자고등학교,고등학교,강원특별자치도,태백시,문곡동,33-7 번지,37.1262972,129.0057064
전주중앙여자고등학교,고등학교,전북특별자치도,전주시,덕진구,인후동1가 109-2,35.82828292,127.167827
목포혜인여자고등학교,고등학교,전라남도,목포시,죽교동,514,34.79998068,126.372628
순천제일고등학교,고등학교,전라남도,순천시,가곡동,50,34.98863327,127.4885276
서운고등학교,고등학교,인천광역시,계양구,서운동,55-42,37.52691454,126.7457474
한국도예고등학교,고등학교,경기도,이천시,신둔면,수남리 176-4,37.28889092,127.3993265
대기고등학교,고등학교,제주특별자치도,제주시,봉개동,1811-1,33.49250981,126.5932794
동북고등학교,고등학교,서울특별시,강동구,둔촌동,180-2,37.52024061,127.1394507
한국창의예술고등학교,고등학교,전라남도,광양시,마동,328-6,34.94880756,127.7019096
함양고등학교,고등학교,경상남도,함양군,함양읍,백연리 253,35.51445963,127.7226856
강원고등학교,고등학교,강원특별자치도,춘천시,동면,장학리 산36 번지,37.89496596,127.7564189
용문고등학교,고등학교,서울특별시,성북구,안암동2가,96-1,37.58869033,127.0246608
염광여자메디텍고등학교,고등학교,서울특별시,노원구,월계동,820-9,37.63028445,127.0492646
서야고등학교,고등학교,충청남도,당진시,합덕읍,합덕리 262-1,36.79274595,126.7877866
송현고등학교,고등학교,경기도,의정부시,민락동,735-4,37.74392075,127.0908317
창원중앙고등학교,고등학교,경상남도,창원시,의창구,용호동 71,35.23126093,128.6776682
원종고등학교,고등학교,경기도,부천시,오정구,원종동 128-1,37.52849582,126.8004974
동안고등학교,고등학교,경기도,안양시,동안구,평촌동 898-3,37.39035669,126.9661064
묵호고등학교,고등학교,강원특별자치도,동해시,부곡동,37번지,37.537762,129.0957467
시온고등학교,고등학교,경기도,부천시,소사구,범박동 152-8,37.47148659,126.8051061
금정고등학교,고등학교,부산광역시,동래구,명장동,432,35.20771342,129.1070798
안성고등학교,고등학교,경기도,안성시,금산동,33-1,37.014032,127.271354
둔내고등학교,고등학교,강원특별자치도,횡성군,둔내면,둔방내리 96-3 번지,37.51082915,128.2127223
공항고등학교,고등학교,서울특별시,강서구,마곡동,733-3,37.57046109,126.8185198
매홀고등학교,고등학교,경기도,오산시,수청동,632,37.16945751,127.0688500329
목포고등학교,고등학교,전라남도,목포시,용당동,970-6,34.80861333,126.3918035
문산수억고등학교,고등학교,경기도,파주시,파주읍,봉서리 1,37.85202703,126.802583
영월고등학교,고등학교,강원특별자치도,영월군,영월읍,영흥리 716-1 번지,37.19059443,128.4711874
장항고등학교,고등학교,충청남도,서천군,장항읍,성주리 138-4,36.01638039,126.7066945
여의도여자고등학교,고등학교,서울특별시,영등포구,여의도동,40-2,37.52288764,126.9350871
전주고등학교,고등학교,전북특별자치도,전주시,완산구,중노송동 483-1,35.82470798,127.1525516
백화여자고등학교,고등학교,전북특별자치도,장수군,장계면,장계리 24,35.72778418,127.5861808
여주고등학교,고등학교,경기도,여주시,교동,454-4,37.27109289,127.6363531
서전고등학교,고등학교,충청북도,진천군,덕산읍,두촌리 2744,36.89948149,127.5259529
성수고등학교,고등학교,강원특별자치도,춘천시,낙원동,45 번지,37.87982056,127.7249886
과천고등학교,고등학교,경기도,과천시,별양동,5,37.43085587,126.9970303
대전관저고등학교,고등학교,대전광역시,서구,관저동,983,36.31080711,127.3377631
남해제일고등학교,고등학교,경상남도,남해군,남해읍,북변리 356,34.83926386,127.902439949
위례고등학교,고등학교,경기도,하남시,학암동,666,37.476875,127.1508833
풍생고등학교,고등학교,경기도,성남시,수정구,수진동 4511-1,37.43504295,127.1314147
대전고등학교,고등학교,대전광역시,중구,대흥동,320-2,36.32243054,127.423386
해룡고등학교,고등학교,전라남도,영광군,영광읍,도동리 68,35.26843387,126.513448
예문여자고등학교,고등학교,부산광역시,남구,용호동,산73-9,35.11552808,129.1075077
장호원고등학교,고등학교,경기도,이천시,장호원읍,노탑리 717,37.12706988,127.6176305
포천일고등학교,고등학교,경기도,포천시,군내면,하성북리 663,37.89474961,127.2052309
남해해성고등학교,고등학교,경상남도,남해군,남면,평산리 271,34.77357644,127.8602782
부여정보고등학교,고등학교,충청남도,부여군,규암면,외리 198,36.27731649,126.8817737
신서고등학교,고등학교,서울특별시,양천구,신정동,984-1,37.52391432,126.8602096
죽산고등학교,고등학교,경기도,안성시,죽산면,죽산리 321,37.08202849,127.4248873
태릉고등학교,고등학교,서울특별시,중랑구,묵동,6,37.61916383,127.0855576
신남고등학교,고등학교,강원특별자치도,인제군,남면,신남리 404 번지,37.96985666,128.0794889
부천고등학교,고등학교,경기도,부천시,소사구,송내동 437,37.47991398,126.7663039
구현고등학교,고등학교,서울특별시,구로구,구로동,620-30,37.502203,126.874446
아름고등학교,고등학교,세종특별자치시,아름동,1322,,36.513039,127.2452501
명일여자고등학교,고등학교,서울특별시,강동구,명일동,40,37.54977633,127.1495815
마산고등학교,고등학교,경상남도,창원시,마산합포구,완월동 27-3,35.20055288,128.5616541
금남고등학교,고등학교,경상남도,하동군,금남면,덕천리 1243-1,34.98602065,127.8398053
강릉제일고등학교,고등학교,강원특별자치도,강릉시,교동,886 번지,37.76013262,128.889764
온양한올고등학교,고등학교,충청남도,아산시,권곡동,536-28,36.78855105,127.0105357
복자여자고등학교,고등학교,충청남도,천안시,동남구,성황동 9-1,36.81554363,127.1523399
충북산업과학고등학교,고등학교,충청북도,옥천군,옥천읍,문정리 247,36.30947631,127.5763371
김해여자고등학교,고등학교,경상남도,김해시,대성동,189,35.24055291,128.8810336
소래고등학교,고등학교,경기도,시흥시,은행동,108-8,37.43782613,126.794886
솔샘고등학교,고등학교,서울특별시,강북구,미아동,837-734,37.62366717,127.012135
홍성고부설방송통신고등학교,고등학교,충청남도,홍성군,홍북읍,신경리 1174,36.65002468,126.6726491
동명고등학교,고등학교,광주광역시,광산구,서봉동,518,35.15572544,126.7407775
마산제일여자고등학교,고등학교,경상남도,창원시,마산합포구,문화동 4,35.18864312,128.5564145
경남로봇고등학교,고등학교,경상남도,함안군,대산면,평림리 955,35.34795693,128.4392206
전주공업고등학교,고등학교,전북특별자치도,전주시,덕진구,여의동 548-2,35.86235186,127.0753697
경북기계공업고등학교,고등학교,대구광역시,달서구,상인동,1-6,35.82211269,128.5424753
광주과학고등학교,고등학교,광주광역시,북구,오룡동,1-5,35.22815205,126.8478336
안흥고등학교,고등학교,강원특별자치도,횡성군,안흥면,272-1 번지,37.41259236,128.1527598
담양고등학교,고등학교,전라남도,담양군,담양읍,천변리 232,35.31418401,126.9808879
하길고등학교,고등학교,경기도,화성시,향남읍,하길리 1509,37.1118639,126.9105458
제천고등학교,고등학교,충청북도,제천시,청전동,162,37.14308749,128.2179452
부개여자고등학교,고등학교,인천광역시,부평구,부개동,501-11,37.497916,126.7410316
남원고등학교,고등학교,전북특별자치도,남원시,향교동,640-1,35.42102496,127.380269
남해고등학교,고등학교,경상남도,남해군,이동면,무림리 1315,34.80280046,127.951543
충남해양과학고등학교,고등학교,충청남도,보령시,신흑동,824,36.31849307,126.5141199
오수고등학교,고등학교,전북특별자치도,임실군,오수면,오수리 455,35.54753286,127.3281427
혜성여자고등학교,고등학교,서울특별시,노원구,하계동,산16-47,37.64055021,127.0736197
삼척고등학교,고등학교,강원특별자치도,삼척시,당저동,57 번지,37.44582388,129.1640652
오성고등학교,고등학교,대구광역시,수성구,만촌동,1070,35.85447266,128.6447837
강원예술고등학교,고등학교,강원특별자치도,강릉시,구정면,제비리 132-2,37.72193969,128.8645411
미래고등학교,고등학교,강원특별자치도,원주시,행구동,125-2 번지,37.33896696,128.0083876
서울전자고등학교,고등학교,서울특별시,서초구,방배동,2727,37.46972182,126.988328
금호중앙여자고등학교,고등학교,광주광역시,북구,운암동,140,35.1785969,126.8855126
전북외국어고등학교,고등학교,전북특별자치도,군산시,소룡동,1044-2,35.98169109,126.6852969
송곡여자고등학교,고등학교,서울특별시,중랑구,망우동,252-1,37.60668904,127.1051455
파주고등학교,고등학교,경기도,파주시,문산읍,당동리 140,37.85922282,126.7806655
한마음고등학교,고등학교,충청남도,천안시,동남구,동면 장송리 418-1,36.77857819,127.3788257
옥과고등학교,고등학교,전라남도,곡성군,옥과면,율사리 334,35.27425387,127.1299726
거창고등학교,고등학교,경상남도,거창군,거창읍,중앙리 411,35.69290331,127.9106934
대진여자고등학교,고등학교,서울특별시,노원구,중계동,514-2,37.646174,127.0671966
신태인고등학교,고등학교,전북특별자치도,정읍시,신태인읍,신태인리 9,35.69198097,126.8937261
도선고등학교,고등학교,서울특별시,성동구,하왕십리동,1070-4,37.56684395,127.0269957
충북체육고등학교,고등학교,충청북도,진천군,문백면,도하리 774,36.76308637,127.4347297
덕산고등학교,고등학교,충청남도,예산군,봉산면,효교리 405-2,36.66632026,126.682976
성환고등학교,고등학교,충청남도,천안시,서북구,성환읍 송덕리 55,36.923821,127.115593
경북과학고등학교,고등학교,경상북도,포항시,남구,지곡동 산 22-5,36.01867022,129.3271616
사북고등학교,고등학교,강원특별자치도,정선군,사북읍,286 번지,37.22816463,128.8288674
부여여자고등학교,고등학교,충청남도,부여군,부여읍,가탑리 368-4,36.28531993,126.9152923
중원고등학교,고등학교,경기도,부천시,원미구,중동 1025,37.51156679,126.7622256
대화고등학교,고등학교,강원특별자치도,평창군,대화면,대화리 476 번지,37.49329552,128.4599834
교동고등학교,고등학교,인천광역시,강화군,교동면,대룡리 723-7,37.77846268,126.2843169
부천여자고등학교,고등학교,경기도,부천시,원미구,상동 314,37.48987335,126.7617479
인천원당고등학교,고등학교,인천광역시,서구,원당동,852-3,37.59689277,126.7048226
안동고등학교,고등학교,경상북도,안동시,정상동,산127-2,36.54382299,128.7600811
웅천고등학교,고등학교,충청남도,보령시,웅천읍,대창리 449-1,36.23446791,126.6041447
김해대청고등학교,고등학교,경상남도,김해시,대청동,320-4,35.18792102,128.8005179
김제고등학교,고등학교,전북특별자치도,김제시,신풍동,345-1,35.79107768,126.8970893
영동일고등학교,고등학교,서울특별시,송파구,잠실동,35-1,37.510034,127.089867
영도여자고등학교,고등학교,부산광역시,영도구,동삼동,514-18,35.07352806,129.0659942
강호항공고등학교,고등학교,전북특별자치도,고창군,고창읍,덕산리 17,35.425102,126.6999786
완산고등학교,고등학교,전북특별자치도,전주시,완산구,삼천동3가 417,35.80125625,127.0850932
순천강남여자고등학교,고등학교,전라남도,순천시,조례동,561-4,34.96313964,127.5242459
중앙고등학교,고등학교,서울특별시,종로구,계동,1,37.58378822,126.9874726
제주제일고등학교,고등학교,제주특별자치도,제주시,노형동,810,33.48002958,126.4807053
신도고등학교,고등학교,서울특별시,은평구,진관동,242-38,37.62913251,126.9187486
갑천고등학교,고등학교,강원특별자치도,횡성군,갑천면,매일리 600 번지,37.56069062,128.1143746
잠일고등학교,고등학교,서울특별시,송파구,잠실동,19-2,37.514521,127.0825552
동광산업과학고등학교,고등학교,강원특별자치도,고성군,토성면,백촌리 187 번지,38.29445445,128.5429663
길원여자고등학교,고등학교,경상북도,안동시,안막동,산17-5,36.579365,128.7351218
완산여자고등학교,고등학교,전북특별자치도,전주시,완산구,평화동1가 500-1,35.792034,127.138343
예산고등학교,고등학교,충청남도,예산군,예산읍,주교리 125-1,36.67989903,126.8374837
홍익대학교사범대학부속여자고등학교,고등학교,서울특별시,마포구,성산동,산11-60,37.55964474,126.9132084
공주고등학교,고등학교,충청남도,공주시,중학동,137-1,36.44805858,127.1233574
언양고등학교,고등학교,울산광역시,울주군,언양읍,어음리 278,35.56176926,129.1320192
울산중앙여자고등학교,고등학교,울산광역시,중구,반구동,595,35.55458461,129.344155
한국소방마이스터고등학교,고등학교,강원특별자치도,영월군,영월읍,영흥리 805 번지,37.18854543,128.471906
대전송촌고등학교,고등학교,대전광역시,대덕구,송촌동,507,36.36346301,127.4459275
부산중앙고등학교,고등학교,부산광역시,남구,대연동,1778-1,35.139866,129.078635
성산고등학교,고등학교,대구광역시,달서구,용산동,508-2,35.86224357,128.5200481
대진고등학교,고등학교,강원특별자치도,고성군,현내면,초도리 75 번지,38.48548499,128.4334014
은평메디텍고등학교,고등학교,서울특별시,은평구,진관동,86,37.63534652,126.9297048
영천고등학교,고등학교,경상북도,영천시,야사동,178-1,35.97350714,128.944752
서초고등학교,고등학교,서울특별시,서초구,서초동,1504,37.48961169,127.0053783
부산남고등학교,고등학교,부산광역시,영도구,동삼동,592,35.06995196,129.0649669
대양고등학교,고등학교,부산광역시,남구,문현동,303-3,35.13338218,129.0739797
상지대관령고등학교,고등학교,강원특별자치도,평창군,대관령면,횡계리 365-2 번지,37.67215604,128.7047008
서울디지텍고등학교,고등학교,서울특별시,용산구,이태원동,223-15,37.53896942,126.990612
전주한일고등학교,고등학교,전북특별자치도,전주시,완산구,서신동 71-2,35.83124557,127.123632
대전국제통상고등학교,고등학교,대전광역시,중구,문화동,187-1,36.31386261,127.4075368
성덕고등학교,고등학교,광주광역시,광산구,장덕동,1120,35.19585015,126.8174891
한밭고등학교,고등학교,대전광역시,서구,갈마동,370-1,36.34649685,127.3643986
서일고등학교,고등학교,대전광역시,서구,관저동,1978,36.29332636,127.3236362
설화고등학교,고등학교,충청남도,아산시,배방읍,장재리 1441,36.78803293,127.0922409
마송고등학교,고등학교,경기도,김포시,통진읍,마송리 509,37.68722438,126.5936896
전북체육고등학교,고등학교,전북특별자치도,완주군,소양면,해월리 377-19,35.8655498,127.2506488
수락고등학교,고등학교,서울특별시,노원구,상계동,1253,37.682932,127.053571
서울항공비즈니스고등학교,고등학교,서울특별시,강서구,마곡동,731-263,37.56921778,126.8170408
군산영광여자고등학교,고등학교,전북특별자치도,군산시,중앙로2가,135-2,35.982677,126.7142607
당진정보고등학교,고등학교,충청남도,당진시,채운동,315-1,36.89207275,126.6246863
매성고등학교,고등학교,전라남도,나주시,빛가람동,95,35.028607,126.7917708
송내고등학교,고등학교,경기도,부천시,소사구,송내동 695,37.48678546,126.7453518
세그루패션디자인고등학교,고등학교,서울특별시,도봉구,쌍문동,263,37.65634868,127.0268766
문정여자고등학교,고등학교,광주광역시,북구,오치동,5-12,35.18919758,126.9194511
강릉문성고등학교,고등학교,강원특별자치도,강릉시,지변동,54,37.77563062,128.8700327
한국주얼리고등학교,고등학교,인천광역시,서구,백석동,92,37.58164872,126.6730504
신라고등학교,고등학교,경상북도,경주시,충효동,191,35.83985237,129.1875967
지리산고등학교,고등학교,경상남도,산청군,단성면,호리 523,35.23889917,127.8959409
용남고등학교,고등학교,경상남도,사천시,용현면,선진리 67,35.04419447,128.0643803
심원고등학교,고등학교,경기도,부천시,원미구,중동 1074-1,37.50469091,126.7791341
강일여자고등학교,고등학교,강원특별자치도,강릉시,교동,1133-2,37.764332,128.8870353
대건고등학교,고등학교,대구광역시,달서구,월성동,247,35.833952,128.5281133
공주금성여자고등학교,고등학교,충청남도,공주시,웅진동,277,36.45792388,127.1126169
이천세무고등학교,고등학교,경기도,이천시,설성면,금당리 175,37.13607492,127.5188855
학산고등학교,고등학교,전북특별자치도,정읍시,상동,84,35.56034415,126.8753952
백송고등학교,고등학교,경기도,고양시,일산서구,덕이동 753-11,37.69741041,126.742303
서천고등학교,고등학교,충청남도,서천군,서천읍,사곡리 203,36.08673881,126.6902854
소명여자고등학교,고등학교,경기도,부천시,원미구,소사동 2-7,37.48782298,126.7913100326
삼성고등학교,고등학교,서울특별시,관악구,신림동,222,37.46913998,126.943644
남창고등학교,고등학교,울산광역시,울주군,온양읍,운화리 63,35.41477812,129.2772126
정명고등학교,고등학교,경기도,부천시,소사구,심곡본동 768-9,37.4750207,126.7730512
전주상업정보고등학교,고등학교,전북특별자치도,전주시,완산구,중화산동2가 546,35.81067636,127.124988
상원고등학교,고등학교,경기도,부천시,원미구,상동 570-8,37.49839693,126.752333
영일고등학교,고등학교,경상북도,포항시,남구,연일읍 동문리 47-1,35.99550078,129.3534252
성도고등학교,고등학교,부산광역시,북구,구포동,867,35.19397545,129.0054379
혜화여자고등학교,고등학교,서울특별시,강북구,수유동,468-43,37.63130842,127.013212
기린고등학교,고등학교,강원특별자치도,인제군,기린면,현리 765 번지,37.94620605,128.3116900249
고산고등학교,고등학교,전북특별자치도,완주군,고산면,서봉리 689,35.97989881,127.2016599541
군서고등학교,고등학교,경기도,시흥시,정왕동,1808-1,37.34918175,126.7425022
청주신흥고등학교,고등학교,충청북도,청주시,청원구,율량동 516,36.66965116,127.4965194
삼일고등학교,고등학교,강원특별자치도,삼척시,남양동,185 번지,37.432476,129.1652028
덕신고등학교,고등학교,인천광역시,강화군,강화읍,국화리 243-2,37.74487949,126.472799
호산고등학교,고등학교,대구광역시,달서구,호산동,357-59,35.8490573,128.4818071
일신여자고등학교,고등학교,충청북도,청주시,상당구,탑동 185-1,36.62692783,127.4968969
횡성여자고등학교,고등학교,강원특별자치도,횡성군,횡성읍,입석리 194-2,37.47628279,127.9817813
창선고등학교,고등학교,경상남도,남해군,창선면,상죽리 170,34.85749552,128.0122318
부산동고등학교,고등학교,부산광역시,부산진구,전포동,445-1,35.15326954,129.0712527
점동고등학교,고등학교,경기도,여주시,점동면,청안리 122,37.20577103,127.6639193
경남외국어고등학교,고등학교,경상남도,양산시,어곡동,1427-1,35.39712542,129.013424
선사고등학교,고등학교,서울특별시,강동구,암사동,448,37.55631588,127.1357756
광주체육고등학교,고등학교,광주광역시,북구,운암동,184,35.18250305,126.8794162
성수여자고등학교,고등학교,강원특별자치도,춘천시,낙원동,45 번지,37.88014296,127.7238683
연평고등학교,고등학교,인천광역시,옹진군,연평면,연평리 437-1,37.664129,125.7010233
원미고등학교,고등학교,경기도,부천시,원미구,중동 1098,37.4982099,126.782733
장기고등학교,고등학교,경기도,김포시,장기동,1654,37.64014174,126.6682283
경남체육고등학교,고등학교,경상남도,진주시,진성면,가진리 32,35.20369991,128.221603
서해삼육고등학교,고등학교,충청남도,홍성군,광천읍,광천리 165,36.50662283,126.6269267
완주고등학교,고등학교,전북특별자치도,완주군,봉동읍,장기리 153,35.94076736,127.1662965
화정고등학교,고등학교,경기도,고양시,덕양구,화정동 938,37.63621861,126.8275231
광주자연과학고등학교,고등학교,광주광역시,북구,오치동,5,35.19084274,126.9154959
부산공업고등학교,고등학교,부산광역시,남구,대연동,918-1,35.13016741,129.0876872
동주여자고등학교,고등학교,부산광역시,중구,광복동3가,3-1,35.100971,129.0313539
대전과학고등학교,고등학교,대전광역시,유성구,구성동,19-2,36.37419466,127.3714358
문현고등학교,고등학교,서울특별시,송파구,장지동,838,37.48131355,127.1287623
수원고등학교,고등학교,경기도,수원시,팔달구,매교동 283-29,37.26713365,127.0174147
공주영명고등학교,고등학교,충청남도,공주시,중동,318,36.4519602,127.1278725
울산과학고등학교,고등학교,울산광역시,울주군,상북면,산전리 30,35.59864145,129.1015714
경남예술고등학교,고등학교,경상남도,진주시,장재동,417-2,35.21654607,128.1032775
양정고등학교,고등학교,서울특별시,양천구,목동,911-2,37.53539226,126.8877343
부석고등학교,고등학교,충청남도,서산시,부석면,취평리 550,36.71916922,126.4011757
경북체육고등학교,고등학교,경상북도,경산시,옥곡동,466-1,35.81222619,128.7380534
신현고등학교,고등학교,서울특별시,중랑구,상봉동,482,37.60524904,127.0929499
경혜여자고등학교,고등학교,부산광역시,북구,구포동,3,35.20418761,129.0105038
동일여자고등학교,고등학교,서울특별시,금천구,시흥동,산100-4,37.45193626,126.9158199
보성여자고등학교,고등학교,서울특별시,용산구,용산동2가,1-1123,37.54308154,126.9842842
한겨레고등학교,고등학교,경기도,안성시,죽산면,칠장리 10-1,37.03064101,127.4226896
부산서여자고등학교,고등학교,부산광역시,서구,동대신동2가,75-2,35.113402,129.0213157
서상고등학교,고등학교,경상남도,함양군,서상면,도천리 1047-6,35.67710456,127.6896788
영등포여자고등학교,고등학교,서울특별시,영등포구,신길동,184-3,37.51538845,126.9153563
세정고등학교,고등학교,부산광역시,부산진구,양정동,16-185,35.16997026,129.0793616
창원남산고등학교,고등학교,경상남도,창원시,성산구,가음동 27,35.20347689,128.7002997
경기기계공업고등학교,고등학교,서울특별시,노원구,하계동,78,37.63224005,127.0749285
김포제일공업고등학교,고등학교,경기도,김포시,북변동,477,37.620733,126.7107549
충남디자인예술고등학교,고등학교,충청남도,서천군,한산면,성외리 144,36.08934788,126.8017061
퇴계원고등학교,고등학교,경기도,남양주시,퇴계원읍,퇴계원리 44-5,37.660394,127.1450751
충북생명산업고등학교,고등학교,충청북도,보은군,보은읍,교사리 123,36.49099549,127.7154662
고창북고등학교,고등학교,전북특별자치도,고창군,흥덕면,흥덕리 157-1,35.51504641,126.6979364
조선대학교여자고등학교,고등학교,광주광역시,동구,지산동,491-3,35.146402,126.9327203
환일고등학교,고등학교,서울특별시,마포구,아현동,393-1,37.55360652,126.9628021
청주하이텍고등학교,고등학교,충청북도,청주시,서원구,분평동 1257,36.60921436,127.4923679
비아고등학교,고등학교,광주광역시,광산구,월계동,904,35.22274246,126.8363851
포산고등학교,고등학교,대구광역시,달성군,현풍읍,중리 407-2,35.69081479,128.447956
거창대성고등학교,고등학교,경상남도,거창군,거창읍,상림리 362,35.69032647,127.9040224
거창중앙고등학교,고등학교,경상남도,거창군,거창읍,가지리 383,35.69308263,127.9029093
아림고등학교,고등학교,경상남도,거창군,거창읍,김천리 150,35.6776769,127.9132959
경남자영고등학교,고등학교,경상남도,사천시,정동면,화암리 746-1,35.07844229,128.1004126
천안두정고등학교,고등학교,충청남도,천안시,서북구,두정동 2006,36.83515306,127.130402
사천여자고등학교,고등학교,경상남도,사천시,정동면,고읍리 438-37,35.080453,128.0883888
심학고등학교,고등학교,경기도,파주시,동패동,495-1,37.71335038,126.7222713
세명고등학교,고등학교,충청북도,제천시,신월동,566,37.18313024,128.1977907
첨단고등학교,고등학교,광주광역시,광산구,월계동,864-11,35.206729,126.8375619
장곡고등학교,고등학교,경기도,시흥시,장곡동,799,37.38022615,126.7821136
천안여자상업고등학교,고등학교,충청남도,천안시,동남구,봉명동 216-1,36.803678,127.1365589
정선고등학교,고등학교,강원특별자치도,정선군,정선읍,153-1 번지,37.37821677,128.6609171
한별고등학교,고등학교,전북특별자치도,완주군,삼례읍,삼례리 864-1,35.90780171,127.0723723
지산고등학교,고등학교,부산광역시,금정구,부곡동,8-11,35.243376,129.098813
애월고등학교,고등학교,제주특별자치도,제주시,애월읍,애월리 8-1,33.4602189,126.3333962
이순신고등학교,고등학교,충청남도,아산시,배방읍,세교리 1589,36.78273228,127.0987736
서울아이티고등학교,고등학교,서울특별시,노원구,중계동,504,37.64241844,127.0624493
원화여자고등학교,고등학교,대구광역시,달서구,성당동,670-30,35.84830827,128.5491224
장충고등학교,고등학교,서울특별시,중구,신당동,432-460,37.5535149,127.006415
전주영생고등학교,고등학교,전북특별자치도,전주시,완산구,효자동3가 1191-1,35.81609983,127.0919874
대덕고등학교,고등학교,대전광역시,유성구,도룡동,384,36.38757339,127.3816844
백암고등학교,고등학교,서울특별시,양천구,신정동,733,37.51219626,126.844377
부천북고등학교,고등학교,경기도,부천시,원미구,도당동 54,37.518451,126.789034
보람고등학교,고등학교,세종특별자치시,보람동,664-33,,36.47744952,127.2842037
세종과학고등학교,고등학교,서울특별시,구로구,궁동,232,37.4975694,126.8273517
군산고등학교,고등학교,전북특별자치도,군산시,동흥남동,402-30,35.97394441,126.7195894
김해수남고등학교,고등학교,경상남도,김해시,율하동,1402,35.16822931,128.8167315
진양고등학교,고등학교,경상남도,진주시,충무공동,273-3,35.1757894,128.152504
울산애니원고등학교,고등학교,울산광역시,중구,성안동,480,35.57871758,129.3211134
동아여자고등학교,고등학교,광주광역시,남구,봉선동,11,35.12584749,126.922075
한일여자고등학교,고등학교,경상남도,창원시,마산회원구,양덕동 888-9,35.22957678,128.5786542
불암고등학교,고등학교,서울특별시,노원구,중계동,364-10,37.64915853,127.0803058
세종여자고등학교,고등학교,세종특별자치시,조치원읍,서창리,167,36.60790871,127.2879076
세경고등학교,고등학교,경기도,파주시,파주읍,연풍리 445,37.83131463,126.8299018
해남고등학교,고등학교,전라남도,해남군,해남읍,구교리 283,34.57669909,126.5950833
광남고등학교,고등학교,서울특별시,광진구,광장동,554-11,37.54151472,127.1012139
김해분성여자고등학교,고등학교,경상남도,김해시,삼계동,1442-3,35.26662385,128.8738687
여산고등학교,고등학교,전북특별자치도,익산시,여산면,두여리 716-1,36.06692491,127.0828426
한국호텔관광고등학교,고등학교,충청북도,단양군,단성면,북하리 62,36.92655735,128.3385084
충주상업고등학교,고등학교,충청북도,충주시,호암동,33,36.94672186,127.937922
음성고등학교,고등학교,충청북도,음성군,음성읍,읍내리 503-7,36.93377561,127.6862476
서천고등학교,고등학교,경기도,용인시,기흥구,농서동 401,37.23410552,127.069476
용인고등학교,고등학교,부산광역시,동래구,명장동,557-2,35.21451237,129.094947
진안공업고등학교,고등학교,전북특별자치도,진안군,진안읍,군상리 1054,35.800566,127.4167038
전주예술고등학교,고등학교,전북특별자치도,완주군,구이면,항가리 499-3,35.72023332,127.1087873
송곡관광고등학교,고등학교,서울특별시,중랑구,망우동,252-1,37.60668904,127.1051455
대전전민고등학교,고등학교,대전광역시,유성구,전민동,460-2,36.39833683,127.3983327
목포마리아회고등학교,고등학교,전라남도,목포시,용당동,845-1,34.81310262,126.3945838
영진고등학교,고등학교,대구광역시,북구,복현동,332-1,35.89461538,128.6220754
대청고등학교,고등학교,인천광역시,옹진군,대청면,대청리 1143-2,37.8325852,124.6939792
여주자영농업고등학교,고등학교,경기도,여주시,능서면,왕대리 973-1,37.295901,127.621893
김해영운고등학교,고등학교,경상남도,김해시,삼방동,755,35.25467462,128.905718
서울매그넷고등학교,고등학교,서울특별시,금천구,시흥동,산100-4,37.45193626,126.9158199
대전신일여자고등학교,고등학교,대전광역시,중구,부사동,379-1,36.30866941,127.4334058
인천재능고등학교,고등학교,인천광역시,동구,송림동,37-382,37.47553313,126.6504734
고림고등학교,고등학교,경기도,용인시,처인구,고림동 650-1,37.24717747,127.2195504
신탄진고등학교,고등학교,대전광역시,대덕구,신탄진동,149-5,36.44970668,127.4359505
구암고등학교,고등학교,서울특별시,관악구,봉천동,1712-25,37.49244195,126.949625
청평고등학교,고등학교,경기도,가평군,청평면,청평리 70-5,37.73148416,127.4150054
상문고등학교,고등학교,서울특별시,서초구,방배동,1000-2,37.47975543,127.0039168
화곡보건경영고등학교,고등학교,서울특별시,강서구,내발산동,715,37.5484056,126.8326573
대원여자고등학교,고등학교,서울특별시,광진구,중곡동,176-124,37.562496,127.089405
송호고등학교,고등학교,경기도,안산시,상록구,이동 665,37.31050267,126.8452044
사우고등학교,고등학교,경기도,김포시,사우동,908,37.619238,126.7234700022
도계전산정보고등학교,고등학교,강원특별자치도,삼척시,도계읍,도계리 256 번지,37.231526,129.0479747
강원대학교사범대학부설고등학교,고등학교,강원특별자치도,춘천시,후평동,1-6,37.87343185,127.7475973
함평고등학교,고등학교,전라남도,함평군,함평읍,진양리 753,35.10453207,126.4922955
반곡고등학교,고등학교,세종특별자치시,반곡동,63-3,,36.4965666,127.316872
수주고등학교,고등학교,경기도,부천시,오정구,고강동 275-11,37.5324198,126.815192
안성고등학교,고등학교,전북특별자치도,무주군,안성면,사전리 1238,35.87032408,127.6537838
군산동고등학교,고등학교,전북특별자치도,군산시,개정동,171,35.97056499,126.767976
여천고등학교,고등학교,전라남도,여수시,선원동,54,34.77142321,127.6624054
선린인터넷고등학교,고등학교,서울특별시,용산구,청파동3가,131-2,37.54296872,126.9649361
삼각산고등학교,고등학교,서울특별시,강북구,미아동,812-4,37.61628573,127.020133
영등포고등학교,고등학교,서울특별시,동작구,대방동,13-2,37.5080846,126.9331435
창원문성고등학교,고등학교,경상남도,창원시,의창구,두대동 108-2,35.23490377,128.6617147
광영고등학교,고등학교,전라남도,광양시,광영동,410,34.96187544,127.7146684
부안고등학교,고등학교,전북특별자치도,부안군,부안읍,봉덕리 726-10,35.71604257,126.7289178
인천미래생활고등학교,고등학교,인천광역시,부평구,부개동,499-9,37.50056712,126.7426846
성남여자고등학교,고등학교,경기도,성남시,중원구,성남동 2877,37.43615488,127.144609
광주동신고등학교,고등학교,광주광역시,북구,풍향동,475,35.16943786,126.9223461
경복고등학교,고등학교,서울특별시,종로구,청운동,89-9,37.58594567,126.9715109
삼랑진고등학교,고등학교,경상남도,밀양시,삼랑진읍,송지리 173-1,35.40106868,128.8428599
진해용원고등학교,고등학교,경상남도,창원시,진해구,용원동 1185,35.10145141,128.8190397
법성고등학교,고등학교,전라남도,영광군,법성면,대덕리 341-1,35.35954595,126.4574606
청덕고등학교,고등학교,경기도,용인시,기흥구,청덕동 524,37.29233368,127.143917
운남고등학교,고등학교,광주광역시,광산구,운남동,794-2,35.17545386,126.8163057
혜화여자고등학교,고등학교,부산광역시,동래구,명장동,산13,35.2022947,129.1107228
금오여자고등학교,고등학교,경상북도,구미시,지산동,산15,36.14245673,128.3459186
양지고등학교,고등학교,경기도,안산시,단원구,고잔동 713,37.30918755,126.8220847
만경여자고등학교,고등학교,전북특별자치도,김제시,만경읍,만경리 404-2,35.853689,126.8147776
판교고등학교,고등학교,경기도,성남시,분당구,삼평동 706,37.40514882,127.114773
경산고등학교,고등학교,경상북도,경산시,계양동,112-3,35.82428626,128.7484647
전주근영여자고등학교,고등학교,전북특별자치도,전주시,완산구,중화산동2가 247,35.82030227,127.1246416
송양고등학교,고등학교,경기도,의정부시,낙양동,759,37.75310988,127.1065649
성보고등학교,고등학교,서울특별시,관악구,신림동,1690,37.48072837,126.9209573
공주여자고등학교,고등학교,충청남도,공주시,금학동,241,36.44004369,127.1202748
발안바이오과학고등학교,고등학교,경기도,화성시,향남읍,평리 62-1,37.13293438,126.9170045
경일관광경영고등학교,고등학교,경기도,안산시,단원구,선부동 1053,37.34794915,126.8049706
여수공업고등학교,고등학교,전라남도,여수시,동산동,550,34.74436688,127.7363763
남원여자고등학교,고등학교,전북특별자치도,남원시,왕정동,100,35.41117242,127.3704283
충원고등학교,고등학교,충청북도,충주시,엄정면,용산리 387-1,37.08806988,127.910885
잠실고등학교,고등학교,서울특별시,송파구,신천동,17-1,37.52293043,127.106515
제주중앙여자고등학교,고등학교,제주특별자치도,제주시,이도이동,1988-1,33.49130755,126.539486
창덕여자고등학교,고등학교,서울특별시,송파구,방이동,89-6,37.51624351,127.1402736
배영고등학교,고등학교,전북특별자치도,정읍시,흑암동,520,35.60126026,126.8116536
무룡고등학교,고등학교,울산광역시,북구,연암동,1149,35.58665093,129.3616127
곡성고등학교,고등학교,전라남도,곡성군,곡성읍,읍내리 446-1,35.28511237,127.2923427
마산중앙고등학교,고등학교,경상남도,창원시,마산합포구,신월동 33-60,35.19192849,128.5584266
대진전자통신고등학교,고등학교,부산광역시,금정구,장전동,657-13,35.24150549,129.0818052
효성고등학교,고등학교,경기도,성남시,수정구,심곡동 321,37.4502211,127.1040748
서울방송고등학교,고등학교,서울특별시,성동구,옥수동,556-1,37.54777448,127.0110374
인천체육고등학교,고등학교,인천광역시,서구,청라동,5-3,37.54592504,126.6094512
우석여자고등학교,고등학교,경상북도,상주시,계산동,330-1,36.42809793,128.1635092
여수고등학교,고등학교,전라남도,여수시,수정동,404-1,34.74635818,127.7453949
정읍여자고등학교,고등학교,전북특별자치도,정읍시,상동,719-2,35.55916029,126.8711038
한림디자인고등학교,고등학교,충청북도,충주시,교현동,490,36.98004113,127.9390387
경남항공고등학교,고등학교,경상남도,고성군,고성읍,교사리 338-5,34.97853358,128.3073889
대원고등학교,고등학교,대구광역시,달성군,화원읍,본리리 1-1,35.80668948,128.5070767
한빛고등학교,고등학교,경기도,파주시,야당동,1013,37.7134805,126.7548886
동우여자고등학교,고등학교,경기도,수원시,장안구,이목동 241-9,37.31981901,126.9824035
신도고등학교,고등학교,부산광역시,해운대구,좌동,1344,35.17207941,129.1674214
부산마케팅고등학교,고등학교,부산광역시,부산진구,전포동,487,35.15108044,129.070453
부산문화여자고등학교,고등학교,부산광역시,해운대구,우동,1025-127,35.16597407,129.1435338
미래산업과학고등학교,고등학교,서울특별시,노원구,중계동,369-3,37.65877948,127.0784407
춘천한샘고등학교,고등학교,강원특별자치도,춘천시,신북읍,율문리 316 번지,37.92643653,127.7514341
청도고등학교,고등학교,경상북도,청도군,청도읍,고수리 840-2,35.64073632,128.7479311
남원서진여자고등학교,고등학교,전북특별자치도,남원시,월락동,173,35.42573431,127.4065766
영천여자고등학교,고등학교,경상북도,영천시,성내동,374,35.96231029,128.9201492
해운대관광고등학교,고등학교,부산광역시,해운대구,우동,산88-1,35.17052556,129.1571278
서귀포고등학교,고등학교,제주특별자치도,서귀포시,동홍동,1460-6,33.25701725,126.563108
금천고등학교,고등학교,서울특별시,금천구,시흥동,산24-4,37.444807,126.9049018
창동고등학교,고등학교,서울특별시,도봉구,창동,694-10,37.65103577,127.0388191
송악고등학교,고등학교,충청남도,당진시,송악읍,가학리 395,36.91658244,126.7047622
춘천고등학교,고등학교,강원특별자치도,춘천시,소양로3가,149 번지,37.88197381,127.7229922
성원고등학교,고등학교,전북특별자치도,남원시,왕정동,267,35.41521176,127.370125
경복여자고등학교,고등학교,서울특별시,강서구,등촌동,131,37.55782183,126.8505957
대전제일고등학교,고등학교,대전광역시,서구,도마동,155-20,36.313315,127.3723589
선정고등학교,고등학교,서울특별시,은평구,갈현동,227-5,37.61870451,126.9090316
김해외국어고등학교,고등학교,경상남도,김해시,율하동,262,35.170826,128.8046616
성심여자고등학교,고등학교,서울특별시,용산구,원효로4가,1-1,37.53420937,126.9545934
경안고등학교,고등학교,경기도,안산시,단원구,고잔동 677,37.32519093,126.8349272
충남과학고등학교,고등학교,충청남도,공주시,반포면,마암리 702,36.42737971,127.2187102
서울신정고등학교,고등학교,서울특별시,강서구,화곡동,477-1,37.53838143,126.8570622
장수고등학교,고등학교,전북특별자치도,장수군,장수읍,선창리 382-1,35.65594323,127.5223725
대륜고등학교,고등학교,대구광역시,수성구,만촌동,산241,35.85168394,128.6567622
전인고등학교,고등학교,강원특별자치도,춘천시,동산면,원창리 923-1,37.78791012,127.751207
함덕고등학교,고등학교,제주특별자치도,제주시,조천읍,신흥리 215,33.54458376,126.6514373
처인고등학교,고등학교,경기도,용인시,처인구,남사읍 아곡리 706,37.15100139,127.170645
정동고등학교,고등학교,대구광역시,동구,용계동,산38-6,35.87674854,128.6928649
세종고등학교,고등학교,경상남도,밀양시,가곡동,566-1,35.47378054,128.7637125
군산중앙여자고등학교,고등학교,전북특별자치도,군산시,수송동,752-1,35.968173,126.711493
중경고등학교,고등학교,서울특별시,용산구,이촌동,300-302,37.5176804,126.9756383
삼천포고등학교,고등학교,경상남도,사천시,벌리동,10,34.94270825,128.084824
인창고등학교,고등학교,서울특별시,서대문구,충정로2가,70,37.56488513,126.9640232
거제제일고등학교,고등학교,경상남도,거제시,거제면,서정리 540,34.85197194,128.5867996
주문진고등학교,고등학교,강원특별자치도,강릉시,주문진읍,교항리 48-194 번지,37.88135669,128.8301949
운산고등학교,고등학교,경기도,광명시,소하동,1285,37.45431392,126.8833501
경북자연과학고등학교,고등학교,경상북도,상주시,공성면,산현리 873,36.27931281,128.0942764
경상고등학교,고등학교,경상남도,창원시,의창구,소계동 473,35.26096745,128.6005154
모락고등학교,고등학교,경기도,의왕시,오전동,산58-10,37.369971,126.9670058
현대공업고등학교,고등학교,울산광역시,동구,동부동,166-4,35.53866837,129.4308887
예림디자인고등학교,고등학교,서울특별시,구로구,궁동,110-1,37.50035507,126.827683
미림여자고등학교,고등학교,서울특별시,관악구,신림동,1557-1,37.4661018,126.9319279
학성고등학교,고등학교,울산광역시,남구,신정동,1674,35.5316044,129.300327
울산외국어고등학교,고등학교,울산광역시,북구,중산동,203-3,35.65878666,129.3541754
부산진여자고등학교,고등학교,부산광역시,부산진구,양정동,산31-3,35.16950074,129.0750971
배정미래고등학교,고등학교,부산광역시,남구,문현동,1098-5,35.13109322,129.0680868
서울예술고등학교,고등학교,서울특별시,종로구,평창동,217,37.60575682,126.9678907
제주고등학교,고등학교,제주특별자치도,제주시,노형동,607,33.47237342,126.4816709
대전동신과학고등학교,고등학교,대전광역시,동구,비룡동,555-1,36.33285837,127.4743643
강원외국어고등학교,고등학교,강원특별자치도,양구군,양구읍,하리 500번지,38.11982808,127.9905164
능주고등학교,고등학교,전라남도,화순군,능주면,잠정리 106,34.98516412,126.9590427
영복여자고등학교,고등학교,경기도,수원시,팔달구,화서동 7-10,37.28562481,127.0016721
성일정보고등학교,고등학교,경기도,성남시,중원구,성남동 2876,37.43487853,127.1448205
함열고등학교,고등학교,전북특별자치도,익산시,함열읍,와리 530-1,36.08260778,126.9589768
위도고등학교,고등학교,전북특별자치도,부안군,위도면,진리 39-1,35.60490699,126.2961849
용호고등학교,고등학교,경기도,군포시,당동,875,37.3418258,126.9393348
전북유니텍고등학교,고등학교,전북특별자치도,장수군,장계면,장계리 534-16,35.73290982,127.5819498
서울외국어고등학교,고등학교,서울특별시,도봉구,창동,35,37.64578079,127.0515087
화천정보산업고등학교,고등학교,강원특별자치도,화천군,화천읍,하리 76 번지,38.10773828,127.7047587
관악고등학교,고등학교,서울특별시,영등포구,양평동2가,12-1,37.52179166,126.8829236
상산전자고등학교,고등학교,경상북도,상주시,계산동,482-3,36.43009163,128.161317
분당아람고등학교,고등학교,경기도,성남시,분당구,야탑동 216,37.41377813,127.1386738
횡성고등학교,고등학교,강원특별자치도,횡성군,횡성읍,읍하리 200 번지,37.48622028,127.9789132
성화여자고등학교,고등학교,대구광역시,북구,복현동,540-1,35.9032298,128.620265
토평고등학교,고등학교,경기도,구리시,토평동,962,37.589354,127.143185
설천고등학교,고등학교,전북특별자치도,무주군,설천면,소천리 907-1,36.01252702,127.7881231
명진고등학교,고등학교,광주광역시,광산구,수완동,1771,35.18741842,126.8301197
충북상업정보고등학교,고등학교,충청북도,청주시,청원구,사천동 236-1,36.66459021,127.4792673
인월고등학교,고등학교,전북특별자치도,남원시,인월면,서무리 678-2,35.46495634,127.6027247
효성여자고등학교,고등학교,대구광역시,달서구,월성동,247,35.83430422,128.5284024
순천고등학교,고등학교,전라남도,순천시,인제동,80,34.94628861,127.4871706
진해중앙고등학교,고등학교,경상남도,창원시,진해구,경화동 781-22,35.16163171,128.6893971
성남테크노과학고등학교,고등학교,경기도,성남시,중원구,하대원동 153,37.42762312,127.1477126
광성고등학교,고등학교,서울특별시,마포구,신수동,91-20,37.54869756,126.9359696
서라벌고등학교,고등학교,서울특별시,노원구,중계동,313,37.64525653,127.0758406
운암고등학교,고등학교,대구광역시,북구,구암동,787,35.938834,128.5637524
진주중앙고등학교,고등학교,경상남도,진주시,하대동,294-1,35.19400986,128.1190142
충남고등학교,고등학교,대전광역시,서구,둔산동,1513,36.34997951,127.3942722
제주여자고등학교,고등학교,제주특별자치도,제주시,아라일동,2360,33.4833337,126.5397621
성동공업고등학교,고등학교,서울특별시,중구,흥인동,1-1,37.56936315,127.017292
현대고등학교,고등학교,울산광역시,동구,서부동,238-17,35.52521961,129.4216686
성남외국어고등학교,고등학교,경기도,성남시,분당구,백현동 376-1,37.37860539,127.096569
산남고등학교,고등학교,충청북도,청주시,서원구,산남동 1082,36.608587,127.4697341
대구일과학고등학교,고등학교,대구광역시,동구,각산동,1046,35.88656282,128.7226999
덕암정보고등학교,고등학교,전북특별자치도,김제시,서암동,1,35.81309241,126.8870829
보인고등학교,고등학교,서울특별시,송파구,오금동,162,37.4975692,127.1395178
영광고등학교,고등학교,전라남도,영광군,영광읍,녹사리 299,35.26694504,126.5065896
대전예술고등학교,고등학교,대전광역시,유성구,상대동,234-1,36.34695405,127.3335599725
금정여자고등학교,고등학교,부산광역시,금정구,서동,461-2,35.22026157,129.1011474
인천영종고등학교,고등학교,인천광역시,중구,운서동,3103-8,37.48531899,126.5016825
중앙여자고등학교,고등학교,서울특별시,서대문구,북아현동,190-1,37.56317672,126.9540593
성주고등학교,고등학교,경상북도,성주군,성주읍,금산리 1158,35.93803345,128.2746978
단원고등학교,고등학교,경기도,안산시,단원구,고잔동 426,37.3273054,126.8239977
함현고등학교,고등학교,경기도,시흥시,정왕동,1878-9,37.36619361,126.7384564
적성융합고등학교,고등학교,경기도,파주시,적성면,마지리 156-1,37.95431778,126.9145345
홍천고등학교,고등학교,강원특별자치도,홍천군,홍천읍,희망리 20-6,37.69793823,127.8907053
동문고등학교,고등학교,대구광역시,수성구,만촌동,82-4,35.87730148,128.6510319
서울공업고등학교,고등학교,서울특별시,동작구,대방동,390-5,37.50190126,126.922383
설악고등학교,고등학교,강원특별자치도,속초시,조양동,589-7 번지,38.18521306,128.5733338
임자고등학교,고등학교,전라남도,신안군,임자면,대기리 353,35.090495,126.0997368
동아마이스터고등학교,고등학교,대전광역시,동구,자양동,2,36.34466315,127.4545998
성암국제무역고등학교,고등학교,서울특별시,강북구,미아동,320-1,37.62041353,127.0239059
한국삼육고등학교,고등학교,서울특별시,노원구,공릉동,26-38,37.64335737,127.1088503
산서고등학교,고등학교,전북특별자치도,장수군,산서면,동화리 73,35.58388638,127.3990162
북일고등학교,고등학교,충청남도,천안시,동남구,신부동 245,36.83200106,127.1585854
영산성지고등학교,고등학교,전라남도,영광군,백수읍,길용리 77,35.32251596,126.4361802
오상고등학교,고등학교,경상북도,구미시,장천면,상장리 700,36.12502535,128.4961942
한양공업고등학교,고등학교,서울특별시,중구,신당동,224-2,37.5658716,127.0114433
동명고등학교,고등학교,경상북도,칠곡군,동명면,송산리 111,35.98517727,128.549309
창원명지여자고등학교,고등학교,경상남도,창원시,의창구,명서동 32,35.2518467,128.6489261
유한공업고등학교,고등학교,서울특별시,구로구,항동,1-7,37.487914,126.8232907
미추홀외국어고등학교,고등학교,인천광역시,남동구,논현동,767-2,37.38961737,126.7244414
하나고등학교,고등학교,서울특별시,은평구,진관동,134-2,37.64163759,126.9369303
세종대성고등학교,고등학교,세종특별자치시,어진동,680,,36.49713137,127.2546814
오송고등학교,고등학교,충청북도,청주시,흥덕구,오송읍 연제리 727,36.62962002,127.3259846
숭문고등학교,고등학교,서울특별시,마포구,대흥동,28-14,37.550873,126.9457689
광주여자상업고등학교,고등학교,광주광역시,남구,진월동,406,35.11548253,126.8935344
보광고등학교,고등학교,경상남도,양산시,하북면,순지리 125-5,35.4918218,129.0873838
울산에너지고등학교,고등학교,울산광역시,북구,화봉동,453,35.590196,129.3693918
온산고등학교,고등학교,울산광역시,울주군,온산읍,덕신리 산81-4,35.43895778,129.3178419
청주외국어고등학교,고등학교,충청북도,청주시,흥덕구,복대동 2444,36.6255022,127.4444905
달구벌고등학교,고등학교,대구광역시,동구,덕곡동,75-5,35.99454114,128.6108132
문정고등학교,고등학교,서울특별시,송파구,문정동,90,37.4851785,127.1266921
인상고등학교,고등학교,전북특별자치도,정읍시,신태인읍,화호리 251-3,35.71787771,126.8392028
진광고등학교,고등학교,강원특별자치도,원주시,우산동,307-1 번지,37.37291539,127.9358278
국립국악고등학교,고등학교,서울특별시,강남구,개포동,1272,37.4762308,127.0514732
시흥능곡고등학교,고등학교,경기도,시흥시,능곡동,485,37.37393847,126.8119474
춘천기계공업고등학교,고등학교,강원특별자치도,춘천시,후평동,공단 4길 51,37.89192587,127.7464284
계룡디지텍고등학교,고등학교,대전광역시,동구,삼성동,104-1,36.33762549,127.4344749
삼호고등학교,고등학교,전라남도,영암군,삼호읍,용앙리 261,34.7511684,126.4695883
창원경일고등학교,고등학교,경상남도,창원시,성산구,중앙동 115,35.22658657,128.6612134
신목고등학교,고등학교,서울특별시,양천구,신정동,330-3,37.51290943,126.873607
조도고등학교,고등학교,전라남도,진도군,조도면,창유리 1031,34.31155214,126.0432459
현풍고등학교,고등학교,대구광역시,달성군,현풍읍,성하리 497,35.6985296,128.4382371
의령여자고등학교,고등학교,경상남도,의령군,가례면,가례리 265-1,35.32416174,128.2453647
부산보건고등학교,고등학교,부산광역시,영도구,영선동4가,200,35.081551,129.0412838
양영디지털고등학교,고등학교,경기도,성남시,분당구,서현동 316,37.37401753,127.1400112
경남산업고등학교,고등학교,경상남도,거제시,하청면,하청리 698-1,34.953436,128.6539234
안천고등학교,고등학교,전북특별자치도,진안군,안천면,백화리 1550,35.90029728,127.5601694
이화여자고등학교,고등학교,서울특별시,중구,정동,32-1,37.56617664,126.9713244
성지여자고등학교,고등학교,경상남도,창원시,마산합포구,완월동 206-1,35.19793925,128.5598321
금정전자고등학교,고등학교,부산광역시,금정구,서동,76,35.22173328,129.1073012
경남여자고등학교,고등학교,부산광역시,동구,수정동,558,35.13292384,129.0439489
도초고등학교,고등학교,전라남도,신안군,도초면,수항리 1468,34.7044768,125.951752
창원사파고등학교,고등학교,경상남도,창원시,성산구,사파동 92,35.22158696,128.7045404
상암고등학교,고등학교,서울특별시,마포구,상암동,1659,37.581383,126.8833945
대평고등학교,고등학교,경기도,수원시,장안구,정자동 870-4,37.29535733,126.988126
남원국악예술고등학교,고등학교,전북특별자치도,남원시,월락동,159,35.42595135,127.4055555
군포고등학교,고등학교,경기도,군포시,금정동,870-4,37.35760393,126.9404491
신정고등학교,고등학교,부산광역시,기장군,정관읍,용수리 1357,35.32826001,129.1667905
국제고등학교,고등학교,광주광역시,북구,삼각동,479-1,35.19911446,126.8956123
대구하이텍고등학교,고등학교,대구광역시,달서구,상인동,1-2,35.82324215,128.5386414
다향고등학교,고등학교,전라남도,보성군,보성읍,옥평리 770,34.76382902,127.0920752
혜원여자고등학교,고등학교,서울특별시,중랑구,망우동,519,37.59327987,127.0970427
광운인공지능고등학교,고등학교,서울특별시,노원구,월계동,500,37.61923977,127.0565452
광주소프트웨어마이스터고등학교,고등학교,광주광역시,광산구,송정동,710-3,35.14276897,126.800772
강원과학고등학교,고등학교,강원특별자치도,원주시,태장동,101,37.37542765,127.9731977
진주제일여자고등학교,고등학교,경상남도,진주시,하대동,465,35.19065525,128.1143105
대송고등학교,고등학교,울산광역시,동구,화정동,223,35.50566855,129.4190091
부영여자고등학교,고등학교,전라남도,여수시,안산동,657-1,34.75860431,127.6507122
대전전자디자인고등학교,고등학교,대전광역시,유성구,화암동,174,36.412983,127.3770167
안양예술고등학교,고등학교,경기도,안양시,만안구,안양동 산42-1,37.39580704,126.9114168
양주고등학교,고등학교,경기도,양주시,삼숭동,680-1,37.7949038,127.1074448
광문고등학교,고등학교,경기도,광명시,광명동,492-1,37.46462137,126.8495912
의령고등학교,고등학교,경상남도,의령군,의령읍,동동리 1012,35.32282215,128.2654601
완도수산고등학교,고등학교,전라남도,완도군,완도읍,가용리 8-2,34.32352536,126.7441894
부산백양고등학교,고등학교,부산광역시,북구,구포동,888,35.19695301,128.9975453
은평고등학교,고등학교,서울특별시,은평구,구산동,164,37.60984462,126.905737
진안제일고등학교,고등학교,전북특별자치도,진안군,진안읍,군하리 386,35.7869701,127.4208007
해동고등학교,고등학교,부산광역시,사하구,괴정동,613,35.09285454,128.9904231
인천과학고등학교,고등학교,인천광역시,중구,운서동,3077-1,37.49195555,126.5082571
군산제일고등학교,고등학교,전북특별자치도,군산시,조촌동,84,35.97273147,126.7490296
전주기전여자고등학교,고등학교,전북특별자치도,전주시,완산구,효자동3가 691-2,35.82623909,127.100655
서울문화고등학교,고등학교,서울특별시,도봉구,방학동,723-17,37.66413143,127.0472858
오창고등학교,고등학교,충청북도,청주시,청원구,오창읍 괴정리 7-3,36.7341991,127.4616514
흥진고등학교,고등학교,경기도,군포시,금정동,875-7,37.35237537,126.9291997
지명고등학교,고등학교,전라남도,신안군,지도읍,읍내리 404-4,35.06337372,126.2033743
사직고등학교,고등학교,부산광역시,동래구,사직동,632-8,35.20362214,129.0559786
금산고등학교,고등학교,충청남도,금산군,금산읍,중도리 166,36.10630313,127.4943581
매원고등학교,고등학교,경기도,수원시,영통구,매탄동 1229-11,37.26565476,127.0545337
배명고등학교,고등학교,서울특별시,송파구,삼전동,172-1,37.4976895,127.0958118
강경고등학교,고등학교,충청남도,논산시,강경읍,남교리 48,36.1596285,127.0198871
청북고등학교,고등학교,경기도,평택시,청북읍,옥길리 1145,37.022561,126.9198247
하동여자고등학교,고등학교,경상남도,하동군,하동읍,광평리 442,35.06279872,127.7472305
남해정보산업고등학교,고등학교,경상남도,남해군,고현면,대사리 741,34.89706973,127.8739785
대동세무고등학교,고등학교,서울특별시,종로구,계동,35,37.58158273,126.9879513
신정고등학교,고등학교,울산광역시,남구,신정동,1662,35.53293825,129.3019906
강북고등학교,고등학교,대구광역시,북구,태전동,산14-1,35.92972817,128.5412228
한광고등학교,고등학교,경기도,평택시,비전동,504,36.99789035,127.0960037
대성고등학교,고등학교,서울특별시,은평구,갈현동,267-17,37.623161,126.9097907
무주고등학교,고등학교,전북특별자치도,무주군,무주읍,읍내리 462,36.01371751,127.6633474
대구가톨릭대학교사범대학부속무학고등학교,고등학교,경상북도,경산시,하양읍,도리리 76,35.92002869,128.8159912
수원외국어고등학교,고등학교,경기도,수원시,영통구,이의동 1088-6,37.29599326,127.0351158
한성고등학교,고등학교,서울특별시,서대문구,북아현동,170-1,37.55909644,126.954461
세교고등학교,고등학교,경기도,오산시,금암동,487,37.17800671,127.0533473
호매실고등학교,고등학교,경기도,수원시,권선구,호매실동 1365,37.26492553,126.9553373
고한고등학교,고등학교,강원특별자치도,정선군,고한읍,고한리 80,37.20615372,128.8529158
만덕고등학교,고등학교,부산광역시,북구,만덕동,948,35.20179406,129.0345872
영생고등학교,고등학교,경기도,수원시,장안구,천천동 555,37.30473311,126.9742361
안화고등학교,고등학교,경기도,화성시,병점동,852,37.2119228,127.0484625
영산고등학교,고등학교,경상남도,창녕군,영산면,성내리 599,35.4596521,128.5281631
양업고등학교,고등학교,충청북도,청주시,흥덕구,옥산면 환희리 176,36.67137226,127.347357
대화고등학교,고등학교,경기도,고양시,일산서구,대화동 1979-1,37.66846943,126.732143
함월고등학교,고등학교,울산광역시,중구,유곡동,501-3,35.56136572,129.2972888
경상공업고등학교,고등학교,대구광역시,남구,대명동,3015-1,35.8452186,128.5741961
대천여자상업고등학교,고등학교,충청남도,보령시,내항동,502,36.33215727,126.579488
남원제일고등학교,고등학교,전북특별자치도,남원시,노암동,730,35.39142667,127.3737218
장흥고등학교,고등학교,전라남도,장흥군,장흥읍,향양리 945,34.67993932,126.916118
진해세화여자고등학교,고등학교,경상남도,창원시,진해구,석동 479-9,35.16141317,128.6937922
진관고등학교,고등학교,서울특별시,은평구,진관동,17,37.64333857,126.9243825
초월고등학교,고등학교,경기도,광주시,초월읍,대쌍령리 495,37.387683,127.2898183
왕신여자고등학교,고등학교,전북특별자치도,정읍시,신태인읍,신태인리 86-2,35.68287964,126.8894006
봉명고등학교,고등학교,충청북도,청주시,흥덕구,봉명동 2448,36.65492565,127.4552839
대산고등학교,고등학교,충청남도,서산시,대산읍,대산리 132-17,36.936391,126.4383891
북평고등학교,고등학교,강원특별자치도,동해시,동회동,175-3 번지,37.49008122,129.1065015
비봉고등학교,고등학교,경기도,화성시,비봉면,양노리 260-1,37.23724717,126.872612
남악고등학교,고등학교,전라남도,무안군,삼향읍,남악리 1579,34.81042932,126.4685602
명덕외국어고등학교,고등학교,서울특별시,강서구,내발산동,169-1,37.55394399,126.8342915
권선고등학교,고등학교,경기도,수원시,권선구,권선동 1243,37.25278194,127.0333651
이매고등학교,고등학교,경기도,성남시,분당구,이매동 147,37.392401,127.1209492
경상고등학교,고등학교,대구광역시,북구,복현동,105,35.90189918,128.621534
부원고등학교,고등학교,경기도,이천시,장호원읍,장호원리 261-6,37.11673313,127.619479
전북대학교사범대학부설고등학교,고등학교,전북특별자치도,전주시,덕진구,금암동 663,35.8411407,127.13158997
김포고등학교,고등학교,경기도,김포시,사우동,216,37.61839978,126.713009
대진고등학교,고등학교,서울특별시,노원구,하계동,55-5,37.63780685,127.0760900225
칠보고등학교,고등학교,전북특별자치도,정읍시,칠보면,시산리 625,35.60478126,126.9919605
부산전자공업고등학교,고등학교,부산광역시,동래구,온천동,362-3,35.21560631,129.0730588
부산정보고등학교,고등학교,부산광역시,부산진구,양정동,455-7,35.1775236,129.0645205
부산과학고등학교,고등학교,부산광역시,금정구,구서동,915,35.26378066,129.0833789
전주신흥고등학교,고등학교,전북특별자치도,전주시,완산구,중화산동1가 188,35.81541013,127.1362767
전남고등학교,고등학교,광주광역시,서구,치평동,1174,35.14747561,126.8437327
양지고등학교,고등학교,세종특별자치시,도담동,895,,36.50957686,127.2692915
별가람고등학교,고등학교,경기도,남양주시,별내동,909,37.661438,127.1221742
신명고등학교,고등학교,대구광역시,중구,동산동,206,35.86838328,128.584035
한영외국어고등학교,고등학교,서울특별시,강동구,상일동,166,37.54914056,127.1577731
부산체육고등학교,고등학교,부산광역시,영도구,동삼동,525,35.07205496,129.064034
양산고등학교,고등학교,경상남도,양산시,북부동,255,35.34866256,129.044508
세화여자고등학교,고등학교,서울특별시,서초구,반포동,13,37.50199646,126.9942300139
운천고등학교,고등학교,경기도,오산시,부산동,778-5,37.15598785,127.0803516
경기여자고등학교,고등학교,서울특별시,강남구,개포동,152,37.48691516,127.065453
논산고등학교,고등학교,충청남도,논산시,내동,494-4,36.18164917,127.0980207
영일고등학교,고등학교,서울특별시,강서구,등촌동,525,37.54728726,126.8620589
대신고등학교,고등학교,서울특별시,종로구,행촌동,171-1,37.57312377,126.9612546
내성고등학교,고등학교,부산광역시,금정구,부곡동,812-13,35.22138302,129.0927454
영서고등학교,고등학교,강원특별자치도,원주시,반곡동,563-3,37.3130767,127.9797602
세마고등학교,고등학교,경기도,오산시,세교동,626,37.18054088,127.0409971
명신여자고등학교,고등학교,인천광역시,부평구,산곡동,180-147,37.50460448,126.6939278
주례여자고등학교,고등학교,부산광역시,사상구,주례동,84-176,35.14536511,129.0135597
성산고등학교,고등학교,제주특별자치도,서귀포시,성산읍,오조리 360,33.47020324,126.9151667
만경고등학교,고등학교,전북특별자치도,김제시,만경읍,만경리 527,35.84855174,126.817288
리라아트고등학교,고등학교,서울특별시,중구,예장동,8-40,37.557115,126.988252
해리고등학교,고등학교,전북특별자치도,고창군,해리면,하련리 570,35.46582411,126.5381075
대곡고등학교,고등학교,경상남도,진주시,대곡면,유곡리 16-1,35.2624116,128.1663986
영신간호비즈니스고등학교,고등학교,서울특별시,노원구,중계동,118,37.65245208,127.083205
이의고등학교,고등학교,경기도,수원시,영통구,하동 977,37.29235868,127.0711898
경북하이텍고등학교,고등학교,경상북도,안동시,송현동,273,36.57040385,128.702829
성신여자고등학교,고등학교,서울특별시,성북구,돈암동,산11-269,37.59428963,127.0224072
상당고등학교,고등학교,충청북도,청주시,상당구,용암동 2033,36.60641965,127.5086186
완도고등학교,고등학교,전라남도,완도군,완도읍,가용리 32-1,34.32349501,126.7402188
대구과학고등학교,고등학교,대구광역시,수성구,황금동,610-1,35.844679,128.6254904
갈산고등학교,고등학교,충청남도,홍성군,갈산면,상촌리 319,36.60486517,126.5478667
수성고등학교,고등학교,대구광역시,수성구,두산동,산1-1,35.82127653,128.625466
율천고등학교,고등학교,경기도,수원시,팔달구,화서동 720,37.28782913,126.9788781
서울공연예술고등학교,고등학교,서울특별시,구로구,궁동,147-1,37.49993066,126.8326087
연초고등학교,고등학교,경상남도,거제시,연초면,연사리 390,34.913652,128.6470793
울산동천고등학교,고등학교,울산광역시,북구,천곡동,376-1,35.63277988,129.3388513
창원남고등학교,고등학교,경상남도,창원시,성산구,외동 257-6,35.21397156,128.6797496
양산남부고등학교,고등학교,경상남도,양산시,남부동,556-2,35.33258201,129.024749
서울국제고등학교,고등학교,서울특별시,종로구,명륜1가,1-27,37.59179115,126.9954907
한국게임과학고등학교,고등학교,전북특별자치도,완주군,운주면,장선리 121,36.08278434,127.285406
수명고등학교,고등학교,서울특별시,강서구,내발산동,758,37.54976186,126.8247663
여수충무고등학교,고등학교,전라남도,여수시,미평동,204,34.77142832,127.7110233
무학여자고등학교,고등학교,서울특별시,성동구,행당동,322-1,37.55762633,127.0338809
파주여자고등학교,고등학교,경기도,파주시,월롱면,영태리 535,37.77510483,126.7860208
부산외국어고등학교,고등학교,부산광역시,연제구,연산동,1110-2,35.18370672,129.0971477
동성고등학교,고등학교,서울특별시,종로구,혜화동,90-7,37.58496996,127.003062
덕산고등학교,고등학교,경상남도,산청군,시천면,원리 170,35.27592431,127.8346458
설월여자고등학교,고등학교,광주광역시,남구,방림동,30,35.12612039,126.9285943
솔터고등학교,고등학교,경기도,김포시,마산동,615-6,37.64179455,126.6362439
여양고등학교,고등학교,전라남도,여수시,소라면,덕양리 1436-1,34.78900295,127.6314339
현대청운고등학교,고등학교,울산광역시,동구,서부동,290,35.53655854,129.4280974
순창고등학교,고등학교,전북특별자치도,순창군,순창읍,순화리 78,35.37990162,127.1405508
창원고등학교,고등학교,경상남도,창원시,의창구,도계동 902,35.25528577,128.6427051
명덕고등학교,고등학교,경상남도,함안군,가야읍,도항리 463,35.27250669,128.4024888
여의도고등학교,고등학교,서울특별시,영등포구,여의도동,30-1,37.52505101,126.9342192
수비고등학교,고등학교,경상북도,영양군,수비면,발리리 500,36.76502287,129.2037522
봉황고등학교,고등학교,전라남도,나주시,빛가람동,625,35.00741421,126.7861436
서울세종고등학교,고등학교,서울특별시,강남구,수서동,711,37.49038935,127.1027968
대구혜화여자고등학교,고등학교,대구광역시,수성구,만촌동,1256-26,35.84985719,128.647666
청량고등학교,고등학교,서울특별시,동대문구,청량리동,7,37.588886,127.051311
대구여자상업고등학교,고등학교,대구광역시,남구,대명동,1835-3,35.84902055,128.5832069
대전구봉고등학교,고등학교,대전광역시,서구,관저동,1155,36.29557493,127.3310026
공주대학교사범대학부설고등학교,고등학교,충청남도,공주시,반죽동,322-1,36.45276665,127.1197907
정읍제일고등학교,고등학교,전북특별자치도,정읍시,수성동,450-28,35.57013279,126.8541772
한국뷰티고등학교,고등학교,제주특별자치도,제주시,한경면,고산리 2916,33.30007758,126.181868
매향여자정보고등학교,고등학교,경기도,수원시,팔달구,매향동 110-2,37.28457355,127.0186217
의왕고등학교,고등학교,경기도,의왕시,삼동,268,37.32252849,126.9585076
영종국제물류고등학교,고등학교,인천광역시,중구,운남동,1568,37.4900632,126.531129
선화예술고등학교,고등학교,서울특별시,광진구,능동,25,37.5509798,127.0870952
철원고등학교,고등학교,강원특별자치도,철원군,철원읍,화지리 54 번지,38.20962891,127.2112801
경북대학교사범대학부설고등학교,고등학교,대구광역시,중구,대봉동,60-19,35.8625154,128.6006135
은행고등학교,고등학교,경기도,시흥시,은행동,543-2,37.44341639,126.8029873
줄포자동차공업고등학교,고등학교,전북특별자치도,부안군,줄포면,우포리 138,35.58512049,126.6769191
향남고등학교,고등학교,경기도,화성시,향남읍,행정리 488,37.12888636,126.926236
창원경일여자고등학교,고등학교,경상남도,창원시,성산구,내동 산8-17,35.22732278,128.662447
시지고등학교,고등학교,대구광역시,수성구,신매동,602-1,35.830117,128.7074233
전남여자고등학교,고등학교,광주광역시,동구,장동,39-12,35.15054835,126.9208314
정의여자고등학교,고등학교,서울특별시,도봉구,쌍문동,150-1,37.65335584,127.0324273
영광공업고등학교,고등학교,전라남도,영광군,영광읍,단주리 560-1,35.27888642,126.5020801
김해중앙여자고등학교,고등학교,경상남도,김해시,동상동,715-2,35.23260078,128.8886173
논산공업고등학교,고등학교,충청남도,논산시,부창동,56-14,36.19821471,127.0876105
송원여자고등학교,고등학교,광주광역시,남구,송하동,365-1,35.10818451,126.8732664
서산공업고등학교,고등학교,충청남도,서산시,운산면,용장리 246-1,36.80931536,126.5878508
창원대암고등학교,고등학교,경상남도,창원시,성산구,대방동 76,35.20753671,128.7114831
광덕고등학교,고등학교,광주광역시,서구,화정동,652,35.1446869,126.8784967
마석고등학교,고등학교,경기도,남양주시,화도읍,녹촌리 69,37.64380715,127.2993147
동명공업고등학교,고등학교,부산광역시,남구,용당동,485-11,35.12091013,129.1008256
광주제일고등학교,고등학교,광주광역시,북구,누문동,144,35.15234606,126.9070477
여수석유화학고등학교,고등학교,전라남도,여수시,화장동,834,34.77872793,127.6431612
마산내서여자고등학교,고등학교,경상남도,창원시,마산회원구,내서읍 삼계리 6,35.23729062,128.5028667
포항과학기술고등학교,고등학교,경상북도,포항시,남구,구룡포읍 구룡포리 199-47,35.99179076,129.5659125
전주생명과학고등학교,고등학교,전북특별자치도,전주시,덕진구,인후동2가 18-5,35.83672624,127.1490519
거제중앙고등학교,고등학교,경상남도,거제시,고현동,1071,34.89285581,128.6372352
신평고등학교,고등학교,충청남도,당진시,신평면,금천리 998-5,36.883053,126.7615205
덕성여자고등학교,고등학교,서울특별시,종로구,안국동,37-1,37.57776082,126.9835581
통영여자고등학교,고등학교,경상남도,통영시,도천동,121,34.84034605,128.4102637
비슬고등학교,고등학교,대구광역시,달성군,현풍읍,중리 482,35.69550494,128.4545987
삼정고등학교,고등학교,부산광역시,북구,구포동,1251-1,35.19360082,129.010028
금산여자고등학교,고등학교,충청남도,금산군,금산읍,아인리 9-1,36.10475789,127.4834553
도계고등학교,고등학교,강원특별자치도,삼척시,도계읍,도계리 192-1 번지,37.2295502,129.0534881
문산고등학교,고등학교,경기도,파주시,문산읍,당동리 149,37.86299886,126.7757779
김제여자고등학교,고등학교,전북특별자치도,김제시,요촌동,61-6,35.80038584,126.8958241
한양대학교사범대학부속고등학교,고등학교,서울특별시,성동구,사근동,223,37.56191884,127.042324
경일여자고등학교,고등학교,대구광역시,남구,봉덕동,1322-1,35.83640873,128.5968171
명문고등학교,고등학교,경기도,광명시,광명동,379-1,37.47057166,126.8498885
양명고등학교,고등학교,경기도,안양시,만안구,안양동 67,37.40864037,126.9200167
전곡고등학교,고등학교,경기도,연천군,전곡읍,은대리 506-1,38.03521317,127.069283
서산여자고등학교,고등학교,충청남도,서산시,석림동,486-1,36.77032528,126.4676572
가야고등학교,고등학교,부산광역시,부산진구,가야동,산33-3,35.14630264,129.0310877
거진고등학교,고등학교,강원특별자치도,고성군,거진읍,거진리 432번지,38.43968179,128.4501481
철암고등학교,고등학교,강원특별자치도,태백시,철암동,산 61-12 번지,37.1218814,129.0442778
유일여자고등학교,고등학교,전북특별자치도,전주시,덕진구,인후동1가 500-37,35.839014,127.1599927
계원예술고등학교,고등학교,경기도,성남시,분당구,정자동 207,37.35836192,127.1155061
마차고등학교,고등학교,강원특별자치도,영월군,북면,마차리 1332-23번지,37.25532941,128.4513289
대전괴정고등학교,고등학교,대전광역시,서구,괴정동,120,36.34040306,127.3788431
군산여자상업고등학교,고등학교,전북특별자치도,군산시,지곡동,518,35.95745391,126.7075576
강남영상미디어고등학교,고등학교,인천광역시,강화군,길상면,온수리 409-4,37.64167363,126.4791248
근명고등학교,고등학교,경기도,안양시,만안구,안양동 708-197,37.39354124,126.9200136
대원외국어고등학교,고등학교,서울특별시,광진구,중곡동,176-124,37.56249279,127.0894374
대구제일여자상업고등학교,고등학교,대구광역시,달서구,본리동,156-1,35.84075539,128.545887
세명컴퓨터고등학교,고등학교,서울특별시,은평구,불광동,445-35,37.6277708,126.9232499
경화여자고등학교,고등학교,경기도,광주시,송정동,52-1,37.41824307,127.2639914
예산전자공업고등학교,고등학교,충청남도,예산군,예산읍,관작리 315-7,36.71370406,126.8373857
상지여자고등학교,고등학교,강원특별자치도,원주시,개운동,50-1 번지,37.34004341,127.9616048
충주여자고등학교,고등학교,충청북도,충주시,용산동,2060,36.96093611,127.9381598
논산여자고등학교,고등학교,충청남도,논산시,취암동,462-5,36.19559346,127.092422
우송고등학교,고등학교,대전광역시,동구,자양동,228-1,36.33562875,127.4428489
향일고등학교,고등학교,경기도,화성시,향남읍,행정리 439,37.12928624,126.9178966
신선여자고등학교,고등학교,울산광역시,남구,야음동,789-11,35.52506185,129.3259457
배화여자고등학교,고등학교,서울특별시,종로구,누하동,149,37.57954401,126.9672919
북평여자고등학교,고등학교,강원특별자치도,동해시,천곡동,320 번지,37.51771407,129.1090491
청주여자상업고등학교,고등학교,충청북도,청주시,서원구,모충동 280,36.62595797,127.4839083
경산제일고등학교,고등학교,경상북도,경산시,자인면,동부리 208,35.81597735,128.8278499
우석고등학교,고등학교,전북특별자치도,전주시,덕진구,동산동 685-1,35.87414679,127.0780105
대덕소프트웨어마이스터고등학교,고등학교,대전광역시,유성구,장동,23-9,36.39202633,127.363015
양산여자고등학교,고등학교,경상남도,양산시,교동,206,35.34455592,129.0250861
분포고등학교,고등학교,부산광역시,남구,용호동,176-66,35.129813,129.115149
계양고등학교,고등학교,인천광역시,계양구,용종동,227-3,37.54193113,126.743898
충주공업고등학교,고등학교,충청북도,충주시,용산동,453,36.96556942,127.9404948
강원체육고등학교,고등학교,강원특별자치도,춘천시,송암동,133,37.85912229,127.694804
화령고등학교,고등학교,경상북도,상주시,화서면,달천리 503-1,36.44245211,127.9458942
서산중앙고등학교,고등학교,충청남도,서산시,동문동,173-2,36.77887182,126.4719641
증평공업고등학교,고등학교,충청북도,증평군,증평읍,증천리 713,36.780914,127.5903231
경원고등학교,고등학교,부산광역시,부산진구,당감동,611-1,35.16371025,129.0318871
삼일고등학교,고등학교,경기도,수원시,팔달구,매향동 10-22,37.28638393,127.0196791
함안고등학교,고등학교,경상남도,함안군,가야읍,도항리 163-4,35.28213268,128.4033052
과천중앙고등학교,고등학교,경기도,과천시,갈현동,648,37.42301485,126.9865703
대천고등학교,고등학교,충청남도,보령시,죽정동,562,36.36580643,126.6049566
울산산업고등학교,고등학교,울산광역시,울주군,삼남면,교동리 955-1,35.553352,129.116291
대전도시과학고등학교,고등학교,대전광역시,유성구,원내동,404,36.29751392,127.3199445
진도국악고등학교,고등학교,전라남도,진도군,임회면,석교리 269,34.4080872,126.190745
수일고등학교,고등학교,경기도,수원시,장안구,조원동 21,37.30771516,127.0180455
인천진산과학고등학교,고등학교,인천광역시,부평구,삼산동,456-6,37.51327242,126.7437135
사동고등학교,고등학교,경상북도,경산시,사동,296,35.809014,128.7514077
진선여자고등학교,고등학교,서울특별시,강남구,역삼동,713,37.50230289,127.0482866
광교고등학교,고등학교,경기도,수원시,영통구,이의동 1346,37.289728,127.0485481
충렬여자고등학교,고등학교,경상남도,통영시,용남면,장평리 202,34.88688775,128.4650492
광신고등학교,고등학교,서울특별시,관악구,신림동,산87-6,37.4644762,126.9259406
학익여자고등학교,고등학교,인천광역시,미추홀구,학익동,646,37.44381933,126.675348
진성고등학교,고등학교,경기도,광명시,하안동,23-1,37.46950279,126.8767614
한세사이버보안고등학교,고등학교,서울특별시,마포구,아현동,771,37.55179832,126.952032
충남인터넷고등학교,고등학교,충청남도,논산시,연산면,한전리 100-1,36.2066365,127.1893086
제천제일고등학교,고등학교,충청북도,제천시,동현동,15-3,37.13525776,128.2208687
전일고등학교,고등학교,전북특별자치도,전주시,완산구,효자동3가 523,35.81567593,127.0997119
서문여자고등학교,고등학교,서울특별시,서초구,방배동,1514,37.48891973,126.9845458
광주동신여자고등학교,고등학교,광주광역시,북구,풍향동,475,35.16943786,126.9223461
옥정고등학교,고등학교,경기도,양주시,옥정동,948,37.82768859,127.0887218
내면고등학교,고등학교,강원특별자치도,홍천군,내면,창촌리 1655-3,37.766466,128.3877386
대전노은고등학교,고등학교,대전광역시,유성구,노은동,541,36.36939669,127.3232157
한얼고등학교,고등학교,부산광역시,남구,문현동,557-1,35.14615209,129.0713257
홍성공업고등학교,고등학교,충청남도,홍성군,결성면,읍내리 527-1,36.52923567,126.5478721
군산여자고등학교,고등학교,전북특별자치도,군산시,월명동,37-1,35.98514231,126.7033183
전북하이텍고등학교,고등학교,전북특별자치도,완주군,삼례읍,후정리 69-3,35.90774937,127.0694379
광일고등학교,고등학교,광주광역시,광산구,임곡동,783-1,35.22062838,126.7419508
진주고등학교,고등학교,경상남도,진주시,상봉동,987-1,35.20009654,128.0802351
명신고등학교,고등학교,경상남도,진주시,초전동,1225-1,35.21571985,128.1143969
영천전자고등학교,고등학교,경상북도,영천시,화남면,삼창리 86,36.06838306,128.897874
울산상업고등학교,고등학교,울산광역시,울주군,범서읍,굴화리 333-1,35.55693466,129.2560364
범서고등학교,고등학교,울산광역시,울주군,범서읍,구영리 213,35.56979092,129.2493247
대현고등학교,고등학교,울산광역시,남구,야음동,789-11,35.526132,129.3243389
강릉여자고등학교,고등학교,강원특별자치도,강릉시,옥천동,237-1 번지,37.75965121,128.9034321
남녕고등학교,고등학교,제주특별자치도,제주시,연동,2288,33.49005684,126.4819807
성안고등학교,고등학교,경기도,안산시,상록구,사동 1582,37.30271205,126.8425361
운정고등학교,고등학교,경기도,파주시,목동동,1146,37.72204425,126.7363199
경기자동차과학고등학교,고등학교,경기도,시흥시,무지내동,341-2,37.41429863,126.8398538
전주솔내고등학교,고등학교,전북특별자치도,전주시,덕진구,송천동1가 111-3,35.86301323,127.1225064
문향고등학교,고등학교,전라남도,장성군,장성읍,기산리 386-2,35.303417,126.7680095
중문고등학교,고등학교,제주특별자치도,서귀포시,대포동,472,33.25486483,126.4468949
강화고등학교,고등학교,인천광역시,강화군,강화읍,국화리 198-1,37.74802846,126.4738138
효암고등학교,고등학교,경상남도,양산시,삼호동,747,35.41239092,129.1699843
광주수피아여자고등학교,고등학교,광주광역시,남구,양림동,242,35.13719317,126.911614
도래울고등학교,고등학교,경기도,고양시,덕양구,도내동 1098,37.62858197,126.8705724
청원고등학교,고등학교,서울특별시,노원구,상계동,641,37.66525155,127.0625329
NLCS JeJu,고등학교,제주특별자치도,서귀포시,대정읍,구억리 1069,33.29684267,126.2918094
풍산고등학교,고등학교,경기도,하남시,덕풍동,778,37.55113292,127.1996871
세종고등학교,고등학교,경기도,여주시,상동,144-5,37.29549345,127.6462791
복정고등학교,고등학교,경기도,성남시,수정구,복정동 144-1,37.46152833,127.1372794
경신고등학교,고등학교,서울특별시,종로구,혜화동,5-119,37.592226,126.999531
부산정보관광고등학교,고등학교,부산광역시,금정구,부곡동,323-7,35.22394897,129.0919103
누원고등학교,고등학교,서울특별시,도봉구,도봉동,646,37.68556896,127.0499327
덕계고등학교,고등학교,경기도,양주시,덕계동,524-1,37.82428609,127.047949
역곡고등학교,고등학교,경기도,부천시,원미구,역곡동 200-10,37.49172578,126.8096089
언남고등학교,고등학교,서울특별시,서초구,양재동,309,37.47233002,127.0430052
안의고등학교,고등학교,경상남도,함양군,안의면,석천리 90,35.63108414,127.8198627
동의공업고등학교,고등학교,부산광역시,부산진구,전포동,12-1,35.16390848,129.0710384
삽교고등학교,고등학교,충청남도,예산군,삽교읍,두리 532-40,36.68803138,126.747264
율곡고등학교,고등학교,경상북도,김천시,율곡동,533,36.123512,128.1918031
예일여자고등학교,고등학교,서울특별시,은평구,구산동,8-3,37.6109459,126.9147928
공주마이스터고등학교,고등학교,충청남도,공주시,유구읍,백교리 133,36.54765379,126.9482472
기장고등학교,고등학교,부산광역시,기장군,기장읍,대라리 374-1,35.24015148,129.2090256
금파공업고등학교,고등학교,광주광역시,북구,운암동,133,35.176695,126.8871706
부산진여자상업고등학교,고등학교,부산광역시,부산진구,양정동,74-159,35.1701018,129.0721827
가온고등학교,고등학교,경기도,안성시,발화동,215-7,36.98842094,127.276022
하양여자고등학교,고등학교,경상북도,경산시,하양읍,대학리 100-9,35.92967651,128.826076
군북고등학교,고등학교,경상남도,함안군,군북면,덕대리 267,35.25959757,128.3435335
성보경영고등학교,고등학교,경기도,성남시,수정구,단대동 5,37.46184664,127.1585265
영광전자고등학교,고등학교,전라남도,영광군,염산면,봉남리 101-5,35.222887,126.3712771
성모여자고등학교,고등학교,부산광역시,부산진구,양정동,429-5,35.16726136,129.072124
부산중앙여자고등학교,고등학교,부산광역시,동래구,명륜동,661-5,35.2079666,129.0796668
안양외국어고등학교,고등학교,경기도,안양시,만안구,안양동 산41-1,37.39571621,126.9090332
마포고등학교,고등학교,서울특별시,강서구,등촌동,82-1,37.55998867,126.8531334
공주정보고등학교,고등학교,충청남도,공주시,금흥동,1-1,36.48557283,127.1574896
장덕고등학교,고등학교,광주광역시,광산구,장덕동,1684,35.185999,126.8153427
문일여자고등학교,고등학교,인천광역시,남동구,만수동,977-25,37.45247978,126.7306571
대동고등학교,고등학교,부산광역시,사하구,구평동,112-24,35.0873648,128.9842391
봉의고등학교,고등학교,강원특별자치도,춘천시,후평동,891-15 번지,37.87368493,127.7543888
목포홍일고등학교,고등학교,전라남도,목포시,죽교동,580-6,34.80223621,126.3755128
안좌고등학교,고등학교,전라남도,신안군,안좌면,읍동리 499-3,34.75002635,126.1291567
연제고등학교,고등학교,부산광역시,연제구,연산동,2143,35.17761715,129.0918363
장흥관산고등학교,고등학교,전라남도,장흥군,관산읍,옥당리 356-1,34.55898249,126.9364334
당진고등학교,고등학교,충청남도,당진시,채운동,353,36.89181424,126.6242637
서울고등학교,고등학교,서울특별시,서초구,서초동,1526-1,37.48429306,127.0049019
세화고등학교,고등학교,서울특별시,서초구,반포동,753,37.50199646,126.9942300139
수원정보과학고등학교,고등학교,경기도,수원시,영통구,원천동 78-8,37.27608009,127.0497818
영신고등학교,고등학교,서울특별시,영등포구,신길동,4656-2,37.49810094,126.909739
대전복수고등학교,고등학교,대전광역시,서구,복수동,376-2,36.30377161,127.3735857
부경고등학교,고등학교,부산광역시,서구,서대신동3가,521,35.1157788,129.0133065
태장고등학교,고등학교,경기도,수원시,영통구,영통동 973-2,37.24936938,127.0594286
영훈고등학교,고등학교,서울특별시,강북구,미아동,471-2,37.61468187,127.0280933
유봉여자고등학교,고등학교,강원특별자치도,춘천시,교동,93-37 번지,37.884756,127.7345838
원주의료고등학교,고등학교,강원특별자치도,원주시,문막읍,건등리 583-2 번지,37.31446027,127.822511
진영제일고등학교,고등학교,경상남도,김해시,진영읍,여래리 113,35.30373148,128.743287
부산강서고등학교,고등학교,부산광역시,강서구,대저1동,421-3,35.21642661,128.9824742
상명고등학교,고등학교,서울특별시,노원구,중계동,515,37.64954781,127.0680416
광양제철고등학교,고등학교,전라남도,광양시,금호동,678,34.94658903,127.7271323
증산고등학교,고등학교,경상남도,양산시,물금읍,가촌리 1277-4,35.31163245,128.9993369
하동고등학교,고등학교,경상남도,하동군,하동읍,광평리 442,35.06391527,127.7461685
부산일과학고등학교,고등학교,부산광역시,사하구,당리동,2,35.11720995,128.9888935
배재고등학교,고등학교,서울특별시,강동구,고덕동,313,37.55505939,127.1502473
목포덕인고등학교,고등학교,전라남도,목포시,죽교동,30,34.79998068,126.372628
경기창조고등학교,고등학교,경기도,안성시,공도읍,만정리 789,37.00193973,127.1723586
팔렬고등학교,고등학교,강원특별자치도,홍천군,내촌면,물걸리 252번지,37.78372576,128.151705
아산스마트팩토리마이스터고등학교,고등학교,충청남도,아산시,둔포면,둔포리 235,36.92907586,127.0436616
서울디자인고등학교,고등학교,서울특별시,마포구,염리동,150,37.54670177,126.9469053
삼척여자고등학교,고등학교,강원특별자치도,삼척시,남양동,124 번지,37.43769515,129.1652714
부산국제고등학교,고등학교,부산광역시,부산진구,당감동,897,35.16722627,129.0234526
영파여자고등학교,고등학교,서울특별시,송파구,풍납동,501,37.53273562,127.1197395
신반정보고등학교,고등학교,경상남도,의령군,부림면,신반리 148-3,35.46426124,128.3196889
표선고등학교,고등학교,제주특별자치도,서귀포시,표선면,표선리 1804,33.33115727,126.826996
울산마이스터고등학교,고등학교,울산광역시,북구,효문동,34-1,35.56075734,129.3781781
원주고등학교,고등학교,강원특별자치도,원주시,개운동,127-1 번지,37.34007833,127.955818
해운대고등학교,고등학교,부산광역시,해운대구,우동,278-3,35.1714876,129.1624738
광주대동고등학교,고등학교,광주광역시,서구,매월동,산68-4,35.11937249,126.8497281
진주기계공업고등학교,고등학교,경상남도,진주시,상평동,272-1,35.17618865,128.1018139
함평골프고등학교,고등학교,전라남도,함평군,학교면,사거리 460,35.0259649,126.5364017
효문고등학교,고등학교,서울특별시,도봉구,쌍문동,468,37.65269871,127.0184005
경해여자고등학교,고등학교,경상남도,진주시,평거동,695-7,35.16517107,128.0417097
대창고등학교,고등학교,경상북도,예천군,예천읍,노상리 1,36.6600499,128.4552453
마산삼진고등학교,고등학교,경상남도,창원시,마산합포구,진동면 진동리 533-5,35.118629,128.488781
서울동구고등학교,고등학교,서울특별시,성북구,성북동,168-275,37.59410587,127.0082153
충주중산고등학교,고등학교,충청북도,충주시,호암동,산22-3,36.94672186,127.937922
전남보건고등학교,고등학교,전라남도,함평군,월야면,월야리 627-5,35.188563,126.624301
협성고등학교,고등학교,대구광역시,남구,봉덕동,1322-3,35.83479736,128.5985816
장성고등학교,고등학교,전라남도,장성군,장성읍,영천리 203,35.30934389,126.7981925
금성고등학교,고등학교,부산광역시,동구,좌천동,784-1,35.13463713,129.0515092
성광여자고등학교,고등학교,울산광역시,남구,옥동,907-1,35.54314574,129.2658489
현화고등학교,고등학교,경기도,평택시,안중읍,현화리 830-1,36.97877848,126.9170752
한국조형예술고등학교,고등학교,부산광역시,남구,용호동,506-39,35.12048796,129.1165597
선화여자고등학교,고등학교,경상북도,영천시,화룡동,산7,35.96797781,128.9226812
충암고등학교,고등학교,서울특별시,은평구,응암동,272-113,37.58464029,126.9218095
경기외국어고등학교,고등학교,경기도,의왕시,고천동,438-1,37.34807009,126.9597494
수원여자고등학교,고등학교,경기도,수원시,팔달구,고등동 19-1,37.276828,127.0043551
한민고등학교,고등학교,경기도,파주시,광탄면,용미리 704-10,37.75805679,126.8580362
상서고등학교,고등학교,대구광역시,달서구,성당동,670-31,35.84643612,128.5498704
광양하이텍고등학교,고등학교,전라남도,광양시,광양읍,목성리 1018,34.98080879,127.5910447
안산강서고등학교,고등학교,경기도,안산시,단원구,와동 828,37.33479362,126.8179386
군포e비즈니스고등학교,고등학교,경기도,군포시,산본동,1149-6,37.36305308,126.9185422
성남고등학교,고등학교,서울특별시,동작구,대방동,375-1,37.50528157,126.9266153
안강전자고등학교,고등학교,경상북도,경주시,안강읍,안강리 233-7,35.99278593,129.229869
정왕고등학교,고등학교,경기도,시흥시,정왕동,1849-4,37.35044006,126.7284476
금옥여자고등학교,고등학교,서울특별시,양천구,신정동,729,37.51096532,126.8439717
양천고등학교,고등학교,서울특별시,양천구,신정동,856-5,37.5083206,126.8452028
망포고등학교,고등학교,경기도,수원시,영통구,망포동 672-6,37.233827,127.0464357
인천청라고등학교,고등학교,인천광역시,서구,청라동,137-2,37.53720827,126.6607696
청담고등학교,고등학교,서울특별시,강남구,압구정동,526,37.52800302,127.0437002
영천성남여자고등학교,고등학교,경상북도,영천시,도동,213-1,35.9492794,128.9317962
오천고등학교,고등학교,경상북도,포항시,남구,오천읍 용덕리 267,35.96902488,129.412793
경기과학고등학교,고등학교,경기도,수원시,장안구,송죽동 68-23,37.308815,127.0064083
나주공업고등학교,고등학교,전라남도,나주시,대호동,874,35.03980492,126.7127511
대구국제고등학교,고등학교,대구광역시,북구,국우동,77-1,35.95549553,128.581542
영신여자고등학교,고등학교,경기도,수원시,권선구,오목천동 537-1,37.241938,126.9669823
수리고등학교,고등학교,경기도,군포시,산본동,1152-4,37.35526201,126.9197712
북원여자고등학교,고등학교,강원특별자치도,원주시,단계동,481번지,37.354953,127.9324254
동산고등학교,고등학교,인천광역시,동구,송림동,97-1,37.47303977,126.6488935
이우고등학교,고등학교,경기도,성남시,분당구,동원동 157-1,37.35324326,127.090941
선유고등학교,고등학교,서울특별시,영등포구,양평동4가,10,37.53390162,126.8948507
덕일전자공업고등학교,고등학교,서울특별시,구로구,오류동,199-1,37.49053652,126.837109
창원북면고등학교,고등학교,경상남도,창원시,의창구,북면 감계리 302,35.29968223,128.596781
영등포공업고등학교,고등학교,서울특별시,강서구,가양동,1468,37.56983562,126.8500283
서산고등학교,고등학교,충청남도,서산시,해미면,읍내리 426,36.71554973,126.546072
청양고등학교,고등학교,충청남도,청양군,청양읍,송방리 133,36.45358604,126.7979573
고성고등학교,고등학교,경상남도,고성군,회화면,배둔리 1182,35.05568388,128.3625718
충렬고등학교,고등학교,부산광역시,동래구,명장동,151-5,35.2028575,129.1095733
대광여자고등학교,고등학교,광주광역시,남구,주월동,산232,35.12524421,126.8991024
대경생활과학고등학교,고등학교,서울특별시,중구,신당동,333-579,37.55637326,127.0169792
군산기계공업고등학교,고등학교,전북특별자치도,군산시,문화동,751,35.97728004,126.7003422
동두천외국어고등학교,고등학교,경기도,동두천시,지행동,310-1,37.89280911,127.0630227
낙생고등학교,고등학교,경기도,성남시,분당구,판교동 649,37.38610469,127.1003748
성포고등학교,고등학교,경기도,안산시,상록구,성포동 594-1,37.32610962,126.8513003
여남고등학교,고등학교,전라남도,여수시,남면,우학리 181,34.51226252,127.7679765
홍성고등학교,고등학교,충청남도,홍성군,홍북읍,신경리 1174,36.650043,126.6726491
범어고등학교,고등학교,경상남도,양산시,물금읍,범어리 2712-7,35.329712,129.018446
김해삼방고등학교,고등학교,경상남도,김해시,삼방동,768,35.25534178,128.9030254
원통고등학교,고등학교,강원특별자치도,인제군,북면,원통리 398-1 번지,38.12747115,128.2129813
고촌고등학교,고등학교,경기도,김포시,고촌읍,태리 1139,37.60460551,126.7499614
이리남성여자고등학교,고등학교,전북특별자치도,익산시,영등동,337-5,35.95635944,126.9659967
경기관광고등학교,고등학교,경기도,여주시,대신면,율촌리 265-3,37.375425,127.5893974
한성여자고등학교,고등학교,서울특별시,성북구,삼선동2가,392-2,37.5830649,127.011784
창원봉림고등학교,고등학교,경상남도,창원시,의창구,봉곡동 169-1,35.24835895,128.6764645
창현고등학교,고등학교,경기도,수원시,팔달구,우만동 9-1,37.28490893,127.0418566
부산동성고등학교,고등학교,부산광역시,부산진구,전포동,358-8,35.15151692,129.0697793
대원고등학교,고등학교,서울특별시,광진구,중곡동,176-124,37.56249279,127.0894374
동일미래과학고등학교,고등학교,광주광역시,남구,방림동,30,35.12886986,126.9273037
해운대공업고등학교,고등학교,부산광역시,해운대구,우동,934-2,35.16763616,129.1441028
한국글로벌셰프고등학교,고등학교,인천광역시,강화군,내가면,고천리 1266,37.71179563,126.39281
전남과학고등학교,고등학교,전라남도,나주시,금천면,오강리 185-6,35.03306834,126.7590628
푸른꿈고등학교,고등학교,전북특별자치도,무주군,안성면,진도리 865,35.864331,127.6186346
학남고등학교,고등학교,대구광역시,북구,국우동,1080-1,35.946271,128.5691977
한빛고등학교,고등학교,전라남도,담양군,대전면,행성리 11,35.29153056,126.9131364
한국산림과학고등학교,고등학교,경상북도,봉화군,춘양면,서동리 91,36.94786297,128.914111
해성국제컨벤션고등학교,고등학교,서울특별시,동대문구,전농동,90-3,37.5818726,127.0569769
고금고등학교,고등학교,전라남도,완도군,고금면,덕암리 775,34.40087252,126.8046164
경복비즈니스고등학교,고등학교,서울특별시,강서구,등촌동,131,37.558025,126.8526703
삼천포여자고등학교,고등학교,경상남도,사천시,동금동,93-1,34.9347486,128.0779665
현암고등학교,고등학교,경기도,용인시,수지구,죽전동 1354,37.32880026,127.1313577
동아고등학교,고등학교,부산광역시,사하구,괴정동,619-41,35.093401,128.9844284
석관고등학교,고등학교,서울특별시,성북구,석관동,77-1,37.60958929,127.0667176
순천매산여자고등학교,고등학교,전라남도,순천시,매곡동,166-9,34.95868582,127.4813153
인천예술고등학교,고등학교,인천광역시,남동구,간석동,417-3,37.45854014,126.7039112
용문고등학교,고등학교,경기도,양평군,용문면,마룡리 663-2,37.49187337,127.5988154
순천매산고등학교,고등학교,전라남도,순천시,매곡동,569-1,34.95746444,127.480445
신원고등학교,고등학교,경기도,고양시,덕양구,신원동 602,37.66840557,126.886943
백제고등학교,고등학교,전라남도,무안군,무안읍,성남리 375,34.98248636,126.4734979
대구체육고등학교,고등학교,대구광역시,북구,동호동,463-2,35.95879744,128.5577173
휘경공업고등학교,고등학교,서울특별시,동대문구,휘경동,49-327,37.585216,127.0697283
충훈고등학교,고등학교,경기도,안양시,만안구,석수동 595-3,37.410815,126.893138
영남삼육고등학교,고등학교,경상북도,경산시,남산면,송내리 70,35.78747508,128.8286797
경북여자상업고등학교,고등학교,대구광역시,남구,대명동,1804-2,35.85494162,128.5887495
광탄고등학교,고등학교,경기도,파주시,광탄면,신산리 232,37.78343723,126.848919
일산국제컨벤션고등학교,고등학교,경기도,고양시,일산서구,주엽동 41,37.67288456,126.771578
충북공업고등학교,고등학교,충청북도,청주시,흥덕구,가경동 666,36.61276064,127.4313961
송우고등학교,고등학교,경기도,포천시,소흘읍,송우리 728-8,37.82940922,127.1384377
성주여자고등학교,고등학교,경상북도,성주군,성주읍,경산리 763-1,35.91621487,128.2820745
대구외국어고등학교,고등학교,대구광역시,달서구,신당동,1675,35.860444,128.4980612
동패고등학교,고등학교,경기도,파주시,동패동,1976,37.71123986,126.734427
평해정보고등학교,고등학교,경상북도,울진군,평해읍,평해리 413,36.72891434,129.4429677
학성여자고등학교,고등학교,울산광역시,중구,약사동,707-24,35.56663235,129.334949
안산동산고등학교,고등학교,경기도,안산시,상록구,본오동 968-1,37.28686736,126.8585591
동남고등학교,고등학교,경기도,포천시,소흘읍,송우리 537-1,37.82695298,127.1356234
능동고등학교,고등학교,경기도,화성시,능동,1086,37.21390891,127.0575058
오산고등학교,고등학교,서울특별시,용산구,보광동,168-73,37.523505,127.0008872
전주대학교사범대학부설고등학교,고등학교,전북특별자치도,전주시,완산구,효자동3가 1207-1,35.81531188,127.0938165
청석고등학교,고등학교,충청북도,청주시,상당구,용암동 596,36.61443915,127.506642
초계고등학교,고등학교,경상남도,합천군,초계면,아막리 87,35.55830281,128.2709516
덕산고등학교,고등학교,경기도,부천시,오정구,오정동 111-4,37.53080239,126.7896968
세종미래고등학교,고등학교,세종특별자치시,부강면,문곡리,997-1,36.52678816,127.3818926
영주고등학교,고등학교,제주특별자치도,제주시,월평동,683,33.45478672,126.5797642
오금고등학교,고등학교,서울특별시,송파구,오금동,34-3,37.50453217,127.128969
원광여자고등학교,고등학교,전북특별자치도,익산시,모현동1가,520,35.95432998,126.9434322
연천고등학교,고등학교,경기도,연천군,연천읍,현가리 41-1,38.10822391,127.0766731
구로고등학교,고등학교,서울특별시,구로구,구로동,105-1,37.49884008,126.8903092
동두천고등학교,고등학교,경기도,동두천시,생연동,451,37.90471471,127.0592539
일산대진고등학교,고등학교,경기도,고양시,일산서구,대화동 2097,37.68047139,126.7515967
남지고등학교,고등학교,경상남도,창녕군,남지읍,남지리 829-10,35.38646985,128.472249
일산동고등학교,고등학교,경기도,고양시,일산서구,탄현동 1471,37.7006519,126.7686598
모계고등학교,고등학교,경상북도,청도군,화양읍,범곡리 117,35.6494626,128.7359915
부산장안고등학교,고등학교,부산광역시,기장군,장안읍,좌천리 425,35.31875901,129.2361258
담양공업고등학교,고등학교,전라남도,담양군,담양읍,반룡리 50,35.30241167,126.9822366
구미산동고등학교,고등학교,경상북도,구미시,산동면,인덕리 1119,36.158659,128.436173
월계고등학교,고등학교,서울특별시,노원구,월계동,778,37.63173301,127.0487159
마산구암고등학교,고등학교,경상남도,창원시,마산회원구,구암동 44-5,35.24705748,128.5968168
경기대명고등학교,고등학교,경기도,수원시,권선구,당수동 122,37.29601975,126.939985
세인고등학교,고등학교,전북특별자치도,완주군,화산면,운산리 110-1,36.06863841,127.153994
보성고등학교,고등학교,전라남도,보성군,보성읍,용문리 200-1,34.77571293,127.0942137
이리여자고등학교,고등학교,전북특별자치도,익산시,남중동,201-5,35.94486815,126.9513174
진해고등학교,고등학교,경상남도,창원시,진해구,여좌동 55,35.16081162,128.6651789
성서고등학교,고등학교,대구광역시,달서구,용산동,501-1,35.8598709,128.516192
경기영상과학고등학교,고등학교,경기도,고양시,일산서구,주엽동 95,37.66540546,126.7621008
함양제일고등학교,고등학교,경상남도,함양군,함양읍,교산리 210,35.52525216,127.7323767
인천남동고등학교,고등학교,인천광역시,남동구,논현동,588-1,37.4060269,126.7215164
석적고등학교,고등학교,경상북도,칠곡군,석적읍,중리 15,36.08164101,128.4184575
영락의료과학고등학교,고등학교,서울특별시,관악구,봉천동,1558-1,37.476588,126.9454164
약목고등학교,고등학교,경상북도,칠곡군,약목면,무림리 1119,36.02715812,128.3720695
포항중앙여자고등학교,고등학교,경상북도,포항시,북구,우현동 436-6,36.06373375,129.3486118
충북반도체고등학교,고등학교,충청북도,음성군,금왕읍,금석리 103,36.99456889,127.6068945
풍동고등학교,고등학교,경기도,고양시,일산동구,풍동 1231,37.6718435,126.7950813
청주IT과학고등학교,고등학교,충청북도,청주시,서원구,현도면 죽암리 262,36.52188865,127.4366168
예당고등학교,고등학교,전라남도,보성군,득량면,예당리 458-49,34.78058113,127.1993808
삼일공업고등학교,고등학교,경기도,수원시,팔달구,매향동 10-22,37.28554473,127.0205555
제천디지털전자고등학교,고등학교,충청북도,제천시,봉양읍,팔송리 360,37.14132233,128.1156999
백운고등학교,고등학교,경기도,의왕시,내손동,665-5,37.38788839,126.9866943
문수고등학교,고등학교,울산광역시,남구,무거동,266-1,35.555692,129.265401
수내고등학교,고등학교,경기도,성남시,분당구,수내동 120,37.36611486,127.1298639
영광여자고등학교,고등학교,경상북도,영주시,영주동,109-2,36.831987,128.6211922
살레시오여자고등학교,고등학교,광주광역시,동구,지산동,480,35.146975,126.9298381
계룡고등학교,고등학교,충청남도,계룡시,두마면,농소리 778,36.268104,127.258139
순천팔마고등학교,고등학교,전라남도,순천시,용당동,263-2,34.974794,127.4979343
개금고등학교,고등학교,부산광역시,부산진구,개금동,578-7,35.16087702,129.0256396
동명생활경영고등학교,고등학교,서울특별시,은평구,대조동,91-20,37.61441879,126.9228204
인천송천고등학교,고등학교,인천광역시,남동구,논현동,738-4,37.3958707,126.721632
목포성신고등학교,고등학교,전라남도,목포시,상동,328-3,34.81645959,126.4097016
나주고등학교,고등학교,전라남도,나주시,교동,118,35.03080035,126.7108432
포항제철공업고등학교,고등학교,경상북도,포항시,남구,지곡동 26,36.02230834,129.3270264
가은고등학교,고등학교,경상북도,문경시,가은읍,왕능리 218,36.64547535,128.0711654
인천해양과학고등학교,고등학교,인천광역시,연수구,옥련동,194-86,37.42524979,126.6407095
학익고등학교,고등학교,인천광역시,미추홀구,학익동,688-1,37.4399844,126.6623502
합덕제철고등학교,고등학교,충청남도,당진시,합덕읍,소소리 51-1,36.8133825,126.7624107
경기북과학고등학교,고등학교,경기도,의정부시,녹양동,305,37.758832,127.019645
강원애니고등학교,고등학교,강원특별자치도,춘천시,서면,금산리 19-1번지,37.90616461,127.7004387
금천고등학교,고등학교,경상북도,청도군,금천면,동곡리 1035,35.68807595,128.894726
안면고등학교,고등학교,충청남도,태안군,안면읍,승언리 60-27,36.50942768,126.3560096
한국조리과학고등학교,고등학교,경기도,시흥시,과림동,11-1,37.45851798,126.8323613
대구서부고등학교,고등학교,대구광역시,서구,평리동,1070-48,35.87365309,128.5602007
안동여자고등학교,고등학교,경상북도,안동시,법상동,23-1,36.57303974,128.7256251
안성여자고등학교,고등학교,경기도,안성시,신소현동,110,37.01814312,127.257949
연수여자고등학교,고등학교,인천광역시,연수구,동춘동,921-1,37.41103535,126.6723295
제천상업고등학교,고등학교,충청북도,제천시,신백동,182-3,37.13364913,128.2284182
서일문화예술고등학교,고등학교,서울특별시,종로구,창신동,13-80,37.57937936,127.0127927
경주여자고등학교,고등학교,경상북도,경주시,성건동,620-118,35.85752337,129.2051264
가평고등학교,고등학교,경기도,가평군,가평읍,대곡리 113,37.81828429,127.5130855
경화여자고등학교,고등학교,대구광역시,달서구,성당동,670-29,35.84839511,128.5486078
계림고등학교,고등학교,경상북도,경주시,황성동,897-1,35.8663446,129.2087245
경북항공고등학교,고등학교,경상북도,영주시,풍기읍,교촌리 147-7,36.88033832,128.5266682
대진디자인고등학교,고등학교,서울특별시,강남구,수서동,733,37.49042815,127.0959793
순천여자고등학교,고등학교,전라남도,순천시,저전동,88,34.94777692,127.4831409
부용고등학교,고등학교,경기도,의정부시,민락동,757-1,37.736306,127.0929481
인천바이오과학고등학교,고등학교,인천광역시,연수구,청학동,455-1,37.42084997,126.6683713
부개고등학교,고등학교,인천광역시,부평구,부개동,120-546,37.49221894,126.7380466
충북비즈니스고등학교,고등학교,충청북도,증평군,증평읍,초중리 11-8,36.7779141,127.5784193
전북기계공업고등학교,고등학교,전북특별자치도,익산시,남중동,55-1,35.94795211,126.9617606
도농고등학교,고등학교,경기도,남양주시,다산동,4330-3,37.61138869,127.150911
정석항공과학고등학교,고등학교,인천광역시,미추홀구,학익동,336-1,37.45144803,126.6515423
은혜고등학교,고등학교,경기도,평택시,장안동,390-1,37.06654128,127.0816468
황간고등학교,고등학교,충청북도,영동군,황간면,남성리 409,36.23494649,127.9105311
충무고등학교,고등학교,경상남도,통영시,북신동,338,34.853725,128.4242294
저동고등학교,고등학교,경기도,고양시,일산동구,정발산동 1208,37.67086575,126.7790577
영남공업고등학교,고등학교,대구광역시,수성구,만촌동,1160-3,35.84842817,128.6469293
저현고등학교,고등학교,경기도,고양시,일산동구,식사동 355-4,37.67779541,126.815957
구리고등학교,고등학교,경기도,구리시,수택동,785,37.58857093,127.1400939
서정고등학교,고등학교,경기도,고양시,덕양구,행신동 1065,37.62124515,126.8493849
백신고등학교,고등학교,경기도,고양시,일산동구,백석동 1347,37.64248837,126.7819557
고양일고등학교,고등학교,경기도,고양시,덕양구,고양동 248-17,37.6997244,126.9013355
인천논현고등학교,고등학교,인천광역시,남동구,논현동,604-2,37.40402323,126.727139
병점고등학교,고등학교,경기도,화성시,병점동,861,37.20585454,127.0437159
부평공업고등학교,고등학교,인천광역시,부평구,갈산동,360-2,37.51253378,126.7267928
성의고등학교,고등학교,경상북도,김천시,지좌동,1057-1,36.11395555,128.1389811
경북조리과학고등학교,고등학교,경상북도,문경시,문경읍,교촌리 158,36.73901645,128.1145085
영남고등학교,고등학교,대구광역시,달서구,상인동,70,35.82076999,128.5363043
한국에너지마이스터고등학교,고등학교,강원특별자치도,삼척시,근덕면,교가리 540 번지,37.38492867,129.2243017
매천고등학교,고등학교,대구광역시,북구,태전동,1127,35.91159433,128.5472371
서부산공업고등학교,고등학교,부산광역시,사상구,덕포동,45-6,35.17327691,128.9933191
호남원예고등학교,고등학교,전라남도,나주시,금천면,원곡리 253-1,35.03822307,126.751088
청구고등학교,고등학교,대구광역시,동구,신천동,850-6,35.86865525,128.6205716
서창고등학교,고등학교,경상남도,양산시,삼호동,483,35.41400251,129.1741433
동작고등학교,고등학교,서울특별시,동작구,사당동,236-23,37.48260194,126.9650863
효명고등학교,고등학교,경기도,평택시,장당동,470,37.0501393,127.0550807
예천여자고등학교,고등학교,경상북도,예천군,예천읍,백전리 55-1,36.66512706,128.4604323
와부고등학교,고등학교,경기도,남양주시,와부읍,덕소리 33,37.59481963,127.2231017
상주여자고등학교,고등학교,경상북도,상주시,복룡동,178-3,36.42050629,128.1787791
가좌고등학교,고등학교,인천광역시,서구,가좌동,230,37.48964618,126.6809097
청주중앙여자고등학교,고등학교,충청북도,청주시,서원구,사창동 227,36.63776915,127.4645545
영동미래고등학교,고등학교,충청북도,영동군,영동읍,계산리 271-7,36.17809238,127.7795959
덕원여자고등학교,고등학교,서울특별시,강서구,내발산동,산59-2,37.54862258,126.8290245
고색고등학교,고등학교,경기도,수원시,권선구,고색동 888-158,37.253835,126.9823466
양동고등학교,고등학교,경기도,양평군,양동면,쌍학리 215-2,37.42168348,127.755652
고척고등학교,고등학교,서울특별시,구로구,고척동,287-29,37.50804938,126.8498691
신성고등학교,고등학교,경기도,안양시,만안구,안양동 587-68,37.38415457,126.918832
삼산고등학교,고등학교,울산광역시,남구,삼산동,1535-4,35.545257,129.3413314
하남경영고등학교,고등학교,경기도,하남시,창우동,521-2,37.53845212,127.2260188
신갈고등학교,고등학교,경기도,용인시,기흥구,상갈동 산1-2,37.26975906,127.1113065
오산고등학교,고등학교,경기도,오산시,청학동,26,37.15430591,127.0626056
경북과학기술고등학교,고등학교,경상북도,김천시,아포읍,국사리 757-1,36.15917383,128.2429083
안양여자고등학교,고등학교,경기도,안양시,만안구,안양동 840-2,37.40353299,126.916303
초당고등학교,고등학교,경기도,용인시,기흥구,중동 1040,37.25869538,127.163217
광신방송예술고등학교,고등학교,서울특별시,관악구,신림동,329,37.4644762,126.9259406
광남고등학교,고등학교,전라남도,나주시,남평읍,교촌리 37,35.038587,126.8442532
경신고등학교,고등학교,대구광역시,수성구,범어동,100-5,35.85548176,128.6375875
대성여자상업고등학교,고등학교,충청북도,청주시,상당구,수동 428-1,36.64537659,127.492246
광덕고등학교,고등학교,경기도,안산시,상록구,월피동 236-37,37.34014053,126.8457848
삼산고등학교,고등학교,인천광역시,부평구,삼산동,391-2,37.52161093,126.7458927
대전이문고등학교,고등학교,대전광역시,대덕구,석봉동,311-1,36.44731214,127.4234779
한일고등학교,고등학교,충청남도,공주시,정안면,광정리 164,36.60454634,127.1288217
영산고등학교,고등학교,전라남도,나주시,삼영동,17,35.00894093,126.7139419
경희고등학교,고등학교,서울특별시,동대문구,이문동,1-3,37.59394914,127.054891
정남진산업고등학교,고등학교,전라남도,장흥군,장흥읍,행원리 1205-2,34.68789365,126.9009493
경기물류고등학교,고등학교,경기도,평택시,안중읍,안중리 293-46,36.986906,126.9296362
구미여자상업고등학교,고등학교,경상북도,구미시,형곡동,198,36.10756924,128.3421444
마산공업고등학교,고등학교,경상남도,창원시,마산회원구,합성동 12-3,35.24416345,128.5959636
목포여자고등학교,고등학교,전라남도,목포시,대성동,40-1,34.79788027,126.3852423
덕문여자고등학교,고등학교,부산광역시,수영구,광안동,산8-8,35.16774439,129.1036484
의성유니텍고등학교,고등학교,경상북도,의성군,의성읍,중리리 532,36.35494747,128.7010442
한빛누리고등학교,고등학교,경기도,동두천시,생연동,522-1,37.91198659,127.061072
울산여자고등학교,고등학교,울산광역시,남구,신정동,1209-1,35.5355867,129.3095958
건국대학교사범대학부속고등학교,고등학교,서울특별시,광진구,화양동,528,37.53918267,127.0747119
석정여자고등학교,고등학교,인천광역시,남동구,간석동,614-11,37.46866507,126.694192
용인고등학교,고등학교,경기도,용인시,처인구,역북동 444-1,37.24057072,127.193049
대가야고등학교,고등학교,경상북도,고령군,대가야읍,쾌빈리 51-2,35.7441136,128.2714279
브니엘예술고등학교,고등학교,부산광역시,금정구,구서동,50-1,35.25485306,129.1039264
당곡고등학교,고등학교,서울특별시,관악구,봉천동,677,37.49176034,126.9342464
청송자동차고등학교,고등학교,경상북도,청송군,부남면,대전리 654,36.34142109,129.0603994
한국과학기술고등학교,고등학교,경상남도,창녕군,고암면,우천리 870-1,35.56764195,128.5084514
청산고등학교,고등학교,충청북도,옥천군,청산면,백운리 333-1,36.34923084,127.7951813
숭신여자고등학교,고등학교,경기도,성남시,중원구,금광동 2686,37.45026861,127.1700177
장유고등학교,고등학교,경상남도,김해시,부곡동,1166,35.202087,128.8039204
성동고등학교,고등학교,서울특별시,중구,신당동,161,37.564116,127.0223892
동아공업고등학교,고등학교,부산광역시,사하구,괴정동,619-46,35.09322008,128.9884286
한림고등학교,고등학교,제주특별자치도,제주시,한림읍,옹포리 777,33.39775136,126.2583198
전남자연과학고등학교,고등학교,전라남도,구례군,구례읍,봉서리 1096-2,35.19995065,127.4631172
대전성모여자고등학교,고등학교,대전광역시,중구,대흥동,520-1,36.32246468,127.4182965
강원생활과학고등학교,고등학교,강원특별자치도,홍천군,남면,양덕원리 66 번지,37.60888471,127.7701243
경북고등학교,고등학교,대구광역시,수성구,황금동,9,35.84474469,128.6416344
울산중앙고등학교,고등학교,울산광역시,중구,태화동,359,35.55609474,129.2844496
서강고등학교,고등학교,광주광역시,북구,운암동,789-20,35.17517965,126.8680368
형곡고등학교,고등학교,경상북도,구미시,형곡동,778-1,36.10150009,128.338422
목상고등학교,고등학교,전라남도,목포시,용당동,937-1,34.80571314,126.3949956
세화고등학교,고등학교,경상북도,포항시,북구,우현동 318-3,36.05282731,129.3521048
목포제일여자고등학교,고등학교,전라남도,목포시,옥암동,983,34.80762176,126.430872
잠신고등학교,고등학교,서울특별시,송파구,잠실동,22-2,37.51470129,127.088283
울산고등학교,고등학교,울산광역시,중구,복산동,382,35.56309225,129.3311353
강진고등학교,고등학교,전라남도,강진군,강진읍,서성리 302-5,34.63782109,126.7585876
김화고등학교,고등학교,강원특별자치도,철원군,서면,589-3,38.24404542,127.4333719
경희여자고등학교,고등학교,서울특별시,동대문구,회기동,1-5,37.59394914,127.054891
포항여자고등학교,고등학교,경상북도,포항시,북구,학산동 243,36.05064084,129.3643118
대전용산고등학교,고등학교,대전광역시,유성구,용산동,658,36.42100777,127.3959054
호계고등학교,고등학교,울산광역시,북구,호계동,262-4,35.63056594,129.3550384
해운대여자고등학교,고등학교,부산광역시,해운대구,우동,산100-2,35.16960195,129.1530235
오산정보고등학교,고등학교,경기도,오산시,청학동,52-1,37.15389008,127.059967
고령고등학교,고등학교,경상북도,고령군,대가야읍,연조리 92,35.73565191,128.2701005
인동고등학교,고등학교,경상북도,구미시,구평동,477,36.089962,128.4322095
양양고등학교,고등학교,강원특별자치도,양양군,양양읍,서문리 115 번지,38.07266653,128.6165084
광양여자고등학교,고등학교,전라남도,광양시,광양읍,칠성리 753,34.97649691,127.5804126
대구전자공업고등학교,고등학교,대구광역시,달서구,장기동,464-10,35.84793267,128.5297971
보은정보고등학교,고등학교,충청북도,보은군,보은읍,성주리 171-2,36.49099891,127.7352841
인천신현고등학교,고등학교,인천광역시,서구,신현동,305-2,37.52034052,126.6678412
휘문고등학교,고등학교,서울특별시,강남구,대치동,952-1,37.50528945,127.0619939
동원고등학교,고등학교,경기도,수원시,장안구,이목동 241-9,37.31981901,126.9824035
잠실여자고등학교,고등학교,서울특별시,송파구,송파동,99-2,37.50179413,127.1142413
벌교고등학교,고등학교,전라남도,보성군,벌교읍,장좌리 511,34.8333152,127.3422901
부광고등학교,고등학교,인천광역시,부평구,산곡동,310-30,37.48841975,126.7030714
김천여자고등학교,고등학교,경상북도,김천시,모암동,104-1,36.12743631,128.1216469
명덕여자고등학교,고등학교,서울특별시,강서구,내발산동,169-1,37.55394399,126.8342915
이리공업고등학교,고등학교,전북특별자치도,익산시,남중동,379-2,35.9542133,126.9533587
진주여자고등학교,고등학교,경상남도,진주시,상봉동,856-1,35.20114847,128.0767716
한국외식과학고등학교,고등학교,경기도,양주시,남면,신산리 187-1,37.89719133,126.979851
호평고등학교,고등학교,경기도,남양주시,호평동,677,37.65719386,127.252755
울산경의고등학교,고등학교,울산광역시,울주군,상북면,산전리 435,35.58852032,129.0932748
경북드론고등학교,고등학교,경상북도,청도군,풍각면,송서리 553-6,35.64122493,128.6207782
대전둔원고등학교,고등학교,대전광역시,서구,갈마동,1243,36.34283137,127.373387
포항보건고등학교,고등학교,경상북도,포항시,북구,죽장면 입암리 650-1,36.16391663,129.0932289
후포고등학교,고등학교,경상북도,울진군,후포면,후포리 1015,36.68031187,129.4459375
안곡고등학교,고등학교,경기도,고양시,일산동구,중산동 1718,37.682002,126.7872084
금곡고등학교,고등학교,경기도,남양주시,금곡동,152-18,37.63309159,127.2129487
지산고등학교,고등학교,경기도,파주시,와동동,1612,37.735428,126.749871
화수고등학교,고등학교,경기도,고양시,덕양구,화정동 854,37.64506907,126.836154
주엽고등학교,고등학교,경기도,고양시,일산서구,대화동 2168,37.67610348,126.754359
다운고등학교,고등학교,울산광역시,중구,다운동,641,35.56648882,129.2706096
배정고등학교,고등학교,부산광역시,남구,문현동,985-26,35.13215205,129.0674134
화성고등학교,고등학교,경기도,화성시,향남읍,장짐리 161,37.13902926,126.9064904
인천효성고등학교,고등학교,인천광역시,계양구,효성동,13-1,37.53146736,126.7149972
경북기계명장고등학교,고등학교,경상북도,칠곡군,지천면,신리 597,35.95847599,128.483912
인화여자고등학교,고등학교,인천광역시,미추홀구,도화동,241,37.47099649,126.6548626
화암고등학교,고등학교,울산광역시,동구,방어동,1053,35.476981,129.409585
충북예술고등학교,고등학교,충청북도,청주시,흥덕구,가경동 290,36.610852,127.4327541
인천상정고등학교,고등학교,인천광역시,부평구,십정동,136-4,37.48070089,126.6961796
장안제일고등학교,고등학교,부산광역시,기장군,장안읍,좌천리 516-16,35.31450466,129.240779
인성여자고등학교,고등학교,인천광역시,중구,송학동2가,18-1,37.4739458,126.624248
포항이동고등학교,고등학교,경상북도,포항시,남구,이동 146-1,36.02968696,129.3335059
중마고등학교,고등학교,전라남도,광양시,마동,1087,34.95321145,127.6976714
건국고등학교,고등학교,부산광역시,사하구,하단동,산41,35.10952808,128.9696164
삼천포중앙고등학교,고등학교,경상남도,사천시,벌리동,304-3,34.93974186,128.0898621
성호고등학교,고등학교,경기도,오산시,원동,605,37.13914256,127.0816273
경기모바일과학고등학교,고등학교,경기도,안산시,상록구,팔곡일동 253,37.30556825,126.8981471
안산공업고등학교,고등학교,경기도,안산시,상록구,부곡동 722,37.33634683,126.8615892
운중고등학교,고등학교,경기도,성남시,분당구,운중동 957,37.39280433,127.073644
숙지고등학교,고등학교,경기도,수원시,팔달구,화서동 653,37.28296783,126.993266
영북고등학교,고등학교,경기도,포천시,영북면,운천리 334-1,38.08606458,127.2762709
경주예일고등학교,고등학교,경상북도,경주시,안강읍,산대리 1859,35.9933896,129.2108269
세원고등학교,고등학교,경기도,고양시,일산동구,풍동 195,37.67146934,126.8033476
무산고등학교,고등학교,경상북도,경주시,건천읍,천포리 638-4,35.84478145,129.0961167
경주고등학교,고등학교,경상북도,경주시,황오동,13,35.84315899,129.2266807
영주여자고등학교,고등학교,경상북도,영주시,하망동,167-1,36.830299,128.6287893
기흥고등학교,고등학교,경기도,용인시,기흥구,신갈동 161,37.28229211,127.108853
인천정보과학고등학교,고등학교,인천광역시,중구,율목동,1-27,37.47070292,126.6366135
인천여자상업고등학교,고등학교,인천광역시,중구,신생동,25-1,37.46821127,126.6282965
보은여자고등학교,고등학교,충청북도,보은군,보은읍,교사리 116-2,36.49472013,127.7161033
한국해양마이스터고등학교,고등학교,경상북도,포항시,북구,여남동 393,36.07418804,129.4061983
한성과학고등학교,고등학교,서울특별시,서대문구,현저동,산5-47,37.57543617,126.9523709
창녕여자고등학교,고등학교,경상남도,창녕군,창녕읍,말흘리 47,35.540305,128.5053412
부곡고등학교,고등학교,경기도,안산시,상록구,부곡동 446-3,37.33153061,126.8574668
매탄고등학교,고등학교,경기도,수원시,영통구,매탄동 1247,37.26262774,127.044778
제주과학고등학교,고등학교,제주특별자치도,제주시,오라이동,산100,33.42440023,126.525293
장안고등학교,고등학교,경기도,수원시,장안구,정자동 886-3,37.29312138,126.9955918
분당중앙고등학교,고등학교,경기도,성남시,분당구,정자동 220,37.36064712,127.1246258
경북세무고등학교,고등학교,경상북도,포항시,북구,기계면 현내리 1089,36.077333,129.196092
호원고등학교,고등학교,경기도,의정부시,호원동,226-154,37.70560206,127.0443246
진접고등학교,고등학교,경기도,남양주시,진접읍,금곡리 1079,37.71585327,127.1904483
신명여자고등학교,고등학교,인천광역시,남동구,간석동,58-1,37.46923037,126.7130184
충주고등학교,고등학교,충청북도,충주시,호암동,558,36.96165252,127.9302837
우성고등학교,고등학교,경기도,의왕시,고천동,496,37.34928616,126.9806509
창원공업고등학교,고등학교,경상남도,창원시,의창구,팔용동 45,35.23631124,128.6437086
무풍고등학교,고등학교,전북특별자치도,무주군,무풍면,현내리 503,35.96676372,127.846469
배문고등학교,고등학교,서울특별시,용산구,서계동,259-3,37.549998,126.9639041
남한고등학교,고등학교,경기도,하남시,덕풍동,450,37.5360184,127.203013
브니엘여자고등학교,고등학교,부산광역시,금정구,구서동,50-1,35.25485306,129.1039264
서울정화고등학교,고등학교,서울특별시,동대문구,제기동,293,37.58604864,127.0410703
성전고등학교,고등학교,전라남도,강진군,성전면,월평리 105,34.69371745,126.7064011
유성여자고등학교,고등학교,경상북도,포항시,북구,우현동 205-2,36.05777105,129.3610143
경남공업고등학교,고등학교,부산광역시,부산진구,전포동,696-1,35.15334824,129.0636388
미림여자정보과학고등학교,고등학교,서울특별시,관악구,신림동,1557-1,37.4661018,126.9319279
산청고등학교,고등학교,경상남도,산청군,산청읍,옥산리 815,35.40996061,127.8713538
제물포고등학교,고등학교,인천광역시,중구,전동,37-3,37.47726936,126.623845
동국대학교사범대학부속금산고등학교,고등학교,전북특별자치도,김제시,금산면,쌍용리 470,35.7177326,126.9994481
율곡고등학교,고등학교,경기도,파주시,법원읍,법원리 376,37.84799168,126.8813043
선덕여자고등학교,고등학교,경상북도,경주시,인왕동,571-1,35.83862147,129.2242275
감일고등학교,고등학교,경기도,하남시,감이동,99-1,37.50941102,127.1600938
신림고등학교,고등학교,서울특별시,관악구,신림동,1566-42,37.47921049,126.9169672
영주고등학교,고등학교,경상북도,영주시,하망동,산36,36.82270182,128.6412982
서울미술고등학교,고등학교,서울특별시,관악구,봉천동,1690-133,37.47669631,126.9667485
경주디자인고등학교,고등학교,경상북도,경주시,현곡면,가정리 728-2,35.90034715,129.1632696
강구정보고등학교,고등학교,경상북도,영덕군,강구면,삼사리 21,36.35361053,129.3803591
인천대건고등학교,고등학교,인천광역시,연수구,동춘동,517-1,37.4019879,126.665147
인천남고등학교,고등학교,인천광역시,남동구,간석동,614-12,37.46791494,126.6965526
세일고등학교,고등학교,인천광역시,부평구,산곡동,179-79,37.50616504,126.6930689
경기게임마이스터고등학교,고등학교,경기도,안양시,동안구,비산동 1101,37.39791081,126.9474683
영해고등학교,고등학교,경상북도,영덕군,영해면,괴시리 115,36.54233749,129.4132252
동계고등학교,고등학교,전북특별자치도,순창군,동계면,관전리 197,35.45004832,127.240649
인천영선고등학교,고등학교,인천광역시,부평구,삼산동,448-5,37.51594529,126.743904
문태고등학교,고등학교,전라남도,목포시,용당동,183,34.80057558,126.4030507
강서고등학교,고등학교,서울특별시,양천구,목동,735,37.53631557,126.8657711
자양고등학교,고등학교,서울특별시,광진구,자양동,524-11,37.53607797,127.0733395
진보고등학교,고등학교,경상북도,청송군,진보면,진안리 492,36.53283897,129.0414663
서진여자고등학교,고등학교,광주광역시,남구,주월동,산219-8,35.12555976,126.8999456
한국마사고등학교,고등학교,전북특별자치도,장수군,장계면,명덕리 1359,35.72425456,127.6344655
안산고등학교,고등학교,경기도,안산시,상록구,장상동 10-3,37.36050434,126.8736141
양운고등학교,고등학교,부산광역시,해운대구,좌동,1395,35.17786581,129.1705491
야탑고등학교,고등학교,경기도,성남시,분당구,야탑동 145-3,37.40376833,127.1535645
밀양여자고등학교,고등학교,경상남도,밀양시,내일동,326,35.49521193,128.7559345
논산여자상업고등학교,고등학교,충청남도,논산시,강산동,53-1,36.18482148,127.095938
진교고등학교,고등학교,경상남도,하동군,진교면,진교리 550,35.03579647,127.897764
매괴고등학교,고등학교,충청북도,음성군,감곡면,왕장리 498-1,37.12067594,127.6406558
의성여자고등학교,고등학교,경상북도,의성군,의성읍,후죽리 415-1,36.36119866,128.6969518
달성고등학교,고등학교,대구광역시,서구,내당동,467-1,35.85893186,128.5553428
남양고등학교,고등학교,경기도,화성시,남양읍,남양리 1633-1,37.2079709,126.8234064
한국미래산업고등학교,고등학교,경상북도,영주시,하망동,595,36.81859532,128.6455598
정관고등학교,고등학교,부산광역시,기장군,정관읍,용수리 1395,35.322088,129.170237
운암고등학교,고등학교,경기도,오산시,원동,815-6,37.14383484,127.075033
숭덕고등학교,고등학교,광주광역시,광산구,월계동,765-7,35.21450644,126.8393251
관인고등학교,고등학교,경기도,포천시,관인면,탄동리 607-3,38.15804881,127.2505866
연무고등학교,고등학교,충청남도,논산시,연무읍,동산리 879,36.13536466,127.1046328
인천해사고등학교,고등학교,인천광역시,중구,북성동1가,102-28,37.46863564,126.6016659
덕암고등학교,고등학교,전북특별자치도,김제시,서암동,1,35.81309241,126.8870829
금성고등학교,고등학교,경상북도,의성군,금성면,탑리리 582,36.25441645,128.690147
의정부여자고등학교,고등학교,경기도,의정부시,가능동,653,37.75003605,127.0411502
포항동성고등학교,고등학교,경상북도,포항시,남구,동해면 도구리 621,35.98983978,129.4398423
용인백현고등학교,고등학교,경기도,용인시,기흥구,동백동 664,37.2793322,127.1625331
인천여자고등학교,고등학교,인천광역시,연수구,연수동,534-3,37.42188142,126.6903145
양일고등학교,고등학교,경기도,양평군,양평읍,양근리 148,37.49437051,127.4934909
삼괴고등학교,고등학교,경기도,화성시,우정읍,조암리 139,37.08982064,126.8222924
대동고등학교,고등학교,경상북도,포항시,북구,우현동 201-6,36.05831145,129.3571484
동광고등학교,고등학교,경기도,성남시,중원구,성남동 2876-1,37.43463362,127.1434964
옥련여자고등학교,고등학교,인천광역시,연수구,옥련동,93,37.43190903,126.6488476
해남공업고등학교,고등학교,전라남도,해남군,해남읍,남외리 24-1,34.57266047,126.5929698
동탄국제고등학교,고등학교,경기도,화성시,반송동,204-1,37.18920635,127.0783391
성지고등학교,고등학교,경기도,용인시,기흥구,구갈동 599,37.27228468,127.1312675
용화여자고등학교,고등학교,서울특별시,노원구,상계동,696,37.65913138,127.0582807
구림공업고등학교,고등학교,전라남도,영암군,군서면,동구림리 414-1,34.75989027,126.6263371
포항여자전자고등학교,고등학교,경상북도,포항시,북구,용흥동 430,36.05062684,129.3477758
작전고등학교,고등학교,인천광역시,계양구,작전동,80,37.53284074,126.7301792
경문고등학교,고등학교,서울특별시,동작구,동작동,산4-2,37.49341886,126.9822734
진명여자고등학교,고등학교,서울특별시,양천구,목동,927-6,37.52404701,126.8658566
중화고등학교,고등학교,서울특별시,중랑구,중화동,21-4,37.60481461,127.0836541
인천전자마이스터고등학교,고등학교,인천광역시,동구,송림동,47-11,37.47099649,126.6548626
대전둔산여자고등학교,고등학교,대전광역시,서구,갈마동,823,36.35297303,127.3732835
청주고등학교,고등학교,충청북도,청주시,흥덕구,복대동 869,36.63602351,127.4552331
군포중앙고등학교,고등학교,경기도,군포시,부곡동,1094,37.32397274,126.9372177
별내고등학교,고등학교,경기도,남양주시,별내동,1051,37.65158042,127.1170775
인천해송고등학교,고등학교,인천광역시,연수구,송도동,9-4,37.382567,126.6458688
두레자연고등학교,고등학교,경기도,화성시,우정읍,화산리 692-11,37.059386,126.795774
수원하이텍고등학교,고등학교,경기도,수원시,영통구,영통동 1049-1,37.25629389,127.0812925
구리여자고등학교,고등학교,경기도,구리시,토평동,214,37.59175747,127.1514056
인창고등학교,고등학교,경기도,구리시,인창동,669-3,37.605409,127.1464713
봉화고등학교,고등학교,경상북도,봉화군,봉화읍,삼계리 314-2,36.89603742,128.7399693
중산고등학교,고등학교,경기도,고양시,일산동구,중산동 1554,37.69694847,126.7825931
수원공업고등학교,고등학교,경기도,수원시,팔달구,인계동 249-1,37.274233,127.0245216
평촌경영고등학교,고등학교,경기도,안양시,동안구,관양동 1587-2,37.40107292,126.9590273
창원토월고등학교,고등학교,경상남도,창원시,성산구,토월동 443,35.225747,128.7036398
홍천여자고등학교,고등학교,강원특별자치도,홍천군,홍천읍,희망리 337 번지,37.69181238,127.8812367
한국바둑고등학교,고등학교,전라남도,순천시,주암면,구산리 760,35.0748151,127.2403264
김해분성고등학교,고등학교,경상남도,김해시,삼계동,1442-5,35.26547784,128.8745534
갈매고등학교,고등학교,경기도,구리시,갈매동,407-1,37.627385,127.1176504
죽변고등학교,고등학교,경상북도,울진군,죽변면,죽변리 215,37.0652152,129.421329
고양외국어고등학교,고등학교,경기도,고양시,덕양구,관산동 332,37.69052753,126.8592787
성사고등학교,고등학교,경기도,고양시,덕양구,성사동 624-3,37.663005,126.842108
마산제일고등학교,고등학교,경상남도,창원시,마산회원구,내서읍 용담리 167-1,35.26178427,128.5054568
삼가고등학교,고등학교,경상남도,합천군,삼가면,일부리 257-1,35.41313677,128.1313774
행신고등학교,고등학교,경기도,고양시,덕양구,행신동 790,37.61640532,126.8426241
한국문화영상고등학교,고등학교,경기도,동두천시,생연동,산43-2,37.90605631,127.060131
인천보건고등학교,고등학교,인천광역시,서구,석남동,295-1,37.50532986,126.6815492
전주해성고등학교,고등학교,전북특별자치도,전주시,완산구,삼천동2가 555,35.786765,127.1008413
경주여자정보고등학교,고등학교,경상북도,경주시,시래동,729-1,35.77338342,129.2898895
태성고등학교,고등학교,경기도,용인시,처인구,남동 28,37.22892007,127.208854
서인천고등학교,고등학교,인천광역시,서구,검암동,636-7,37.56108344,126.675771
포항고등학교,고등학교,경상북도,포항시,북구,학산동 288,36.05582158,129.3725721
광주여자고등학교,고등학교,광주광역시,서구,화정동,325-7,35.14818775,126.8731839
울산스포츠과학고등학교,고등학교,울산광역시,북구,산하동,산180-2,35.62375059,129.4313014
여수정보과학고등학교,고등학교,전라남도,여수시,문수동,182,34.75249359,127.6983989
경주화랑고등학교,고등학교,경상북도,경주시,문무대왕면,장항리 333,35.793949911,129.3884050734
돌마고등학교,고등학교,경기도,성남시,분당구,이매동 265,37.39327801,127.1321643
동양고등학교,고등학교,서울특별시,강서구,가양동,1464,37.56901968,126.8470811
계산공업고등학교,고등학교,인천광역시,계양구,계산동,1084-6,37.53481361,126.7397141
송탄고등학교,고등학교,경기도,평택시,이충동,137-5,37.05641034,127.0699325
옥천고등학교,고등학교,충청북도,옥천군,옥천읍,삼양리 115-4,36.30838922,127.5700421
한국한방고등학교,고등학교,전북특별자치도,진안군,진안읍,연장리 998,35.770709,127.3774507
평내고등학교,고등학교,경기도,남양주시,평내동,568,37.64205451,127.2340944
현일고등학교,고등학교,경상북도,구미시,고아읍,항곡리 468-1,36.18720149,128.349288
전남미용고등학교,고등학교,전라남도,나주시,영산동,82,34.9985773,126.7120248
순심여자고등학교,고등학교,경상북도,칠곡군,왜관읍,왜관리 776-9,35.98647718,128.3958253
한국국제통상마이스터고등학교,고등학교,경상북도,경주시,감포읍,오류리 478-2,35.81078851,129.5061535
창원중앙여자고등학교,고등학교,경상남도,창원시,성산구,상남동 45-4,35.214299,128.6924259
예당고등학교,고등학교,경기도,화성시,석우동,61,37.20845778,127.0802182
덕현고등학교,고등학교,경기도,양주시,만송동,703,37.79827082,127.0846203
덕이고등학교,고등학교,경기도,고양시,일산서구,덕이동 381-16,37.69575632,126.754851
대부고등학교,고등학교,경기도,안산시,단원구,대부북동 697-6,37.247751,126.5790618
관양고등학교,고등학교,경기도,안양시,동안구,관양동 523-4,37.40881423,126.9601178
무원고등학교,고등학교,경기도,고양시,덕양구,행신동 977,37.61907994,126.838162
한국국제조리고등학교,고등학교,경상북도,영주시,휴천동,산112,36.81660939,128.6422124
가좌고등학교,고등학교,경기도,고양시,일산서구,가좌동 1097,37.68802952,126.7201873
흥덕고등학교,고등학교,충청북도,청주시,흥덕구,복대동 2457,36.63686278,127.423954
덕소고등학교,고등학교,경기도,남양주시,와부읍,도곡리 986,37.579384,127.216596
해성고등학교,고등학교,경상남도,거제시,장승포동,402,34.87068087,128.7236928
북삼고등학교,고등학교,경상북도,칠곡군,북삼읍,인평리 694-1,36.07169715,128.3347281
등촌고등학교,고등학교,서울특별시,강서구,등촌동,691-2,37.56294522,126.8450461
휘경여자고등학교,고등학교,서울특별시,동대문구,휘경동,43-7,37.58190052,127.0674341
이충고등학교,고등학교,경기도,평택시,이충동,657,37.057442,127.0648687
평택고등학교,고등학교,경기도,평택시,합정동,368-11,36.989735,127.1083223
심석고등학교,고등학교,경기도,남양주시,화도읍,마석우리 215-1,37.65603445,127.3068854
연수고등학교,고등학교,인천광역시,연수구,연수동,632-1,37.41173562,126.6801271
백양고등학교,고등학교,경기도,고양시,덕양구,행신동 897,37.62949459,126.8384269
백석고등학교,고등학교,경기도,고양시,일산동구,마두동 784,37.6529063,126.7869189
화곡고등학교,고등학교,서울특별시,강서구,내발산동,산48-3,37.54793611,126.8315357
동지여자고등학교,고등학교,경상북도,포항시,북구,용흥동 511,36.038653,129.3467246
인천세원고등학교,고등학교,인천광역시,계양구,병방동,5-5,37.55161396,126.7447093
전주성심여자고등학교,고등학교,전북특별자치도,전주시,완산구,교동 280,35.81195132,127.150661
삼천포공업고등학교,고등학교,경상남도,사천시,동금동,45-1,34.93428197,128.0839734
한가람고등학교,고등학교,서울특별시,양천구,목동,909-12,37.53746204,126.8840075
창신고등학교,고등학교,경상남도,창원시,마산회원구,봉암동 511-1,35.2259412,128.5975546
포항흥해공업고등학교,고등학교,경상북도,포항시,북구,흥해읍 옥성리 376,36.1071263,129.3385381
신한고등학교,고등학교,경기도,평택시,비전동,224-7,36.99355003,127.1044177
영덕고등학교,고등학교,경상북도,영덕군,영덕읍,화개리 72,36.41488843,129.3679427
동탄고등학교,고등학교,경기도,화성시,반송동,60,37.20414063,127.0603836
송도고등학교,고등학교,인천광역시,연수구,옥련동,175,37.42861209,126.6437726
인일여자고등학교,고등학교,인천광역시,중구,전동,25-4,37.47797136,126.6263097
순천공업고등학교,고등학교,전라남도,순천시,조례동,1160,34.95557109,127.5167914
부산고등학교,고등학교,부산광역시,동구,초량동,806-177,35.12146725,129.0366296
전남조리과학고등학교,고등학교,전라남도,곡성군,곡성읍,교촌리 22,35.28257899,127.2871456
대전가오고등학교,고등학교,대전광역시,동구,가오동,427,36.3106602,127.454475
청주농업고등학교,고등학교,충청북도,청주시,청원구,내덕동 322,36.65852796,127.4854368
와룡고등학교,고등학교,대구광역시,달서구,이곡동,1318,35.86137993,128.503679
양재고등학교,고등학교,서울특별시,서초구,서초동,1376-4,37.48242164,127.0320796
청학고등학교,고등학교,경기도,남양주시,별내면,청학리 408-1,37.71183929,127.1195678
태광고등학교,고등학교,경기도,평택시,신장동,263-314,37.07380166,127.0534992
신흥고등학교,고등학교,경기도,동두천시,안흥동,36,37.93106706,127.0478141
광주고등학교,고등학교,경기도,광주시,송정동,35,37.41766644,127.265711
창평고등학교,고등학교,전라남도,담양군,창평면,창평리 232,35.238479,127.0123953
선인고등학교,고등학교,인천광역시,미추홀구,도화동,206-1,37.47099649,126.6548626
서울삼육고등학교,고등학교,경기도,구리시,교문동,산90,37.5952268,127.1245233
가정고등학교,고등학교,인천광역시,서구,가정동,430-41,37.51351681,126.6797187
군위고등학교,고등학교,대구광역시,군위군,군위읍,정리 291,36.24547463,128.5697899
보라고등학교,고등학교,경기도,용인시,기흥구,보라동 605,37.25145551,127.1105881
가락고등학교,고등학교,서울특별시,송파구,송파동,172,37.50107579,127.1164258
진위고등학교,고등학교,경기도,평택시,진위면,가곡리 505,37.10991471,127.0694297
발곡고등학교,고등학교,경기도,의정부시,신곡동,248-36,37.7284552,127.0678813
인천비즈니스고등학교,고등학교,인천광역시,미추홀구,도화동,1010,37.47211645,126.6665695
고흥도화고등학교,고등학교,전라남도,고흥군,도화면,당오리 480-3,34.51405905,127.3204303
선산고등학교,고등학교,경상북도,구미시,선산읍,노상리 40,36.24820115,128.2950623
이사벨고등학교,고등학교,부산광역시,연제구,거제동,75-7,35.19353414,129.077938
라온고등학교,고등학교,경기도,평택시,서정동,2-73,37.06940562,127.0669522
구미정보고등학교,고등학교,경상북도,구미시,황상동,산40-3,36.118552,128.4342303
인천산곡고등학교,고등학교,인천광역시,부평구,산곡동,137-2,37.50320265,126.713195
상주공업고등학교,고등학교,경상북도,상주시,낙양동,388,36.40665006,128.1462224
문창고등학교,고등학교,경상북도,문경시,흥덕동,716,36.60352544,128.2003063
용인홍천고등학교,고등학교,경기도,용인시,수지구,신봉동 885,37.32221072,127.0823971
선주고등학교,고등학교,경상북도,구미시,봉곡동,7,36.14176382,128.3122513
동명여자고등학교,고등학교,서울특별시,은평구,대조동,91-20,37.61441879,126.9228204
연무마이스터고등학교,고등학교,충청남도,논산시,연무읍,마산리 505,36.12582063,127.1068829
광양고등학교,고등학교,전라남도,광양시,봉강면,석사리 75,34.983653,127.5726584
오남고등학교,고등학교,경기도,남양주시,오남읍,양지리 80-4,37.69821404,127.2065483
안계고등학교,고등학교,경상북도,의성군,안계면,용기리 810,36.383393,128.4339089
한국미래농업고등학교,고등학교,경상북도,상주시,모동면,덕곡리 1073,36.3254066,127.9608589
개포고등학교,고등학교,서울특별시,강남구,개포동,173,37.484953,127.0594065
인천대중예술고등학교,고등학교,인천광역시,미추홀구,도화동,20-6,37.47099649,126.6548626
구미전자공업고등학교,고등학교,경상북도,구미시,임수동,183-1,36.11720873,128.4046109
주성고등학교,고등학교,충청북도,청주시,상당구,용담동 437,36.63483259,127.5106512
마산용마고등학교,고등학교,경상남도,창원시,마산합포구,산호동 438-1,35.21228385,128.582118
순천효산고등학교,고등학교,전라남도,순천시,용당동,403-2,34.97321267,127.4954825
웅천고등학교,고등학교,경상남도,창원시,진해구,성내동 395-6,35.112486,128.7497026
서원고등학교,고등학교,경기도,용인시,수지구,상현동 836,37.302407,127.0814728
다대고등학교,고등학교,부산광역시,사하구,다대동,1551,35.05313679,128.9698499
신길고등학교,고등학교,경기도,안산시,단원구,신길동 1672,37.33443136,126.787526
계산여자고등학교,고등학교,인천광역시,계양구,용종동,228-2,37.53825318,126.7418943
한국교원대학교부설고등학교,고등학교,충청북도,청주시,흥덕구,강내면 월탄리 6,36.6056651998,127.3573246773
군산중앙고등학교,고등학교,전북특별자치도,군산시,성산면,도암리 608-9,36.00197655,126.7849803
죽전고등학교,고등학교,경기도,용인시,수지구,죽전동 861-1,37.33263026,127.106055
유성생명과학고등학교,고등학교,대전광역시,유성구,구암동,27-2,36.34711665,127.3299616
영양고등학교,고등학교,경상북도,영양군,영양읍,서부리 540,36.66077434,129.1108216
화홍고등학교,고등학교,경기도,수원시,권선구,권선동 1302,37.2517435,127.040294
성문고등학교,고등학교,경기도,안양시,만안구,안양동 501-28,37.37984308,126.9246852
분당대진고등학교,고등학교,경기도,성남시,분당구,분당동 72,37.36941233,127.1381475
경구고등학교,고등학교,경상북도,구미시,봉곡동,279,36.14854107,128.307609
충주대원고등학교,고등학교,충청북도,충주시,안림동,493,36.97133328,127.951823
흥덕고등학교,고등학교,경기도,용인시,기흥구,영덕동 1020,37.27075758,127.0744587
동래원예고등학교,고등학교,부산광역시,동래구,온천동,406,35.214646,129.0754982
마산무학여자고등학교,고등학교,경상남도,창원시,마산회원구,회원동 145-1,35.223026,128.5748764
보문고등학교,고등학교,대전광역시,동구,삼성동,283-58,36.33697696,127.4241257
대일고등학교,고등학교,서울특별시,강서구,등촌동,산88,37.5394887,126.8634031
풍덕고등학교,고등학교,경기도,용인시,수지구,풍덕천동 1121,37.31702384,127.0892193
산본고등학교,고등학교,경기도,군포시,산본동,1090,37.37078146,126.925841
과천여자고등학교,고등학교,경기도,과천시,중앙동,11-4,37.43264355,126.9881073
브니엘고등학교,고등학교,부산광역시,금정구,구서동,50,35.25485306,129.1039264
다사고등학교,고등학교,대구광역시,달성군,다사읍,죽곡리 5-5,35.86110567,128.4627608
상일여자고등학교,고등학교,광주광역시,서구,쌍촌동,1353,35.15878307,126.864442
영락고등학교,고등학교,서울특별시,관악구,봉천동,1558-1,37.47654259,126.9454164
과천외국어고등학교,고등학교,경기도,과천시,중앙동,11-4,37.43264355,126.9881073
여수해양과학고등학교,고등학교,전라남도,여수시,돌산읍,군내리 139,34.61413689,127.7270000195
봉일천고등학교,고등학교,경기도,파주시,조리읍,봉일천리 254-2,37.74699036,126.8162726
인천연송고등학교,고등학교,인천광역시,연수구,송도동,15-4,37.40316747,126.646736
홍익디자인고등학교,고등학교,서울특별시,마포구,연남동,369-1,37.56351064,126.9191663
두원공업고등학교,고등학교,경기도,안성시,미양면,신기리 203-4,36.996778,127.2417999
풍산고등학교,고등학교,경상북도,안동시,풍산읍,안교리 320,36.58414665,128.5665358
센텀고등학교,고등학교,부산광역시,해운대구,재송동,1222,35.17710343,129.1269806
마산여자고등학교,고등학교,경상남도,창원시,마산합포구,완월동 300,35.19593834,128.5614097
은광여자고등학교,고등학교,서울특별시,강남구,도곡동,938-10,37.48837857,127.0352324
숭덕여자고등학교,고등학교,인천광역시,남동구,만수동,5-213,37.46428211,126.7339171
산마을고등학교,고등학교,인천광역시,강화군,양도면,삼흥리 460,37.68636257,126.4255653
숭의여자고등학교,고등학교,서울특별시,동작구,대방동,20-114,37.50736414,126.9292433
부산남일고등학교,고등학교,부산광역시,수영구,망미동,920-10,35.17856564,129.1011712
상인고등학교,고등학교,대구광역시,달서구,상인동,1562,35.81045198,128.5512979
영흥고등학교,고등학교,전라남도,목포시,상동,55,34.80525243,126.416556
상동고등학교,고등학교,강원특별자치도,영월군,상동읍,천평리 175-1 번지,37.12525841,128.8224544
대성고등학교,고등학교,강원특별자치도,원주시,무실동,산123-1,37.32730971,127.9208655
선덕고등학교,고등학교,서울특별시,도봉구,쌍문동,263,37.65634868,127.0268766
김천중앙고등학교,고등학교,경상북도,김천시,율곡동,19,36.12348636,128.1744379
광명고등학교,고등학교,부산광역시,영도구,동삼동,226-118,35.08366549,129.0646045
구산고등학교,고등학교,경상남도,김해시,구산동,396,35.25044359,128.8756694
서대전여자고등학교,고등학교,대전광역시,서구,도마동,420-3,36.32773715,127.369556
김해건설공업고등학교,고등학교,경상남도,김해시,구산동,180,35.23954528,128.8759266
강원생명과학고등학교,고등학교,강원특별자치도,춘천시,사농동,122,37.91001603,127.7232945
대광고등학교,고등학교,서울특별시,동대문구,신설동,53-3,37.57795467,127.0253235
문산제일고등학교,고등학교,경기도,파주시,야동동,361,37.77260399,126.7628873
대구과학기술고등학교,고등학교,대구광역시,서구,내당동,456-1,35.85749282,128.5482964
용남고등학교,고등학교,충청남도,계룡시,신도안면,남선리 1278,36.29430921,127.2447646
경덕여자고등학교,고등학교,대구광역시,서구,중리동,100-1,35.86357119,128.5489381
세종고등학교,고등학교,세종특별자치시,조치원읍,서창리,30-2,36.6113263,127.298987
인천기계공업고등학교,고등학교,인천광역시,미추홀구,주안동,638-2,37.45685643,126.6683566
인천고잔고등학교,고등학교,인천광역시,남동구,논현동,762-1,37.38914932,126.7222573
부평여자고등학교,고등학교,인천광역시,부평구,부평동,65-147,37.50115184,126.7197062
서울과학고등학교,고등학교,서울특별시,종로구,혜화동,1-1,37.59154805,126.9984363
예산여자고등학교,고등학교,충청남도,예산군,예산읍,주교리 161-1,36.68476749,126.8336459
창녕대성고등학교,고등학교,경상남도,창녕군,대합면,등지리 651-7,35.60134951,128.4615163
영암고등학교,고등학교,전라남도,영암군,영암읍,회문리 256,34.79909753,126.686741
홍천농업고등학교,고등학교,강원특별자치도,홍천군,홍천읍,결운리 311,37.70541298,127.9120773
광주중앙고등학교,고등학교,경기도,광주시,역동,30-1,37.40347289,127.2579446
효자고등학교,고등학교,경기도,의정부시,신곡동,768-1,37.75315107,127.076633
금오공업고등학교,고등학교,경상북도,구미시,공단동,111,36.11808678,128.3697454
도개고등학교,고등학교,경상북도,구미시,도개면,궁기리 754,36.30151219,128.3301698
경남관광고등학교,고등학교,경상남도,창원시,의창구,봉곡동 169,35.248527,128.6752628
곤지암고등학교,고등학교,경기도,광주시,곤지암읍,곤지암리 453-12,37.34856308,127.3376092
송원여자상업고등학교,고등학교,광주광역시,남구,송하동,365-1,35.10818451,126.8732664
고창고등학교,고등학교,전북특별자치도,고창군,고창읍,교촌리 269,35.43744052,126.7012705
부산여자상업고등학교,고등학교,부산광역시,수영구,망미동,979-15,35.16911499,129.0964447
용인한국외국어대학교부설고등학교,고등학교,경기도,용인시,처인구,모현읍 왕산리 266,37.33045822,127.2567039
양평고등학교,고등학교,경기도,양평군,양평읍,양근리 237-1,37.48542599,127.496038
중앙탑고등학교,고등학교,충청북도,충주시,중앙탑면,용전리 701번지,37.012561,127.828065
수성고등학교,고등학교,경기도,수원시,장안구,정자동 49,37.29361367,127.0026571
포항장성고등학교,고등학교,경상북도,포항시,북구,장성동 1498-1,36.085832,129.384586
합덕고등학교,고등학교,충청남도,당진시,합덕읍,소소리 51-5,36.81339746,126.7602995
김해경원고등학교,고등학교,경상남도,김해시,외동,1249-1,35.23185637,128.8618172
대인고등학교,고등학교,인천광역시,서구,공촌동,47-3,37.55802602,126.6786094
경북휴먼테크고등학교,고등학교,경상북도,영천시,금호읍,교대리 172-1,35.932395,128.8736677
창원성민여자고등학교,고등학교,경상남도,창원시,의창구,팔용동 171-2,35.258844,128.6151137
서울대학교사범대학부설고등학교,고등학교,서울특별시,성북구,종암동,7-10,37.59472384,127.0381204
인천예일고등학교,고등학교,인천광역시,계양구,방축동,27-1,37.55422032,126.7418712
충주예성여자고등학교,고등학교,충청북도,충주시,호암동,526-1,36.95460514,127.9306001
한국바이오마이스터고등학교,고등학교,충청북도,진천군,진천읍,교성리 166,36.85087948,127.4400546
진도고등학교,고등학교,전라남도,진도군,진도읍,동외리 555-5,34.4882597,126.2767812
한국관광고등학교,고등학교,경기도,평택시,고덕면,당현리 40-3,37.07183184,127.0220615
경동고등학교,고등학교,서울특별시,성북구,삼선동3가,43-1,37.58669797,127.0163213
원곡고등학교,고등학교,경기도,안산시,단원구,원곡동 965-1,37.33286062,126.7986843
인천외국어고등학교,고등학교,인천광역시,부평구,산곡동,180-142,37.50473105,126.695142
동덕여자고등학교,고등학교,서울특별시,서초구,방배동,산82,37.475837,126.991995
Branksome Hall Asia,고등학교,제주특별자치도,서귀포시,대정읍,구억리 1121,33.28997179,126.2872649
배곧고등학교,고등학교,경기도,시흥시,정왕동,2489,37.3735612,126.7324732
진성여자고등학교,고등학교,전라남도,여수시,봉강동,203-1,34.73964826,127.7213738
강동고등학교,고등학교,서울특별시,강동구,상일동,267,37.54991665,127.1606683
경포고등학교,고등학교,강원특별자치도,강릉시,포남동,21번지,37.78170517,128.9160576
인덕원고등학교,고등학교,경기도,안양시,동안구,관양동 193-3,37.39997331,126.981096
삼광고등학교,고등학교,경기도,파주시,적성면,식현리 284,37.94557773,126.8855095
단국대학교사범대학부속고등학교,고등학교,서울특별시,강남구,대치동,1013-3,37.49561749,127.0577682
진주외국어고등학교,고등학교,경상남도,진주시,일반성면,개암리 884,35.16965618,128.281668
대곡고등학교,고등학교,대구광역시,달서구,도원동,1459,35.80323736,128.536857
인천포스코고등학교,고등학교,인천광역시,연수구,송도동,15-6,37.40146601,126.6483623
성창여자고등학교,고등학교,경상북도,안동시,안기동,312,36.5787438,128.7126189
경안고등학교,고등학교,경상북도,안동시,금곡동,124-17,36.568504,128.720475
보은고등학교,고등학교,충청북도,보은군,보은읍,죽전리 61,36.47530948,127.7205512
충현고등학교,고등학교,경기도,광명시,소하동,991-1,37.43295996,126.8845281
정선정보공업고등학교,고등학교,강원특별자치도,정선군,정선읍,북실리 765-1번지,37.38045612,128.6471346
치악고등학교,고등학교,강원특별자치도,원주시,관설동,1798-1,37.31576468,127.958589
나주상업고등학교,고등학교,전라남도,나주시,청동,88-1,35.04269594,126.722411
동대전고등학교,고등학교,대전광역시,대덕구,중리동,234-3,36.35628714,127.4236428
합포고등학교,고등학교,경상남도,창원시,마산합포구,교방동 170-1,35.20941219,128.5643386
원묵고등학교,고등학교,서울특별시,중랑구,묵동,23,37.61523231,127.0855078
이서고등학교,고등학교,경상북도,청도군,이서면,서원리 331-3,35.66249467,128.6684614
고성고등학교,고등학교,강원특별자치도,고성군,간성읍,상리 391 번지,38.3782834,128.4610029
부산해사고등학교,고등학교,부산광역시,영도구,동삼동,1167,35.0741905,129.0770175
원주금융회계고등학교,고등학교,강원특별자치도,원주시,부론면,법천리 1442 번지,37.20782695,127.7516585
대전지족고등학교,고등학교,대전광역시,유성구,지족동,857,36.37803212,127.315657
의성고등학교,고등학교,경상북도,의성군,의성읍,중리리 710-1,36.35335896,128.7002102
경민IT고등학교,고등학교,경기도,의정부시,가능동,562-6,37.74612458,127.0251316
상우고등학교,고등학교,경기도,의정부시,의정부동,611,37.73131924,127.0372967
제천여자고등학교,고등학교,충청북도,제천시,서부동,740,37.13638054,128.2046903
문경여자고등학교,고등학교,경상북도,문경시,모전동,21-2,36.59406498,128.1944829
동국대학교사범대학부속영석고등학교,고등학교,경기도,의정부시,용현동,산33-9,37.73587133,127.0749104
사곡고등학교,고등학교,경상북도,구미시,사곡동,461-2,36.09685605,128.352797
서연고등학교,고등학교,경기도,화성시,장지동,973,37.160819,127.1114322
단양고등학교,고등학교,충청북도,단양군,단양읍,도전리 324,36.97605452,128.3665156
인덕과학기술고등학교,고등학교,서울특별시,노원구,월계동,648-7,37.63034387,127.0544999
나루고등학교,고등학교,경기도,화성시,반송동,179,37.18656401,127.0719398
비전고등학교,고등학교,경기도,평택시,비전동,1088,37.0009278,127.1057671
인천생활과학고등학교,고등학교,인천광역시,연수구,연수동,535-1,37.42400958,126.6782904
동백고등학교,고등학교,경기도,용인시,기흥구,동백동 601,37.28335075,127.1584727
영광고등학교,고등학교,경상북도,영주시,상망동,산49-16,36.84190407,128.6432161
이솔고등학교,고등학교,경기도,화성시,동탄면,산척동 731,37.166508,127.111138
송산고등학교,고등학교,경기도,화성시,송산면,사강리 625,37.2164646,126.738237
문화고등학교,고등학교,경상북도,경주시,충효동,717,35.85337311,129.1690639
다정고등학교,고등학교,세종특별자치시,다정동,22-3,,36.493341,127.2421135
김해생명과학고등학교,고등학교,경상남도,김해시,외동,743,35.23723898,128.8552702
혜광고등학교,고등학교,부산광역시,중구,보수동1가,2-420,35.10879982,129.0246054
옥종고등학교,고등학교,경상남도,하동군,옥종면,양구리 41-1,35.17816307,127.8845972
동인고등학교,고등학교,부산광역시,동래구,사직동,981-90,35.19852193,129.0509969
성신고등학교,고등학교,울산광역시,중구,복산동,352-2,35.56270656,129.3278415
대구공업고등학교,고등학교,대구광역시,동구,신암동,811,35.88321267,128.6141702
고명외식고등학교,고등학교,서울특별시,성북구,동선동4가,325-1,37.59767468,127.0191869
경원고등학교,고등학교,대구광역시,달서구,용산동,6,35.86547932,128.525679
사직여자고등학교,고등학교,부산광역시,동래구,사직동,981-1,35.1968431,129.0514472
경남고등학교,고등학교,부산광역시,서구,동대신동3가,1-1,35.1201981,129.0200404
울산예술고등학교,고등학교,울산광역시,울주군,웅촌면,대복리 475-1,35.4818641,129.2162738
울산제일고등학교,고등학교,울산광역시,남구,옥동,910-1,35.54258944,129.268164
육민관고등학교,고등학교,강원특별자치도,원주시,흥업면,흥업리 육민관고등학교,37.30936357,127.9184855
남목고등학교,고등학교,울산광역시,동구,서부동,728,35.53801042,129.4187517
경일고등학교,고등학교,경상북도,안동시,신안동,51,36.57496217,128.7392949
보문고등학교,고등학교,광주광역시,광산구,운수동,308,35.15386307,126.7768705
가재울고등학교,고등학교,서울특별시,서대문구,북가좌동,476,37.57444587,126.9094148
함지고등학교,고등학교,대구광역시,북구,구암동,488-3,35.92786841,128.5605125
진천고등학교,고등학교,충청북도,진천군,진천읍,신정리 590,36.8539549,127.4499542
동국대학교사범대학부속고등학교,고등학교,서울특별시,동대문구,장안동,328,37.57804718,127.075133
한국생명과학고등학교,고등학교,경상북도,안동시,옥동,1230,36.55044902,128.6877646
성희여자고등학교,고등학교,경상북도,안동시,정하동,산102-1,36.55153109,128.7291442
강경상업고등학교,고등학교,충청남도,논산시,강경읍,남교리 1,36.16142445,127.023298
거제고등학교,고등학교,경상남도,거제시,아주동,295-8,34.86108759,128.6884261
거제공업고등학교,고등학교,경상남도,거제시,고현동,920-2,34.88210511,128.614194
부산소프트웨어마이스터고등학교,고등학교,부산광역시,강서구,봉림동,15,35.18926099,128.9039687
대구여자고등학교,고등학교,대구광역시,수성구,범어동,240-4,35.856509,128.6298641
인천만수고등학교,고등학교,인천광역시,남동구,만수동,605-5,37.447099,126.7422697
무거고등학교,고등학교,울산광역시,남구,무거동,1000,35.53627893,129.2507423
우신고등학교,고등학교,서울특별시,구로구,궁동,230,37.49490231,126.8263536
주천고등학교,고등학교,강원특별자치도,영월군,주천면,주천리 1430 번지,37.27355179,128.2650794
광주자동화설비공업고등학교,고등학교,광주광역시,광산구,우산동,1084,35.15002094,126.8140921
부산디지털고등학교,고등학교,부산광역시,중구,영주동,446-2,35.10885429,129.0324467
김화공업고등학교,고등학교,강원특별자치도,철원군,서면,와수리 589-5 번지,38.24340756,127.434946
문현고등학교,고등학교,울산광역시,동구,방어동,1008,35.48239565,129.4091804
춘천여자고등학교,고등학교,강원특별자치도,춘천시,동면,만천리 산133-15,37.88848989,127.7635403
상명대학교사범대학부속여자고등학교,고등학교,서울특별시,종로구,홍지동,7-1,37.60410891,126.9551595
양산제일고등학교,고등학교,경상남도,양산시,교동,273,35.34459992,129.023799
영양여자고등학교,고등학교,경상북도,영양군,영양읍,동부리 5,36.66188808,129.1297626
성복고등학교,고등학교,경기도,용인시,수지구,성복동 782,37.32336344,127.061123
부산센텀여자고등학교,고등학교,부산광역시,해운대구,우동,1025-127,35.16591884,129.1443578
김천생명과학고등학교,고등학교,경상북도,김천시,교동,581,36.13632669,128.102178
양구고등학교,고등학교,강원특별자치도,양구군,양구읍,186-3 번지,38.10101742,127.9908281
포천고등학교,고등학교,경기도,포천시,신읍동,345,37.89142616,127.1923465
포항중앙고등학교,고등학교,경상북도,포항시,북구,우현동 437-2,36.06507791,129.3496382
시흥고등학교,고등학교,경기도,시흥시,하상동,384,37.38959641,126.8140881
부산자동차고등학교,고등학교,부산광역시,사하구,장림동,878,35.07556112,128.9643074
늘푸른고등학교,고등학교,경기도,성남시,분당구,정자동 6-3,37.37332701,127.1053275
미사고등학교,고등학교,경기도,하남시,망월동,933,37.57050336,127.193301
계성여자고등학교,고등학교,부산광역시,연제구,거제동,643-162,35.18297547,129.0678658
약산고등학교,고등학교,전라남도,완도군,약산면,장용리 850,34.39213844,126.8996588
대전대신고등학교,고등학교,대전광역시,서구,복수동,283-63,36.30895881,127.3800492
이리고등학교,고등학교,전북특별자치도,익산시,남중동,277,35.94925081,126.9557741
인천영흥고등학교,고등학교,인천광역시,옹진군,영흥면,내리 496-95,37.265211,126.4794201
남양주고등학교,고등학교,경기도,남양주시,화도읍,월산리 99-4,37.65247358,127.3344687
문학정보고등학교,고등학교,인천광역시,미추홀구,문학동,394-4,37.43549148,126.6866821
신장고등학교,고등학교,경기도,하남시,신장동,369,37.543828,127.2096778
고양고등학교,고등학교,경기도,고양시,덕양구,삼송동 45-2,37.6542399,126.8908686
청명고등학교,고등학교,경기도,수원시,영통구,영통동 956-1,37.26089042,127.0773249
전남예술고등학교,고등학교,전라남도,무안군,삼향읍,유교리 1055-8,34.84699033,126.4316104
경민고등학교,고등학교,경기도,의정부시,가능동,562-6,37.74612458,127.0251316
지평선고등학교,고등학교,전북특별자치도,김제시,성덕면,묘라리 99-1,35.82821233,126.8312524
양평전자과학고등학교,고등학교,경기도,양평군,양서면,국수리 330-12,37.51009186,127.4009331
화순고등학교,고등학교,전라남도,화순군,화순읍,삼천리 752-3,35.05376082,126.9835194
광주전자공업고등학교,고등학교,광주광역시,광산구,월계동,864-2,35.20485605,126.8407682
대연고등학교,고등학교,부산광역시,남구,대연동,670-4,35.12879874,129.1019811
분당영덕여자고등학교,고등학교,경기도,성남시,분당구,야탑동 455,37.40529859,127.1394071
전남외국어고등학교,고등학교,전라남도,나주시,용산동,51-1,34.99437053,126.7227378
영동고등학교,고등학교,충청북도,영동군,영동읍,계산리 72-7,36.16949301,127.7884058
한강미디어고등학교,고등학교,서울특별시,영등포구,양평동4가,315-1,37.53929145,126.8972599
칠성고등학교,고등학교,대구광역시,북구,칠성동2가,168-13,35.88060728,128.5912615
유성고등학교,고등학교,대전광역시,유성구,구암동,613-9,36.34921738,127.334775
진천상업고등학교,고등학교,충청북도,진천군,진천읍,신정리 662-1,36.84776396,127.443637
효원고등학교,고등학교,경기도,수원시,영통구,매탄동 1154,37.25941827,127.0390512
광주석산고등학교,고등학교,광주광역시,남구,백운동,432-2,35.13849282,126.908795
인천하늘고등학교,고등학교,인천광역시,중구,운서동,3074,37.49546571,126.5070803
경주정보고등학교,고등학교,경상북도,경주시,충효동,549-6,35.84182328,129.176299969
공동체비전고등학교,고등학교,충청남도,서천군,서천읍,태월리 75-1,36.10022398,126.712868
가림고등학교,고등학교,인천광역시,서구,가좌동,30-92,37.49261929,126.6812015
성의여자고등학교,고등학교,경상북도,김천시,평화동,406-6,36.11961289,128.1133186
포은고등학교,고등학교,경상북도,영천시,금호읍,대미리 930-23,35.93987039,128.8782801
삼성생활예술고등학교,고등학교,경상북도,경주시,내남면,이조리 585,35.75247154,129.1993527
남강고등학교,고등학교,서울특별시,관악구,신림동,627-1,37.47137567,126.9249091
진도실업고등학교,고등학교,전라남도,진도군,진도읍,교동리 596-1,34.48303174,126.2600368
청송고등학교,고등학교,경상북도,청송군,청송읍,금곡리 815-3,36.43000334,129.0576987
덕영고등학교,고등학교,경기도,용인시,처인구,고림동 737-1,37.24160007,127.216194
의정부고등학교,고등학교,경기도,의정부시,가능동,359-3,37.75491575,127.0312746
안산디자인문화고등학교,고등학교,경기도,안산시,상록구,본오동 798,37.29692001,126.8713099
영주제일고등학교,고등학교,경상북도,영주시,가흥동,488,36.83292511,128.6091428
부광여자고등학교,고등학교,인천광역시,부평구,부개동,19-6,37.5026085,126.7355759
광양백운고등학교,고등학교,전라남도,광양시,중동,1448,34.94677513,127.6911143
문일고등학교,고등학교,서울특별시,금천구,시흥동,559-1,37.44891526,126.8987207
인천중앙여자상업고등학교,고등학교,인천광역시,중구,도원동,12-77,37.46541654,126.6418096
오류고등학교,고등학교,서울특별시,구로구,궁동,110-1,37.50035507,126.827683
양서고등학교,고등학교,경기도,양평군,양서면,용담리 221-1,37.54806766,127.3279564
광주동성고등학교,고등학교,광주광역시,남구,진월동,406,35.11548253,126.8935344
상주고등학교,고등학교,경상북도,상주시,신봉동,258,36.40249516,128.1596458
지평고등학교,고등학교,경기도,양평군,지평면,지평리 553,37.47447401,127.6345589
광성고등학교,고등학교,인천광역시,중구,도원동,12-73,37.46757337,126.639585
광주서석고등학교,고등학교,광주광역시,서구,화정동,525,35.14925067,126.881315
벌교여자고등학교,고등학교,전라남도,보성군,벌교읍,장좌리 606,34.83509041,127.3411374
대지고등학교,고등학교,경기도,용인시,수지구,죽전동 1333,37.32477894,127.1225516
울산공업고등학교,고등학교,울산광역시,남구,신정동,167-8,35.54182925,129.3159739
대구동부고등학교,고등학교,대구광역시,동구,각산동,199,35.87429023,128.7190722
밀성제일고등학교,고등학교,경상남도,밀양시,내이동,590-1,35.50218318,128.750145
광명고등학교,고등학교,경기도,광명시,철산동,234,37.47857117,126.8659896
대전여자고등학교,고등학교,대전광역시,동구,대동,16-2,36.33001268,127.4463707
중일고등학교,고등학교,대전광역시,유성구,관평동,671,36.42052491,127.3886965
부일전자디자인고등학교,고등학교,부산광역시,사하구,감천동,634-61,35.09073609,129.0025604
서울영상고등학교,고등학교,서울특별시,양천구,신정동,984,37.52330444,126.8602935
동해삼육고등학교,고등학교,강원특별자치도,동해시,천곡동,566-3 번지,37.522076,129.0997495
제일고등학교,고등학교,인천광역시,부평구,십정동,576-1,37.478222,126.7083763
광동고등학교,고등학교,경기도,남양주시,진접읍,장현리 603-5,37.71675577,127.1751688
한국펫고등학교,고등학교,경상북도,봉화군,봉화읍,내성리 461,36.88687651,128.734622
황지고등학교,고등학교,강원특별자치도,태백시,황지동,232 번지,37.16112037,128.9855688
부산영상예술고등학교,고등학교,부산광역시,영도구,신선동3가,71-1,35.08513613,129.0449175
대흥고등학교,고등학교,충청남도,예산군,대흥면,상중리 231,36.60548656,126.7916056
경상여자고등학교,고등학교,대구광역시,북구,침산동,810-1,35.90054196,128.5878439
영신고등학교,고등학교,대구광역시,동구,봉무동,524,35.92000422,128.646424
양구여자고등학교,고등학교,강원특별자치도,양구군,양구읍,정림리 230-1 번지,38.1009114,127.9808197
목감고등학교,고등학교,경기도,시흥시,조남동,387,37.37222339,126.8571834
정신여자고등학교,고등학교,서울특별시,송파구,잠실동,50-4,37.50945384,127.0738473
삼성여자고등학교,고등학교,부산광역시,사하구,감천동,598-1,35.09422497,128.9982328
서울문영여자고등학교,고등학교,서울특별시,관악구,봉천동,1695,37.47290457,126.9509181
김해임호고등학교,고등학교,경상남도,김해시,외동,715-2,35.23826864,128.8527201
방산고등학교,고등학교,서울특별시,송파구,방이동,220-5,37.508313,127.1204696
도담고등학교,고등학교,세종특별자치시,도담동,642,,36.51420716,127.2634446
독산고등학교,고등학교,서울특별시,금천구,독산동,907-34,37.47621872,126.910973
부일외국어고등학교,고등학교,부산광역시,사하구,감천동,634-61,35.09073609,129.0025604
삼성여자고등학교,고등학교,제주특별자치도,서귀포시,토평동,893,33.25435707,126.5835744
봉담고등학교,고등학교,경기도,화성시,봉담읍,동화리 570,37.21786869,126.953893
경주공업고등학교,고등학교,경상북도,경주시,사정동,70,35.83555575,129.2051046
충북여자고등학교,고등학교,충청북도,청주시,서원구,모충동 231,36.62538218,127.4841669
경기폴리텍고등학교,고등학교,경기도,군포시,산본동,1146-14,37.36019041,126.9243504
효청보건고등학교,고등학교,경상북도,경주시,외동읍,모화리 162,35.67205616,129.3408545
이일여자고등학교,고등학교,전북특별자치도,익산시,인화동1가,2-42,35.93458743,126.9489825
이화여자대학교사범대학부속이화금란고등학교,고등학교,서울특별시,서대문구,대신동,47,37.56638886,126.947303
고려대학교사범대학부속고등학교,고등학교,서울특별시,성북구,정릉동,660,37.60783857,127.0028302
태봉고등학교,고등학교,경상남도,창원시,마산합포구,진동면 태봉리 68,35.147794,128.5098136
인천해원고등학교,고등학교,인천광역시,서구,청라동,103-5,37.52816764,126.627586
전남대학교사범대학부설고등학교,고등학교,광주광역시,북구,용봉동,300,35.1729465,126.9011018
창문여자고등학교,고등학교,서울특별시,강북구,미아동,8-16,37.6134057,127.0357962
불곡고등학교,고등학교,경기도,성남시,분당구,구미동 91,37.34848033,127.1185237
덕적고등학교,고등학교,인천광역시,옹진군,덕적면,진리 136,37.22538058,126.1481953
웅상고등학교,고등학교,경상남도,양산시,평산동,290,35.37814867,129.1450388
의정부공업고등학교,고등학교,경기도,의정부시,가능동,652,37.74844623,127.0375432
전남에너지고등학교,고등학교,전라남도,영암군,신북면,이천리 280,34.88322061,126.690725
두호고등학교,고등학교,경상북도,포항시,북구,두호동 1106,36.06278961,129.373205
충북대학교사범대학부설고등학교,고등학교,충청북도,청주시,흥덕구,가경동 176-9,36.6239268,127.4385184
양청고등학교,고등학교,충청북도,청주시,청원구,오창읍 양청리 656-2,36.72699018,127.4335201
안중고등학교,고등학교,경기도,평택시,안중읍,현화리 292-3,36.98699168,126.9232225
유신고등학교,고등학교,경기도,수원시,팔달구,우만동 9-1,37.28243152,127.0413483
문경공업고등학교,고등학교,경상북도,문경시,점촌동,5-2,36.59534446,128.2073918
송곡고등학교,고등학교,서울특별시,중랑구,망우동,239-1,37.60584544,127.1064637
인헌고등학교,고등학교,서울특별시,관악구,봉천동,174-5,37.47231073,126.9704851
인제고등학교,고등학교,인천광역시,남동구,간석동,136-1,37.46139701,126.7124654
경인고등학교,고등학교,서울특별시,구로구,고척동,66-28,37.49599268,126.8654289
경북예술고등학교,고등학교,대구광역시,남구,대명동,1804-1,35.854587,128.5885265
백령고등학교,고등학교,인천광역시,옹진군,백령면,북포리 170-1,37.964414,124.6760478
서일고등학교,고등학교,충청남도,서산시,지곡면,화천리 908,36.85930055,126.4324993
영덕고등학교,고등학교,경기도,수원시,영통구,영통동 965-3,37.25242219,127.0684717
영송여자고등학교,고등학교,대구광역시,북구,태전동,산6-1,35.92901653,128.5418413
신라공업고등학교,고등학교,경상북도,경주시,천북면,신당리 1084,35.8936469,129.242522
성일고등학교,고등학교,경기도,성남시,중원구,성남동 2876,37.43487853,127.1448205
현대고등학교,고등학교,서울특별시,강남구,압구정동,425,37.5254805,127.0223773
부산진고등학교,고등학교,부산광역시,부산진구,초읍동,541-1,35.17978878,129.0552176
청운고등학교,고등학교,경기도,양평군,청운면,용두리 690-4,37.55334405,127.711471
진주동명고등학교,고등학교,경상남도,진주시,초전동,534,35.20257652,128.118698
시흥매화고등학교,고등학교,경기도,시흥시,매화동,196,37.41607446,126.815906
김천고등학교,고등학교,경상북도,김천시,부곡동,777-1,36.12343109,128.0939955
인천공항고등학교,고등학교,인천광역시,중구,운서동,2709-2,37.49763102,126.485927
한영고등학교,고등학교,전라남도,여수시,여서동,61,34.75371344,127.714897
여수화양고등학교,고등학교,전라남도,여수시,화양면,화동리 990,34.6891898,127.5986936
고려고등학교,고등학교,광주광역시,북구,삼각동,666,35.19253901,126.8982854
부흥고등학교,고등학교,부산광역시,해운대구,좌동,1306,35.17367376,129.180577
서울동산고등학교,고등학교,서울특별시,노원구,공릉동,481-3,37.63077798,127.0739984
목포여자상업고등학교,고등학교,전라남도,목포시,상동,525-9,34.80841659,126.411971
인천뷰티예술고등학교,고등학교,인천광역시,연수구,동춘동,932-3,37.40393222,126.6713019
한국항만물류고등학교,고등학교,전라남도,광양시,진상면,섬거리 557-38,35.01702381,127.7165243
대일외국어고등학교,고등학교,서울특별시,성북구,정릉동,산16-36,37.61330459,127.014176
대전대성여자고등학교,고등학교,대전광역시,동구,가양동,309-3,36.337725,127.440528
상지미래경영고등학교,고등학교,경상북도,상주시,함창읍,오동리 635,36.5693225,128.1851504
서현고등학교,고등학교,경기도,성남시,분당구,서현동 91-1,37.38222205,127.1240596
전남공업고등학교,고등학교,광주광역시,광산구,신창동,999,35.193573,126.8431138
강동고등학교,고등학교,대구광역시,동구,신서동,560,35.865983,128.7296127
괴산고등학교,고등학교,충청북도,괴산군,괴산읍,대사리 201,36.79657848,127.7796338
보정고등학교,고등학교,경기도,용인시,기흥구,보정동 1281,37.31390108,127.1096482
인천고등학교,고등학교,인천광역시,미추홀구,주안동,1555,37.45295893,126.6913054
인천마전고등학교,고등학교,인천광역시,서구,마전동,199-1,37.610719,126.6644578
단국대학교부속소프트웨어고등학교,고등학교,서울특별시,강남구,대치동,1013-3,37.495625,127.0577682
성일여자고등학교,고등학교,부산광역시,사하구,신평동,60-1,35.08949951,128.9800626
대영고등학교,고등학교,서울특별시,영등포구,신길동,336-2,37.50366109,126.9058657
한국과학영재학교,고등학교,부산광역시,부산진구,당감동,899,35.16520011,129.0257844
대구남산고등학교,고등학교,대구광역시,수성구,수성동1가,96-16,35.85731247,128.6091788
진해여자고등학교,고등학교,경상남도,창원시,진해구,여좌동 534,35.1563023,128.657573
경명여자고등학교,고등학교,대구광역시,북구,칠성동2가,411,35.88072706,128.5984327
세명고등학교,고등학교,경상북도,포항시,남구,대잠동 913,36.01659564,129.3495112
경북공업고등학교,고등학교,대구광역시,중구,남산동,2380-5,35.85851368,128.5835008
능인고등학교,고등학교,대구광역시,수성구,지산동,800,35.83210847,128.632558
순천효천고등학교,고등학교,전라남도,순천시,대룡동,1011,34.90505459,127.4844121
운호고등학교,고등학교,충청북도,청주시,서원구,모충동 132-43,36.62505317,127.4851868
인천국제고등학교,고등학교,인천광역시,중구,운서동,3077-4,37.48971398,126.5094118
울산강남고등학교,고등학교,울산광역시,남구,신정동,341,35.54699809,129.3187347
우신고등학교,고등학교,울산광역시,남구,무거동,962-2,35.53825621,129.2499623
성광고등학교,고등학교,대구광역시,북구,검단동,986-1,35.9075717,128.6242288
대영고등학교,고등학교,경상북도,영주시,휴천동,1770,36.808976,128.632218
근화여자고등학교,고등학교,경상북도,경주시,용강동,870,35.87058466,129.2273172
한국전통문화고등학교,고등학교,전북특별자치도,전주시,완산구,중인동 676-1,35.77240766,127.0978656
용인바이오고등학교,고등학교,경기도,용인시,처인구,이동읍 송전리 692,37.140441,127.2007625
백석고등학교,고등학교,인천광역시,서구,백석동,67,37.58060358,126.6742921
검단고등학교,고등학교,인천광역시,서구,마전동,249-16,37.60386225,126.6647414
포항예술고등학교,고등학교,경상북도,포항시,북구,흥해읍 대련리 614-1,36.05181115,129.3148061
창의경영고등학교,고등학교,경기도,광명시,소하동,883-13,37.4383574,126.8821568
구일고등학교,고등학교,서울특별시,구로구,구로동,685-194,37.49350529,126.8746185
남성여자고등학교,고등학교,부산광역시,중구,대청동1가,10,35.10573605,129.0345523
서서울생활과학고등학교,고등학교,서울특별시,구로구,궁동,35,37.50382919,126.828201
대중금속공업고등학교,고등학교,대구광역시,북구,읍내동,361-4,35.955632,128.5529842
청담고등학교,고등학교,경기도,평택시,팽성읍,송화리 821,36.96221527,127.0624303
덕원고등학교,고등학교,대구광역시,수성구,욱수동,81,35.82572222,128.705953
상현고등학교,고등학교,경기도,용인시,수지구,상현동 1129-3,37.29911295,127.074376
세종국제고등학교,고등학교,세종특별자치시,아름동,810,,36.52175116,127.2468867
부산기계공업고등학교,고등학교,부산광역시,해운대구,우동,471,35.16184146,129.1528983
태안고등학교,고등학교,충청남도,태안군,태안읍,평천리 710,36.75429893,126.3178128
정발고등학교,고등학교,경기도,고양시,일산동구,마두동 894,37.66365025,126.7861372
고양국제고등학교,고등학교,경기도,고양시,일산동구,식사동 716-20,37.68458737,126.8086453
세종과학예술영재학교,고등학교,세종특별자치시,아름동,807,,36.52289844,127.2491308
달천고등학교,고등학교,울산광역시,북구,달천동,1-17,35.63192969,129.3288462
광주공업고등학교,고등학교,광주광역시,북구,매곡동,10,35.189132,126.8951358
영동고등학교,고등학교,서울특별시,강남구,청담동,23-4,37.52138901,127.0437393
수도전기공업고등학교,고등학교,서울특별시,강남구,개포동,155,37.48493754,127.0644787
태안여자고등학교,고등학교,충청남도,태안군,태안읍,남문리 416,36.7592675,126.2892542
달서고등학교,고등학교,대구광역시,달성군,하빈면,감문리 816,35.8861993,128.4214028
예일메디텍고등학교,고등학교,경상북도,안동시,정하동,401,36.54739565,128.7208676
의정부광동고등학교,고등학교,경기도,의정부시,녹양동,126-1,37.75554366,127.036201
화원고등학교,고등학교,대구광역시,달성군,화원읍,설화리 553-13,35.79720117,128.4892713
동지고등학교,고등학교,경상북도,포항시,북구,용흥동 산125-3,36.03860468,129.3467246
현서고등학교,고등학교,경상북도,청송군,현서면,덕계리 532,36.28145041,128.8986233
동일공업고등학교,고등학교,경기도,평택시,비전동,135-4,36.99232581,127.1179833
반송고등학교,고등학교,경기도,화성시,반송동,213,37.19276804,127.0777778
마사고등학교실습지,고등학교,전북특별자치도,장수군,천천면,월곡리 662-2,35.7013784297,127.5106839692
재현고등학교,고등학교,서울특별시,노원구,중계동,175,37.66129064,127.0807998
능곡고등학교,고등학교,경기도,고양시,덕양구,토당동 394-3,37.62396116,126.8255017
삼일여자고등학교,고등학교,울산광역시,남구,선암동,650-6,35.51593104,129.316772
마산가포고등학교,고등학교,경상남도,창원시,마산합포구,가포동 494-1,35.16749022,128.5711686
일죽고등학교,고등학교,경기도,안성시,일죽면,송천리 243-1,37.091418,127.4733715
금촌고등학교,고등학교,경기도,파주시,금릉동,451,37.75019671,126.7787647
교하고등학교,고등학교,경기도,파주시,동패동,1707,37.722665,126.7217207
진건고등학교,고등학교,경기도,남양주시,진건읍,송능리 62-1,37.67452754,127.1977814
울진고등학교,고등학교,경상북도,울진군,울진읍,연지리 763-1,36.99735629,129.4058736
금성고등학교,고등학교,전라남도,나주시,대호동,1064,35.0380384,126.712291
인천디자인고등학교,고등학교,인천광역시,서구,연희동,744-1,37.54822343,126.6714899
학산여자고등학교,고등학교,부산광역시,동래구,명장동,585-13,35.20644229,129.0965495
경북소프트웨어고등학교,고등학교,경상북도,의성군,봉양면,화전리 68-2,36.3031493,128.5849448
점촌고등학교,고등학교,경상북도,문경시,모전동,620,36.59628448,128.1820532
양주백석고등학교,고등학교,경기도,양주시,백석읍,오산리 554,37.79179274,126.9867415
여수여자고등학교,고등학교,전라남도,여수시,관문동,103,34.74145865,127.7458079
고잔고등학교,고등학교,경기도,안산시,단원구,고잔동 776-1,37.30878749,126.8353458
서울여자상업고등학교,고등학교,서울특별시,관악구,봉천동,1695,37.47290457,126.9509181
동성고등학교,고등학교,충청북도,음성군,맹동면,본성리 산8-1,36.91468315,127.5459919
매곡고등학교,고등학교,울산광역시,북구,매곡동,336,35.64481395,129.3595287
수택고등학교,고등학교,경기도,구리시,수택동,881,37.59487583,127.1542326
영화국제관광고등학교,고등학교,인천광역시,동구,창영동,36,37.47139745,126.6403955
계산고등학교,고등학교,인천광역시,계양구,계산동,907,37.54718933,126.729733
동인천고등학교,고등학교,인천광역시,남동구,만수동,5-394,37.46583064,126.735233
인하대학교사범대학부속고등학교,고등학교,인천광역시,미추홀구,학익동,306-30,37.44596571,126.6628662
영암낭주고등학교,고등학교,전라남도,영암군,학산면,독천리 325,34.72974846,126.5634162
인명여자고등학교,고등학교,인천광역시,미추홀구,관교동,13-5,37.44037081,126.6972234
목포정명여자고등학교,고등학교,전라남도,목포시,양동,86-1,34.79640482,126.3831138
충남체육고등학교,고등학교,충청남도,논산시,관촉동,296-15,36.19256093,127.1040311
서울컨벤션고등학교,고등학교,서울특별시,강동구,고덕동,295-1,37.559284,127.1580314
해성여자고등학교,고등학교,서울특별시,동대문구,전농동,90-3,37.5818726,127.0569769
동해광희고등학교,고등학교,강원특별자치도,동해시,동회동,150번지,37.48988277,129.1026542
경화여자English Business고등학교,고등학교,경기도,광주시,송정동,52-1,37.41824307,127.2639914
동화고등학교,고등학교,경기도,남양주시,다산동,4106,37.60793099,127.1619037
구성고등학교,고등학교,경기도,용인시,기흥구,마북동 545-8,37.29914483,127.115635
평택마이스터고등학교,고등학교,경기도,평택시,비전동,564,36.99908517,127.091105
수지고등학교,고등학교,경기도,용인시,수지구,풍덕천동 688,37.33131984,127.0922274
일산고등학교,고등학교,경기도,고양시,일산서구,일산동 966-50,37.688972,126.7683384
서대전고등학교,고등학교,대전광역시,서구,월평동,307,36.36013353,127.3695006
강화여자고등학교,고등학교,인천광역시,강화군,강화읍,관청리 794-1,37.75388637,126.4795303
안양고등학교,고등학교,경기도,안양시,만안구,박달동 144-3,37.40048898,126.9013599859
서울로봇고등학교,고등학교,서울특별시,강남구,일원동,738,37.48073174,127.0845761
송현여자고등학교,고등학교,대구광역시,달서구,송현동,540,35.83112106,128.5462157
광주인성고등학교,고등학교,광주광역시,남구,행암동,360-7,35.102835,126.8813301
양정고등학교,고등학교,부산광역시,부산진구,양정동,33-33,35.16990941,129.0750869
구암고등학교,고등학교,대구광역시,북구,구암동,672,35.92623822,128.553221
동해상업고등학교,고등학교,강원특별자치도,동해시,발한동,620-3 번지,37.54320424,129.0941785
광영고등학교,고등학교,서울특별시,양천구,신월동,43-3,37.5371981,126.8232759
광영여자고등학교,고등학교,서울특별시,양천구,신월동,43-3,37.5371981,126.823246
함열여자고등학교,고등학교,전북특별자치도,익산시,함열읍,남당리 586,36.08295724,126.9690849
동방고등학교,고등학교,대전광역시,서구,관저동,7-1,36.30033708,127.346243
한국말산업고등학교,고등학교,전라남도,장흥군,대덕읍,신월리 325,34.49694448,126.8839438
신봉고등학교,고등학교,경기도,용인시,수지구,신봉동 979,37.32774897,127.0629561
백영고등학교,고등학교,경기도,안양시,동안구,평촌동 932,37.386458,126.964947
하의고등학교,고등학교,전라남도,신안군,하의면,웅곡리 220,34.60603857,126.0371142
수원농생명과학고등학교,고등학교,경기도,수원시,장안구,영화동 109,37.29515359,127.0194502
부산동여자고등학교,고등학교,부산광역시,수영구,남천동,65,35.14602702,129.1047285
경북여자고등학교,고등학교,대구광역시,중구,남산동,714-2,35.85842716,128.5922004
거창여자고등학교,고등학교,경상남도,거창군,거창읍,중앙리 445,35.69274942,127.908888
성동글로벌경영고등학교,고등학교,서울특별시,중구,신당동,250-3,37.56585472,127.0135246
경산과학고등학교,고등학교,경상북도,경산시,갑제동,440-6,35.82205551,128.7688881
숭실고등학교,고등학교,서울특별시,은평구,신사동,300-88,37.59327482,126.9024039
오현고등학교,고등학교,제주특별자치도,제주시,화북일동,4675,33.51780188,126.5564487
송지고등학교,고등학교,전라남도,해남군,송지면,미야리 821,34.38449027,126.5157373
부평고등학교,고등학교,인천광역시,부평구,부평동,375-33,37.50227408,126.7276188
서울관광고등학교,고등학교,서울특별시,관악구,봉천동,1694,37.48781542,126.9437609
창원신월고등학교,고등학교,경상남도,창원시,의창구,신월동 76-1,35.22636486,128.693747
금오고등학교,고등학교,경상북도,구미시,광평동,299-3,36.10894994,128.3556319
목동고등학교,고등학교,서울특별시,양천구,신정동,325-8,37.50921598,126.860143
광휘고등학교,고등학교,경기도,광명시,소하동,1390,37.4290157,126.8818263
광남고등학교,고등학교,경기도,광주시,장지동,229-19,37.38464209,127.237801
인천부흥고등학교,고등학교,인천광역시,부평구,부개동,120-547,37.491219,126.7366564
조원고등학교,고등학교,경기도,수원시,장안구,조원동 44,37.30734419,127.0156673
한일여자고등학교,고등학교,경상북도,김천시,교동,527-1,36.137753,128.0958438
한울고등학교,고등학교,전라남도,곡성군,목사동면,평리 337,35.11735857,127.2980952
홍익대학교사범대학부속고등학교,고등학교,서울특별시,성북구,성북동,151,37.59366662,127.002805
강서공업고등학교,고등학교,서울특별시,강서구,방화동,834,37.57603409,126.8161817
김천예술고등학교,고등학교,경상북도,김천시,교동,527-1,36.13774035,128.0958438
창원여자고등학교,고등학교,경상남도,창원시,성산구,중앙동 116,35.22788956,128.6612262
경민비즈니스고등학교,고등학교,경기도,의정부시,가능동,562-6,37.74612458,127.0251316
평택여자고등학교,고등학교,경기도,평택시,세교동,1-2,37.01260333,127.0897392
경기체육고등학교,고등학교,경기도,수원시,장안구,천천동 30-1,37.30395971,126.9785339
중산고등학교,고등학교,서울특별시,강남구,일원동,714,37.48574293,127.0814285
보성고등학교,고등학교,서울특별시,송파구,방이동,89-22,37.52008989,127.1357293
보평고등학교,고등학교,경기도,성남시,분당구,백현동 544,37.39419168,127.117605
공주생명과학고등학교,고등학교,충청남도,공주시,신관동,495-3,36.47346639,127.122704
중앙대학교사범대학부속고등학교,고등학교,서울특별시,강남구,도곡동,산21,37.4919059,127.0521116
통영고등학교,고등학교,경상남도,통영시,봉평동,130,34.82954734,128.416198
함창고등학교,고등학교,경상북도,상주시,함창읍,구향리 181,36.567842,128.1739661
소하고등학교,고등학교,경기도,광명시,소하동,1330,37.44724606,126.8875821
대구공업고등학교 테크노폴리스 캠퍼스,고등학교,대구광역시,달성군,유가읍,유곡리 978,35.67008799,128.4549742
한국경마축산고등학교,고등학교,전북특별자치도,남원시,운봉읍,준향리 477-1,35.4408014,127.5161913
부산관광고등학교,고등학교,부산광역시,서구,남부민동,611-236,35.08250055,129.0222269
세화고등학교,고등학교,제주특별자치도,제주시,구좌읍,세화리 73,33.51619733,126.862739
영신여자고등학교,고등학교,서울특별시,노원구,중계동,118,37.65245208,127.083289
일신여자상업고등학교,고등학교,서울특별시,송파구,송파동,5-14,37.50179413,127.1142413
포항영신고등학교,고등학교,경상북도,포항시,북구,우현동 산63-9,36.05945253,129.351381
서울체육고등학교,고등학교,서울특별시,송파구,방이동,88-14,37.52233038,127.1298226
병영상업고등학교,고등학교,전라남도,강진군,병영면,성남리 316,34.71314245,126.813616
휘봉고등학교,고등학교,서울특별시,동대문구,휘경동,43-138,37.586477,127.068852
노화고등학교,고등학교,전라남도,완도군,노화읍,이포리 255,34.18136143,126.5776943
경기고등학교,고등학교,서울특별시,강남구,삼성동,74-4,37.51756454,127.0560755
김해한일여자고등학교,고등학교,경상남도,김해시,안동,333-3,35.23924195,128.9166756
한국디지털미디어고등학교,고등학교,경기도,안산시,단원구,와동 산27-1,37.3423166,126.8309423
장성하이텍고등학교,고등학교,전라남도,장성군,장성읍,영천리 615,35.30771586,126.7932086
백암고등학교,고등학교,경기도,용인시,처인구,백암면 근창리 166,37.164968,127.3685728
화원고등학교,고등학교,전라남도,해남군,화원면,신덕리 45,34.67092845,126.3229609
명인고등학교,고등학교,경상북도,성주군,선남면,도성리 1105-2,35.88583823,128.3642206
삼계고등학교,고등학교,전라남도,장성군,삼계면,사창리 339,35.2584815,126.6654827
한국K-POP고등학교,고등학교,충청남도,홍성군,광천읍,신진리 367,36.50793192,126.6219135
구미고등학교,고등학교,경상북도,구미시,도량동,600,36.13777736,128.3327162
고운고등학교,고등학교,세종특별자치시,고운동,1415,,36.51022904,127.2330779
백산고등학교,고등학교,전북특별자치도,부안군,백산면,오곡리 547-5,35.70808449,126.7910026
강동고등학교,고등학교,울산광역시,북구,산하동,산61-11,35.63246982,129.4351503
전남생명과학고등학교,고등학교,전라남도,강진군,강진읍,교촌리 281,34.64770421,126.776962
중동고등학교,고등학교,서울특별시,강남구,일원동,618,37.49371459,127.0809122
전남기술과학고등학교,고등학교,전라남도,화순군,화순읍,신기리 60,35.07198494,126.9919092
마령고등학교,고등학교,전북특별자치도,진안군,마령면,평지리 583-1,35.7322463,127.3721322
반여고등학교,고등학교,부산광역시,해운대구,반여동,1622,35.20295915,129.1265612
태원고등학교,고등학교,경기도,성남시,분당구,야탑동 754-1,37.40391632,127.1290213
충북과학고등학교,고등학교,충청북도,청주시,상당구,가덕면 상야리 산4-23,36.58779121,127.5691772
신천고등학교,고등학교,경기도,시흥시,신천동,534-2,37.4351037,126.7783978
인제고등학교,고등학교,강원특별자치도,인제군,인제읍,합강리 347 번지,38.07422766,128.1773375
화순이양고등학교,고등학교,전라남도,화순군,이양면,이양리 156-5,34.88670179,126.9920316
순심고등학교,고등학교,경상북도,칠곡군,왜관읍,왜관리 340,35.9864732,128.4032262
대구제일고등학교,고등학교,대구광역시,서구,비산동,228,35.8706847,128.5738084
경기스마트고등학교,고등학교,경기도,시흥시,정왕동,1522,37.343239,126.7523469
정읍고등학교,고등학교,전북특별자치도,정읍시,시기동,37-1,35.55532014,126.8654309
압구정고등학교,고등학교,서울특별시,강남구,압구정동,470,37.53113395,127.0327116
부산여자고등학교,고등학교,부산광역시,사하구,하단동,산24,35.11150068,128.9674864
구미여자고등학교,고등학교,경상북도,구미시,도량동,682,36.144465,128.3316915
용산고등학교,고등학교,서울특별시,용산구,용산동2가,1,37.54480263,126.981731
인천과학예술영재학교,고등학교,인천광역시,연수구,송도동,115,37.38199933,126.6301396
전남여자상업고등학교,고등학교,광주광역시,북구,삼각동,479-1,35.19911446,126.8956123
인항고등학교,고등학교,인천광역시,미추홀구,용현동,627-456,37.44681429,126.640708
영동고등학교,고등학교,경상북도,영천시,야사동,393,35.97778874,128.9465541
경북외국어고등학교,고등학교,경상북도,구미시,남통동,110,36.12450267,128.3220899
한국애니메이션고등학교,고등학교,경기도,하남시,창우동,523-4,37.53493189,127.227487
진경여자고등학교,고등학교,전북특별자치도,익산시,황등면,황등리 955,36.00504357,126.9408324
안산국제비즈니스고등학교,고등학교,경기도,안산시,상록구,장상동 10,37.36094704,126.8741442
송원고등학교,고등학교,광주광역시,남구,송하동,365-1,35.10818451,126.8732664
구례고등학교,고등학교,전라남도,구례군,구례읍,봉남리 54,35.20383015,127.462733
유성여자고등학교,고등학교,대전광역시,유성구,죽동,305,36.38458956,127.3289254
덕원예술고등학교,고등학교,서울특별시,강서구,내발산동,산59-2,37.54862258,126.8290245
예산예화여자고등학교,고등학교,충청남도,예산군,예산읍,주교리 125-1,36.68005465,126.8390082
목포중앙고등학교,고등학교,전라남도,목포시,대양동,208-4,34.8347188,126.4258535
천천고등학교,고등학교,경기도,수원시,장안구,천천동 513,37.299453,126.982976
분당경영고등학교,고등학교,경기도,성남시,분당구,금곡동 123,37.35502581,127.109611
작전여자고등학교,고등학교,인천광역시,계양구,작전동,92,37.53213347,126.7295556
한광여자고등학교,고등학교,경기도,평택시,비전동,504,36.99789035,127.0960037
명석고등학교,고등학교,대전광역시,동구,가양동,116,36.35298746,127.454246
경북생활과학고등학교,고등학교,경상북도,구미시,해평면,월호리 488,36.19960113,128.3922014
반포고등학교,고등학교,서울특별시,서초구,반포동,30-19,37.50270273,127.0165107
서원고등학교,고등학교,충청북도,청주시,흥덕구,가경동 1580,36.62008178,127.441039
영선고등학교,고등학교,전북특별자치도,고창군,무장면,무장리 431-1,35.41422378,126.5580061
강릉정보공업고등학교,고등학교,강원특별자치도,강릉시,주문진읍,교항리 48-123,37.88054161,128.8307453
초지고등학교,고등학교,경기도,안산시,단원구,초지동 725-1,37.31002122,126.8110074
인천소방고등학교,고등학교,인천광역시,미추홀구,도화동,193-6,37.47099649,126.6548626
한국항공고등학교,고등학교,강원특별자치도,태백시,장성동,110-1 번지,37.09902067,129.0212842
포곡고등학교,고등학교,경기도,용인시,처인구,포곡읍 둔전리 88-2,37.272591,127.2276557
울릉고등학교,고등학교,경상북도,울릉군,울릉읍,도동리 350,37.49299459,130.9073535
대성일고등학교,고등학교,경상남도,거창군,거창읍,가지리 326,35.69108338,127.9003606
칠원고등학교,고등학교,경상남도,함안군,칠서면,무릉리 908,35.318166,128.507357
경남자동차고등학교,고등학교,경상남도,진주시,장재동,590,35.21943516,128.1015361
여량고등학교,고등학교,강원특별자치도,정선군,여량면,여량리 87 번지,37.46878049,128.7263062
임계고등학교,고등학교,강원특별자치도,정선군,임계면,봉산리 241-1,37.49285585,128.8460294
사내고등학교,고등학교,강원특별자치도,화천군,사내면,사창리 352-1,38.06471424,127.5191095
영암여자고등학교,고등학교,전라남도,영암군,영암읍,동무리 4,34.80443156,126.7034113
대아고등학교,고등학교,경상남도,진주시,이현동,316,35.18992819,128.0583889
경남간호고등학교,고등학교,경상남도,산청군,생비량면,가계리 526-1,35.35804061,128.0843307
거창승강기고등학교,고등학교,경상남도,거창군,가조면,마상리 483,35.71373734,128.0157437
위례한빛고등학교,고등학교,경기도,성남시,수정구,창곡동 574,37.467211,127.1500063
치동고등학교,고등학교,경기도,화성시,영천동,791,37.207606,127.0916952
운유고등학교,고등학교,경기도,김포시,장기동,1886-3,37.645954,126.661657
와우고등학교,고등학교,경기도,화성시,봉담읍,동화리 237,37.219526,126.9668641
창원기계공업고등학교,고등학교,경상남도,창원시,성산구,중앙동 109,35.22630036,128.6654086
풍암고등학교,고등학교,광주광역시,서구,풍암동,1006,35.12295098,126.8674015
광주고등학교,고등학교,광주광역시,동구,계림동,239-1,35.15944246,126.9210072
대구농업마이스터고등학교,고등학교,대구광역시,수성구,노변동,98,35.8357803,128.7007091
원광보건고등학교,고등학교,전북특별자치도,익산시,모현동1가,520,35.95432998,126.9434322
부안여자고등학교,고등학교,전북특별자치도,부안군,부안읍,봉덕리 658-8,35.71495545,126.7359295
임실고등학교,고등학교,전북특별자치도,임실군,임실읍,이도리 137,35.62192952,127.2867026
한들고등학교,고등학교,전북특별자치도,군산시,대야면,지경리 877-42,35.94316674,126.8050803
밀양고등학교,고등학교,경상남도,밀양시,내이동,1025,35.49378586,128.7467834
간동고등학교,고등학교,강원특별자치도,화천군,간동면,유촌리 608-1 번지,38.0563712,127.7915913
온양용화고등학교,고등학교,충청남도,아산시,용화동,38-17,36.77371849,127.0028101
천안불당고등학교,고등학교,충청남도,천안시,서북구,불당동 1794,36.80949494,127.1029743
진서고등학교,고등학교,경상남도,진주시,수곡면,대천리 226-1,35.19813125,127.9275029
부천정보산업고등학교,고등학교,경기도,부천시,원미구,상동 391,37.49636452,126.7494103
거제여자상업고등학교,고등학교,경상남도,거제시,거제면,동상리 646,34.85121955,128.5946948
