School_Name,School_Type,County,City,Town,Address,Latitude,Longitude
미성중학교,중학교,서울특별시,관악구,신림동,745-24,37.47538281,126.9120889
인지중학교,중학교,충청남도,서산시,인지면,야당리 545-10,36.75002745,126.4268751
송내중앙중학교,중학교,경기도,동두천시,송내동,665,37.88842057,127.0526199
대성여자중학교,중학교,광주광역시,남구,진월동,산218-1,35.1194595,126.8929965
도담중학교,중학교,세종특별자치시,도담동,644,,36.51556773,127.263436
남창중학교,중학교,울산광역시,울주군,온양읍,동상리 859-1,35.41888626,129.2871779
광시중학교,중학교,충청남도,예산군,광시면,광시리 95-5,36.54913524,126.7722719
황지중학교,중학교,강원특별자치도,태백시,황지동,59-163 번지,37.16683116,128.9869546
장충중학교,중학교,서울특별시,중구,신당동,432-460,37.5535149,127.006415
대전문지중학교,중학교,대전광역시,유성구,전민동,460-3,36.39698677,127.3990962
천성중학교,중학교,충청남도,천안시,동남구,유량동 393-20,36.81268681,127.1740363
진잠중학교,중학교,대전광역시,유성구,원내동,404,36.29688109,127.3176177
한울안중학교,중학교,대구광역시,달성군,현풍읍,지리 988,35.66893799,128.4308448
하장중학교,중학교,강원특별자치도,삼척시,하장면,광동리 138 번지,37.3524848,128.934428
용운중학교,중학교,경상북도,상주시,공성면,산현리 868-24,36.27931281,128.0942764
대왕중학교,중학교,서울특별시,강남구,수서동,750,37.48346033,127.0873381
구서여자중학교,중학교,부산광역시,금정구,구서동,704,35.24928062,129.085894
목포하당중학교,중학교,전라남도,목포시,옥암동,963,34.81038421,126.4286651
조천중학교,중학교,제주특별자치도,제주시,조천읍,신촌리 2508-1,33.53301443,126.6164767
원주여자중학교,중학교,강원특별자치도,원주시,명륜동,204 번지,37.33941484,127.9460541
부여중학교,중학교,충청남도,부여군,부여읍,동남리 463,36.27799431,126.9141287
나산실용예술중학교,중학교,전라남도,함평군,나산면,삼축리 1184-1,35.1160458,126.6027188
대전문정중학교,중학교,대전광역시,서구,둔산동,1806,36.35547776,127.4015487
신아중학교,중학교,대구광역시,동구,신암동,28,35.8882462,128.634902
위례중학교,중학교,경기도,하남시,학암동,664,37.477211,127.1483118
화명중학교,중학교,부산광역시,북구,화명동,2326,35.22639155,129.0116866
삼랑진중학교,중학교,경상남도,밀양시,삼랑진읍,송지리 173-1,35.40106868,128.8428599
양동중학교,중학교,서울특별시,양천구,목동,600-6,37.54836875,126.8687172
지세포중학교,중학교,경상남도,거제시,일운면,지세포리 980,34.827848,128.7031873
일동중학교,중학교,광주광역시,북구,일곡동,848-4,35.20274166,126.8947545
가회중학교,중학교,경상남도,합천군,가회면,덕촌리 308-1,35.43643396,128.0323236
영일중학교,중학교,경상북도,포항시,남구,연일읍 동문리 47-1,35.99550078,129.353469
부산진중학교,중학교,부산광역시,부산진구,범전동,227-1,35.16369011,129.0550300323
선산중학교,중학교,경상북도,구미시,선산읍,이문리 709,36.24079585,128.2924806
천안성정중학교,중학교,충청남도,천안시,서북구,성정동 1152,36.82972477,127.136256
수비중학교,중학교,경상북도,영양군,수비면,발리리 500,36.76502287,129.2037522
대신중학교,중학교,경기도,여주시,대신면,후포리 258-2,37.36353482,127.6081153
대림중학교,중학교,서울특별시,영등포구,대림동,959,37.49231887,126.9074673
새본리중학교,중학교,대구광역시,달서구,본리동,330-1,35.83942395,128.5409677
대전동화중학교,중학교,대전광역시,유성구,관평동,1281,36.42280063,127.3894688
부천동중학교,중학교,경기도,부천시,소사구,괴안동 171-15,37.48077502,126.8102137
오정중학교,중학교,대전광역시,대덕구,오정동,327-2,36.35152036,127.4080876
공도중학교,중학교,경기도,안성시,공도읍,만정리 418-1,37.00225731,127.173626
연천중학교,중학교,경기도,연천군,연천읍,현가리 41-1,38.10822391,127.0766731
김포한가람중학교,중학교,경기도,김포시,구래동,6873-6,37.6493725,126.6234637
대명중학교,중학교,충청남도,보령시,명천동,69-8,36.34076327,126.6199677
송정중학교,중학교,광주광역시,광산구,송정동,785,35.14137231,126.7963268
백사중학교,중학교,경기도,이천시,백사면,신대리 20-1,37.32371489,127.4739059
순창중학교,중학교,전북특별자치도,순창군,순창읍,남계리 111,35.37692157,127.1523716
강릉중학교,중학교,강원특별자치도,강릉시,입암동,497 번지,37.75361977,128.9089302
거성중학교,중학교,부산광역시,연제구,거제동,643-173,35.18274207,129.0666625
이천양정여자중학교,중학교,경기도,이천시,관고동,77,37.284666,127.436821
분포중학교,중학교,부산광역시,남구,용호동,176-67,35.12952407,129.114431
예산여자중학교,중학교,충청남도,예산군,예산읍,발연리 135-5,36.69854439,126.8349439
도고중학교,중학교,충청남도,아산시,도고면,시전리 159,36.74268762,126.9018017
함라중학교,중학교,전북특별자치도,익산시,함라면,금성리 330,36.06465913,126.9168739
갑천중학교,중학교,강원특별자치도,횡성군,갑천면,매일리 600 번지,37.56069062,128.1143746
부산국제중학교,중학교,부산광역시,부산진구,당감동,897,35.167292,129.0234526
단성중학교,중학교,경상남도,산청군,단성면,강누리 41-1,35.306392,127.9643023
점동중학교,중학교,경기도,여주시,점동면,청안리 122,37.20577103,127.6639193
선유중학교,중학교,경기도,파주시,문산읍,선유리 1395,37.86690717,126.8022181
조종중학교,중학교,경기도,가평군,조종면,현리 438,37.81435909,127.3466138
태화중학교,중학교,울산광역시,남구,야음동,10-1,35.53194177,129.3395348
은행중학교,중학교,경기도,성남시,중원구,은행동 550-6,37.45703332,127.1725674
영흥중학교,중학교,전라남도,목포시,상동,55,34.80525243,126.416556
상동중학교,중학교,경기도,부천시,원미구,상동 572-3,37.49815628,126.7449141
근명중학교,중학교,경기도,안양시,만안구,안양동 708-197,37.39354124,126.9200136
마포중학교,중학교,서울특별시,강서구,등촌동,82-1,37.55998867,126.8531334
남지중학교,중학교,경상남도,창녕군,남지읍,마산리 894-6,35.38919794,128.4690005
대전도안중학교,중학교,대전광역시,서구,도안동,1367,36.31797152,127.3457942
창천중학교,중학교,서울특별시,마포구,노고산동,33-1,37.55491782,126.9392951
경상중학교,중학교,대구광역시,남구,대명동,1819-11,35.85261994,128.5853705
시흥가온중학교,중학교,경기도,시흥시,장현동,423,37.3734214,126.795427
합천여자중학교,중학교,경상남도,합천군,합천읍,합천리 943-1,35.56286956,128.1546743
천안용곡중학교,중학교,충청남도,천안시,동남구,용곡동 476-9,36.78921169,127.1332935
해솔중학교,중학교,경기도,파주시,목동동,661,37.72746421,126.7458749
동대문중학교,중학교,서울특별시,동대문구,전농동,322-17,37.57452207,127.0519943
소명여자중학교,중학교,경기도,부천시,원미구,소사동 2-7,37.48782298,126.7913100326
거제중앙중학교,중학교,경상남도,거제시,고현동,1070,34.894479,128.6358219
설온중학교,중학교,강원특별자치도,속초시,노학동,산 7-1,38.19850893,128.5668924
논산대건중학교,중학교,충청남도,논산시,등화동,5,36.18480394,127.0784383
승영중학교,중학교,인천광역시,강화군,삼산면,석모리 302,37.70486952,126.3209456
금구중학교,중학교,전북특별자치도,김제시,금구면,금구리 163-1,35.7744982,127.0125018
복자여자중학교,중학교,충청남도,천안시,동남구,성황동 9-1,36.81554363,127.1523399
공주중학교,중학교,충청남도,공주시,금성동,85,36.46404495,127.1178388
서전중학교,중학교,충청북도,진천군,덕산읍,두촌리 2497,36.90416004,127.529998
성환중학교,중학교,충청남도,천안시,서북구,성환읍 성환리 358-1,36.91469553,127.1310809
용마중학교,중학교,서울특별시,중랑구,면목동,378-2,37.5745074,127.0862687
김포신곡중학교,중학교,경기도,김포시,고촌읍,신곡리 836-3,37.59936807,126.7649552
순천이수중학교,중학교,전라남도,순천시,생목동,24,34.94911835,127.5033878
계남중학교,중학교,경기도,부천시,원미구,중동 1184-5,37.49738932,126.7735021
중앙중학교,중학교,경기도,안산시,단원구,고잔동 673-2,37.32246042,126.8402219
새너울중학교,중학교,충청북도,영동군,황간면,신흥리 217-6,36.23697638,127.903049
성명여자중학교,중학교,대구광역시,중구,동산동,206,35.86838328,128.584035
천상중학교,중학교,울산광역시,울주군,범서읍,천상리 768-3,35.56021989,129.2208566
천안백석중학교,중학교,충청남도,천안시,서북구,백석동 903,36.819154,127.121852
완주중학교,중학교,전북특별자치도,완주군,봉동읍,낙평리 813-1,35.93485855,127.1603317
성사중학교,중학교,경기도,고양시,덕양구,성사동 549-4,37.6637849,126.8429581
한백중학교,중학교,경기도,화성시,영천동,698,37.20656172,127.1141301
거문중학교,중학교,전라남도,여수시,삼산면,덕촌리 811,34.0253557,127.303029
소담중학교,중학교,세종특별자치시,소담동,9-200,,36.482018,127.3016
신양중학교,중학교,서울특별시,광진구,자양동,57-8,37.53365227,127.063431
새롬중학교,중학교,세종특별자치시,새롬동,341-120,,36.481324,127.249634
여천중학교,중학교,전라남도,여수시,선원동,135,34.76771622,127.6527598
문현여자중학교,중학교,부산광역시,남구,문현동,490,35.14216822,129.0684159
대화중학교,중학교,강원특별자치도,평창군,대화면,대화리 476 번지,37.49329552,128.4599834
해성중학교,중학교,경상남도,거제시,두모동,360-3,34.87058102,128.7243847
천천중학교,중학교,전북특별자치도,장수군,천천면,춘송리 453-1,35.73621655,127.5386322
야로중학교,중학교,경상남도,합천군,야로면,구정리 303,35.70497972,128.1672801
당진중학교,중학교,충청남도,당진시,채운동,319,36.892722,126.6213256
청일중학교,중학교,강원특별자치도,횡성군,청일면,유동리 1060 번지,37.58260283,128.146847
한산중학교,중학교,서울특별시,강동구,둔촌동,161-1,37.52890274,127.1403034
완산중학교,중학교,전북특별자치도,전주시,완산구,평화동1가 500-1,35.79206908,127.1383085
여강중학교,중학교,경기도,여주시,북내면,신접리 200,37.32944528,127.6834973
덕산중학교,중학교,충청북도,진천군,덕산읍,용몽리 566-1,36.90728357,127.5104128
대전태평중학교,중학교,대전광역시,중구,태평동,343-3,36.32955743,127.3974766
재현중학교,중학교,서울특별시,노원구,중계동,129-2,37.661264,127.0807998
대전장대중학교,중학교,대전광역시,유성구,장대동,361,36.36055807,127.3387935
한국바둑중학교,중학교,전라남도,순천시,주암면,구산리 760,35.0748151,127.2403264
고흥도화중학교,중학교,전라남도,고흥군,도화면,당오리 474-2,34.51516585,127.3200152
신길중학교,중학교,서울특별시,영등포구,신길동,4948,37.502019,126.9154741
이천송정중학교,중학교,경기도,이천시,송정동,375-31,37.29352876,127.4331835
순천월전중학교,중학교,전라남도,순천시,월등면,농선리 108-3,35.10003175,127.4253509
산청중학교,중학교,경상남도,산청군,산청읍,옥산리747,35.41093137,127.8715069
진해냉천중학교,중학교,경상남도,창원시,진해구,자은동 113,35.15614925,128.7197791
덕은한강중학교,중학교,경기도,고양시,덕양구,덕은동 335-4,37.582117,126.868609
통영여자중학교,중학교,경상남도,통영시,도천동,341-1,34.84135128,128.4097587
빛가온중학교,중학교,경기도,광명시,일직동,527,37.41214809,126.8837092
동부중학교,중학교,경기도,하남시,덕풍동,450-1,37.53549666,127.202479
서대구중학교,중학교,대구광역시,서구,평리동,509,35.88031044,128.556626
양덕중학교,중학교,경상북도,포항시,북구,양덕동 2027,36.08420566,129.4071746
온양신정중학교,중학교,충청남도,아산시,실옥동,191-21,36.78851621,126.9879794
동신중학교,중학교,서울특별시,강동구,천호동,447-9,37.53676952,127.1343666
동국대학교사범대학부속금산중학교,중학교,전북특별자치도,김제시,금산면,쌍용리 470,35.7177326,126.9994481
용호중학교,중학교,부산광역시,남구,용호동,512,35.119309,129.1169769
천안동성중학교,중학교,충청남도,천안시,서북구,성환읍 매주리 435-8,36.90531672,127.1302003
평해중학교,중학교,경상북도,울진군,평해읍,평해리 413,36.72891434,129.4429677
호수돈여자중학교,중학교,대전광역시,중구,선화동,349-10,36.32671701,127.4144851
대전남선중학교,중학교,대전광역시,서구,월평동,220,36.36331761,127.372732
예봉중학교,중학교,경기도,남양주시,와부읍,덕소리 259,37.59534936,127.2204412
곤명중학교,중학교,경상남도,사천시,곤명면,송림리 87,35.119467,127.9522657
목포중앙여자중학교,중학교,전라남도,목포시,상동,899,34.80119163,126.4191907
한숲중학교,중학교,경기도,용인시,처인구,남사면 완장리 950,37.157852,127.1730187
구지중학교,중학교,대구광역시,달성군,구지면,창리 1441,35.66055732,128.4196709
미리벌중학교,중학교,경상남도,밀양시,청도면,인산리 667-1,35.54366486,128.6385329
새뜸중학교,중학교,세종특별자치시,새롬동,산4,,36.486819,127.252458
상현중학교,중학교,경기도,용인시,수지구,상현동 1098,37.29949159,127.0709899
공주북중학교,중학교,충청남도,공주시,반죽동,4-1,36.4558871,127.1214141
전의중학교,중학교,세종특별자치시,전의면,읍내리,98-1,36.68165619,127.1975871
신철원중학교,중학교,강원특별자치도,철원군,갈말읍,지포리 85 번지,38.14706658,127.3038496
연평중학교,중학교,인천광역시,옹진군,연평면,연평리 437-1,37.66412421,125.7010233
상주중학교,중학교,경상남도,남해군,상주면,상주리 590-1,34.72116206,127.9911391
고산중학교,중학교,전북특별자치도,완주군,고산면,읍내리 744-1,35.97867192,127.2090497
감천중학교,중학교,부산광역시,사하구,감천동,632-4,35.09221051,129.0001101
부천부곡중학교,중학교,경기도,부천시,원미구,중동 1213,37.49463546,126.7745235
반곡중학교,중학교,강원특별자치도,원주시,반곡동,1450-12,37.33642707,127.9730108
미원중학교,중학교,충청북도,청주시,상당구,미원면 미원리 281-3,36.6362374,127.6612932
서운중학교,중학교,인천광역시,계양구,서운동,55-146,37.52615511,126.744796
하길중학교,중학교,경기도,화성시,향남읍,하길리 1510,37.11225847,126.908846
하늘빛중학교,중학교,경기도,김포시,운양동,1295-4,37.65495148,126.6878279
신창여자중학교,중학교,경상남도,창녕군,창녕읍,술정리 151,35.53845526,128.493566
대광중학교,중학교,경기도,연천군,신서면,도신리 245-1,38.1830174,127.1053519
대전여자중학교,중학교,대전광역시,중구,대흥동,418-1,36.32525301,127.4255734
석전중학교,중학교,경상북도,칠곡군,왜관읍,석전리 505-1,36.00305954,128.4093092
상일중학교,중학교,광주광역시,서구,쌍촌동,1353-1,35.15898836,126.865466
강릉해람중학교,중학교,강원특별자치도,강릉시,용강동,47-8 번지,37.75232958,128.8883419
충현중학교,중학교,경기도,광명시,소하동,1388,37.43031148,126.881806
금양중학교,중학교,부산광역시,금정구,부곡동,354-1,35.23350196,129.0956061
비인중학교,중학교,충청남도,서천군,비인면,성내리 151,36.13966938,126.6062627
대진중학교,중학교,강원특별자치도,고성군,현내면,초도리 75 번지,38.48548499,128.4334014
다정중학교,중학교,세종특별자치시,다정동,323-6,,36.494189,127.2458268
제주중학교,중학교,제주특별자치도,제주시,용담일동,298-1,33.51229726,126.5166019
춘천중학교,중학교,강원특별자치도,춘천시,중앙로3가,69 번지,37.87518146,127.7185722
월암중학교,중학교,대구광역시,달서구,월성동,774-1,35.82716419,128.5238094
혜화여자중학교,중학교,부산광역시,동래구,명장동,산13,35.20457889,129.1109468
첨단중학교,중학교,광주광역시,광산구,월계동,864-7,35.20824768,126.8375972
천안신방중학교,중학교,충청남도,천안시,동남구,신방동 62-45,36.79015871,127.1267493
이동중학교,중학교,경기도,포천시,이동면,장암리 180-1,38.0306203,127.3743701
성포중학교,중학교,경상남도,거제시,사등면,성포리 41-1,34.9186361,128.5306364
목포덕인중학교,중학교,전라남도,목포시,죽교동,514,34.79998068,126.372628
용성중학교,중학교,충청북도,청주시,상당구,용정동 388-20,36.62750678,127.5183091
대전삼천중학교,중학교,대전광역시,서구,둔산동,911,36.35833529,127.3937224
마송중학교,중학교,경기도,김포시,통진읍,마송리 509,37.68673882,126.5949647
이포중학교,중학교,경기도,여주시,흥천면,계신리 468,37.37638925,127.5168304
천안중학교,중학교,충청남도,천안시,동남구,원성동 191,36.81133826,127.156421
하슬라중학교,중학교,강원특별자치도,강릉시,포남동,1086 번지,37.772017,128.907062
해연중학교,중학교,부산광역시,남구,대연동,1576-1,35.13926197,129.083004
광풍중학교,중학교,충청남도,천안시,동남구,풍세면 풍서리 652,36.71527921,127.1155881
금파중학교,중학교,경기도,김포시,북변동,811,37.62404987,126.7190051
천안두정중학교,중학교,충청남도,천안시,서북구,두정동 1204,36.83603902,127.1392169
오남중학교,중학교,서울특별시,구로구,오류동,산39-40,37.48705969,126.837249
순천왕의중학교,중학교,전라남도,순천시,해룡면,상삼리 350,34.95102235,127.5337707
동명중학교,중학교,경상남도,밀양시,하남읍,수산리 436-1,35.37270065,128.7134587
홍동중학교,중학교,충청남도,홍성군,홍동면,구정리 716-1,36.5618851,126.6916842
입석중학교,중학교,대구광역시,동구,입석동,951,35.89105364,128.6448032
양구중학교,중학교,강원특별자치도,양구군,양구읍,상리 186-3 번지,38.10101742,127.9908281
영도중학교,중학교,서울특별시,양천구,목동,735,37.53631557,126.8657711
하성중학교,중학교,경기도,김포시,하성면,마곡리 640-1,37.71800637,126.6284333
고부중학교,중학교,전북특별자치도,정읍시,고부면,관청리 817-1,35.61404249,126.7420284
면천중학교,중학교,충청남도,당진시,면천면,성상리 1018,36.81914558,126.6629937
새론중학교,중학교,대구광역시,동구,신서동,1137,35.87917295,128.7250938
둔포중학교,중학교,충청남도,아산시,둔포면,둔포리 321,36.92635313,127.0434001
중암중학교,중학교,서울특별시,마포구,중동,63,37.57243177,126.9035851
동북중학교,중학교,서울특별시,강동구,둔촌동,180-2,37.52024061,127.1394507
방교중학교,중학교,경기도,화성시,송동,681-177,37.174746,127.1014114
천안불무중학교,중학교,충청남도,천안시,서북구,불당동 1513,36.817945,127.1041369
곡란중학교,중학교,경기도,군포시,산본동,1083,37.37284839,126.9297615
인월중학교,중학교,전북특별자치도,남원시,인월면,서무리 678-2,35.46495634,127.6027247
애월중학교,중학교,제주특별자치도,제주시,애월읍,애월리 419,33.46460717,126.3246814
효돈중학교,중학교,제주특별자치도,서귀포시,하효동,15-1,33.26553816,126.620939
이천사동중학교,중학교,경기도,이천시,대월면,사동리 519,37.24806811,127.496564
청림중학교,중학교,경기도,화성시,산척동,산127-1,37.17164271,127.111351
유락여자중학교,중학교,부산광역시,동래구,온천동,433-3,35.21454862,129.076229
진전중학교,중학교,경상남도,창원시,마산합포구,진전면 오서리 892,35.104284,128.409552
칠원중학교,중학교,경상남도,함안군,칠서면,무릉리 908,35.31819273,128.5073148
서면중학교,중학교,충청남도,서천군,서면,신합리 475-23,36.15348862,126.5497377
고창중학교,중학교,경기도,김포시,장기동,1594,37.64183725,126.6703971
윤중중학교,중학교,서울특별시,영등포구,여의도동,38-2,37.518978,126.9241232
강현중학교,중학교,강원특별자치도,양양군,강현면,정암리 562-5,38.15026939,128.6021247
의령중학교,중학교,경상남도,의령군,의령읍,동동리 1087,35.32446685,128.2653325
온천중학교,중학교,부산광역시,동래구,온천동,1801-25,35.20457817,129.0596734
옥빛중학교,중학교,경기도,양주시,옥정동,1082,37.81457546,127.0957123
서운중학교,중학교,경기도,안성시,서운면,인리 67,36.94487143,127.2640856
부산여자중학교,중학교,부산광역시,서구,서대신동3가,60,35.12056195,129.0144572
정산중학교,중학교,전북특별자치도,정읍시,산내면,능교리 628-1,35.56915324,127.0195919
내포중학교,중학교,충청남도,홍성군,홍북읍,신경리 1175,36.65076345,126.6719692
원주삼육중학교,중학교,강원특별자치도,원주시,무실동,산 139 번지,37.326085,127.9227366
안흥중학교,중학교,강원특별자치도,횡성군,안흥면,272-2 번지,37.41259236,128.1527598
안면중학교,중학교,충청남도,태안군,안면읍,승언리 60-1,36.50921863,126.3540803
가정중학교,중학교,강원특별자치도,춘천시,남면,가정리,37.73679302,127.5777363
월곡중학교,중학교,광주광역시,광산구,월곡동,589,35.1667179,126.8134032
고덕중학교,중학교,서울특별시,강동구,고덕동,223,37.56036661,127.1616435
상일중학교,중학교,서울특별시,강동구,상일동,189,37.54858748,127.1708235
학장중학교,중학교,부산광역시,사상구,학장동,574-116,35.13790347,128.9828243
중앙탑중학교,중학교,충청북도,충주시,중앙탑면,용전리 694,37.01585619,127.832571
금호중학교,중학교,광주광역시,서구,금호동,740-1,35.13958449,126.861201
대현중학교,중학교,울산광역시,남구,달동,1330-2,35.5424085,129.3331081
삼일중학교,중학교,강원특별자치도,삼척시,남양동,185 번지,37.432476,129.1652028
동수영중학교,중학교,부산광역시,수영구,광안동,990-5,35.16456898,129.1036602
세종중학교,중학교,경기도,여주시,교동,121-11,37.279512,127.6328214
인천중산중학교,중학교,인천광역시,중구,중산동,1914-2,37.49835809,126.5709929
성신여자중학교,중학교,서울특별시,성북구,돈암동,산11-269,37.59462313,127.0231285
환호여자중학교,중학교,경상북도,포항시,북구,환호동 70,36.07188866,129.4018114
대전글꽃중학교,중학교,대전광역시,중구,문화동,1-259,36.31861537,127.4091087
월평중학교,중학교,울산광역시,남구,신정동,592-3,35.540885,129.3156467
부천일신중학교,중학교,경기도,부천시,소사구,범박동 153-7,37.473297,126.8059082
사수중학교,중학교,대구광역시,북구,사수동,815,35.89975825,128.5158207
영천중학교,중학교,경상남도,고성군,영오면,영산리 250,35.10820313,128.2365000354
제주동여자중학교,중학교,제주특별자치도,제주시,이도이동,339,33.50271672,126.541031
금산여자중학교,중학교,충청남도,금산군,금산읍,아인리 26,36.10574041,127.4830029
태안중학교,중학교,충청남도,태안군,태안읍,동문리 300,36.75340325,126.3011531
대철중학교,중학교,충청남도,서산시,운산면,갈산리 419-16,36.80463451,126.5782709
신등중학교,중학교,경상남도,산청군,신등면,양전리 43-2,35.38846187,128.0130664
성산중학교,중학교,경상북도,고령군,성산면,어곡리 122-1,35.75092754,128.361961
판교대장중학교,중학교,경기도,성남시,분당구,대장동 156-4,37.36827897,127.0697175
동계중학교,중학교,전북특별자치도,순창군,동계면,관전리 247,35.45004832,127.240649
밀양여자중학교,중학교,경상남도,밀양시,삼문동,141-14,35.48278093,128.7575847
향산중학교,중학교,경기도,김포시,고촌읍,향산리 29-4,37.61883302,126.7445867
아산중학교,중학교,충청남도,아산시,온천동,30-3,36.78906056,127.0046035
신산중학교,중학교,제주특별자치도,서귀포시,성산읍,신산리 963,33.38162137,126.8755684
경해여자중학교,중학교,경상남도,진주시,평거동,695-7,35.164931,128.042553
신라중학교,중학교,부산광역시,사상구,덕포동,66-1,35.16988872,128.992846
원광여자중학교,중학교,전북특별자치도,익산시,모현동1가,520,35.95432998,126.9434322
서원중학교,중학교,강원특별자치도,횡성군,서원면,창촌리 726 번지,37.48700554,127.8460046
설천중학교,중학교,경상남도,남해군,설천면,금음리 795,34.92401217,127.9162197
청량중학교,중학교,울산광역시,울주군,청량읍,상남리 776,35.48864478,129.3045193
다원중학교,중학교,경기도,화성시,영천동,산17-19,37.21050721,127.1048231
영림중학교,중학교,서울특별시,구로구,구로동,105-2,37.49721962,126.8906895
진해중학교,중학교,경상남도,창원시,진해구,여좌동 63,35.16037923,128.6652038
대성중학교,중학교,전북특별자치도,고창군,대산면,매산리 175-14,35.33962782,126.6036331
서도중학교,중학교,인천광역시,강화군,서도면,주문도리 53,37.648076,126.2524746
월계중학교,중학교,광주광역시,광산구,월계동,756-7,35.21992389,126.8329196
함백중학교,중학교,강원특별자치도,정선군,신동읍,조동리 263-11 번지,37.21571556,128.6737459
구산중학교,중학교,경상남도,창원시,마산합포구,현동 610,35.14377035,128.558242
우송중학교,중학교,대전광역시,동구,자양동,227-2,36.33562875,127.4428489
남산중학교,중학교,경상남도,창원시,성산구,가음동 26,35.2039882,128.6983379
동현중학교,중학교,부산광역시,금정구,부곡동,777-4,35.21898448,129.0912000024
한국국제학교,중학교,제주특별자치도,서귀포시,대정읍,구억리 1128,33.28864617,126.2872199
인왕중학교,중학교,서울특별시,서대문구,홍제동,9-27,37.592735,126.9517793
금마중학교,중학교,충청남도,홍성군,금마면,화양리 306-2,36.62074389,126.7232399
영도제일중학교,중학교,부산광역시,영도구,동삼동,510-5,35.07759188,129.0688643
담양중학교,중학교,전라남도,담양군,담양읍,천변리 190,35.31635562,126.9809939
여주제일중학교,중학교,경기도,여주시,가남읍,심석리 350-1,37.20517928,127.5555129
칠금중학교,중학교,충청북도,충주시,칠금동,1084,36.98074545,127.920938
대곡중학교,중학교,경상남도,진주시,충무공동,128,35.17067837,128.136307
영덕여자중학교,중학교,경상북도,영덕군,영덕읍,덕곡리 106-1,36.413174,129.3745519
살레시오중학교,중학교,광주광역시,북구,일곡동,482,35.21688754,126.8920601
목천중학교,중학교,충청남도,천안시,동남구,목천읍 서리 54-1,36.78283528,127.2318896
시흥중학교,중학교,서울특별시,금천구,시흥동,산24-15,37.44629507,126.9050823
해밀중학교,중학교,세종특별자치시,해밀동,산12,,36.52831935,127.2677184
이천중학교,중학교,경기도,이천시,안흥동,339-1,37.27926523,127.4561674
청암중학교,중학교,경상남도,하동군,청암면,평촌리 918,35.16107331,127.7978895
전남중학교,중학교,광주광역시,서구,치평동,1171,35.15105399,126.8437142
성남동중학교,중학교,경기도,성남시,중원구,금광동 3214,37.44873911,127.1641774
환서중학교,중학교,충청남도,천안시,서북구,백석동 31,36.82864316,127.124179
천안새샘중학교,중학교,충청남도,천안시,동남구,신방동 1601,36.77625095,127.137898
봉황중학교,중학교,충청남도,공주시,신관동,528-4,36.47546009,127.1227261
쌘뽈여자중학교,중학교,충청남도,논산시,부창동,1,36.20041527,127.085447
석천중학교,중학교,경기도,부천시,원미구,상동 526-7,37.509918,126.7569499
천안동중학교,중학교,충청남도,천안시,동남구,삼룡동 231,36.78880336,127.1668253
협성경복중학교,중학교,대구광역시,남구,봉덕동,1322-3,35.83479736,128.5985816
순천남산중학교,중학교,전라남도,순천시,풍덕동,1102-6,34.938803,127.4969099484
경북중학교,중학교,경기도,포천시,가산면,감암리 194,37.84949654,127.1881317
소선여자중학교,중학교,대구광역시,수성구,만촌동,862-17,35.85294967,128.6497965
탄현중학교,중학교,경기도,파주시,탄현면,축현리 577-1,37.80473387,126.7230919
봉남중학교,중학교,전북특별자치도,김제시,봉남면,대송리 572-6,35.75316663,126.961921
성서중학교,중학교,서울특별시,마포구,성산동,588-9,37.5627873,126.9079522
횡성중학교,중학교,강원특별자치도,횡성군,횡성읍,읍하리 200 번지,37.48622028,127.9789132
이리남성여자중학교,중학교,전북특별자치도,익산시,영등동,337-5,35.95635944,126.9659967
학산중학교,중학교,대구광역시,달서구,월성동,82,35.83142406,128.5257973
청덕중학교,중학교,경기도,용인시,기흥구,청덕동 523,37.29318256,127.1451614
군산영광중학교,중학교,전북특별자치도,군산시,중앙로2가,135-2,35.98857921,126.7072673
전주기전중학교,중학교,전북특별자치도,전주시,완산구,효자동3가 691-2,35.82623909,127.100655
순천낙안중학교,중학교,전라남도,순천시,낙안면,교촌리 247-1,34.90128263,127.3461477
전주중학교,중학교,전북특별자치도,전주시,덕진구,송천동1가 395-26,35.857872,127.1227172
설봉중학교,중학교,경기도,이천시,창전동,501-2,37.284801,127.451362
대구일중학교,중학교,대구광역시,북구,침산동,400-4,35.88627468,128.5841979
임곡중학교,중학교,경기도,안양시,동안구,비산동 511-129,37.40854787,126.9315627
금호중학교,중학교,세종특별자치시,대평동,77-59,,36.470345,127.2803741
설화중학교,중학교,충청남도,아산시,배방읍,장재리 1567,36.78586151,127.0966823
문막중학교,중학교,강원특별자치도,원주시,문막읍,문막리 237 번지,37.3052737,127.8147585
동광중학교,중학교,경기도,성남시,중원구,성남동 2876-1,37.43463362,127.1434964
함열여자중학교,중학교,전북특별자치도,익산시,함열읍,남당리 586-12,36.08349605,126.9696539
대구중학교,중학교,대구광역시,남구,이천동,258,35.85007863,128.6036800318
고창북중학교,중학교,전북특별자치도,고창군,부안면,상등리 665,35.50833774,126.6595544
천안여자중학교,중학교,충청남도,천안시,동남구,원성동 559-1,36.80254964,127.1581917
성내중학교,중학교,서울특별시,강동구,성내동,530,37.52906191,127.1291173
경북체육중학교,중학교,경상북도,경산시,신교동,108-1,35.81222619,128.7380534
풍양중학교,중학교,경기도,남양주시,진접읍,금곡리 969,37.718849,127.1910173
함성중학교,중학교,경상남도,함안군,함안면,북촌리 1002-3,35.24145693,128.420769
숭의여자중학교,중학교,서울특별시,동작구,대방동,20-114,37.50736414,126.9292433
청산중학교,중학교,경기도,연천군,청산면,궁평리 550-1,38.034767,127.1074886
미산중학교,중학교,충청남도,보령시,미산면,도화담리 94,36.28885347,126.6770858
여주중학교,중학교,경기도,여주시,능서면,왕대리 973,37.29702706,127.6199007
소사중학교,중학교,경기도,부천시,소사구,소사본동 401,37.47002481,126.8020814
수유중학교,중학교,서울특별시,강북구,수유동,491-61,37.6315652,127.0104839
풍생중학교,중학교,경기도,성남시,수정구,수진동 4511-1,37.43504295,127.1314147
상일중학교,중학교,경기도,부천시,원미구,상동 550-4,37.50165479,126.7513843
창명여자중학교,중학교,경기도,여주시,대신면,율촌리 271,37.37548313,127.5893974
부천여월중학교,중학교,경기도,부천시,오정구,여월동 68,37.517259,126.7972231
민세중학교,중학교,경기도,평택시,고덕면,율포리 348-2,37.053699,127.040032
광주무진중학교,중학교,광주광역시,남구,월산동,226,35.14596075,126.8997305
사천여자중학교,중학교,경상남도,사천시,정동면,화암리 683,35.08123828,128.1021273
내곡중학교,중학교,서울특별시,서초구,신원동,324,37.45200325,127.0544446
훈민중학교,중학교,경기도,의정부시,고산동,925,37.73627429,127.112017
진주중앙중학교,중학교,경상남도,진주시,하대동,104,35.19109539,128.1247866
옥천여자중학교,중학교,충청북도,옥천군,옥천읍,문정리 455-2,36.3035923,127.5716026
심학중학교,중학교,경기도,파주시,동패동,684,37.709955,126.7170876
청계중학교,중학교,경기도,화성시,청계동,517,37.19945672,127.1031575
고성중학교,중학교,경상남도,고성군,고성읍,교사리 337-1,34.979401,128.305266
고암중학교,중학교,경기도,양주시,덕정동,210,37.83445798,127.0678903
용봉중학교,중학교,광주광역시,북구,오치동,983-1,35.185571,126.9112307
남양중학교,중학교,경상남도,사천시,송포동,281,34.96950126,128.0621159
천안계광중학교,중학교,충청남도,천안시,동남구,봉명동 205-1,36.80941687,127.1343416
진해신항중학교,중학교,경상남도,창원시,진해구,용원동 1338-1,35.08819661,128.810678
신녕중학교,중학교,경상북도,영천시,신녕면,매양리 405,36.04302173,128.7804921
입장중학교,중학교,충청남도,천안시,서북구,입장면 유리 197-1,36.9206312,127.2180424
웅부중학교,중학교,경상북도,안동시,도산면,온혜리 923,36.74887315,128.8234472
용두중학교,중학교,광주광역시,북구,용두동,1090,35.21577101,126.8752461
해창중학교,중학교,경기도,평택시,고덕동,2699-2,37.036554,127.0226965
신현중학교,중학교,경상남도,거제시,고현동,878,34.88860912,128.6167069
단양중학교,중학교,충청북도,단양군,단양읍,도전리 222,36.98022231,128.3668703
광천중학교,중학교,충청남도,홍성군,광천읍,광천리 162-4,36.51013492,126.6299173
전주효문중학교,중학교,전북특별자치도,전주시,완산구,삼천동1가 208-1,35.7982023,127.1198927
창녕옥야중학교,중학교,경상남도,창녕군,이방면,장천리 49,35.60057032,128.3801199
성사중학교,중학교,서울특별시,마포구,성산동,124,37.5680911,126.912683
순천승남중학교,중학교,전라남도,순천시,송광면,이읍리 896,34.96430055,127.2608322
인천초은중학교,중학교,인천광역시,서구,청라동,192-1,37.52838091,126.6539276
평촌중학교,중학교,경기도,안양시,동안구,평촌동 899-5,37.38878173,126.9614854
광주수피아여자중학교,중학교,광주광역시,남구,양림동,242,35.13719317,126.911614
글벗중학교,중학교,세종특별자치시,소담동,288-3,,36.488457,127.298754
유봉여자중학교,중학교,강원특별자치도,춘천시,교동,93-37 번지,37.88478908,127.7345838
신호중학교,중학교,부산광역시,강서구,신호동,302-1,35.08241426,128.8770924
도봉중학교,중학교,서울특별시,도봉구,도봉동,622-40,37.67088384,127.0458717
내서중학교,중학교,경상남도,창원시,마산회원구,내서읍 중리 1052,35.24575912,128.5079397
양산중학교,중학교,광주광역시,북구,양산동,610-3,35.196418,126.8750071
향동중학교,중학교,경기도,고양시,덕양구,향동동 91,37.60301142,126.8953017
영동중학교,중학교,서울특별시,서초구,우면동,680,37.46598629,127.0251408
본오중학교,중학교,경기도,안산시,상록구,본오동 861,37.29327463,126.8667799926
문산중학교,중학교,광주광역시,북구,문흥동,972-3,35.189378,126.9238035
김제중앙중학교,중학교,전북특별자치도,김제시,옥산동,59,35.79360638,126.8885177
강림중학교,중학교,강원특별자치도,횡성군,강림면,강림리 872 번지,37.36418649,128.1268087
탄천중학교,중학교,충청남도,공주시,탄천면,삼각리 480,36.33045395,127.0319922
미탄중학교,중학교,강원특별자치도,평창군,미탄면,창리 611,37.34226917,128.4976788
여수중학교,중학교,전라남도,여수시,공화동,1453,34.74921774,127.7404056
서산부춘중학교,중학교,충청남도,서산시,읍내동,585-1,36.78615605,126.4435333
이일여자중학교,중학교,전북특별자치도,익산시,인화동1가,2-42,35.93458743,126.9489825
신암중학교,중학교,서울특별시,강동구,암사동,444,37.55636169,127.1336043
함덕중학교,중학교,제주특별자치도,제주시,조천읍,함덕리 72-3,33.53678618,126.6726542
청심국제중학교,중학교,경기도,가평군,설악면,송산리 10,37.6870224,127.540528
구미인덕중학교,중학교,경상북도,구미시,산동면,인덕리 1108,36.162018,128.438757
군산중학교,중학교,전북특별자치도,군산시,송풍동,925-8,35.97720115,126.7014138
금곡중학교,중학교,경상남도,진주시,금곡면,동례리 400,35.10433807,128.1821149
압량중학교,중학교,경상북도,경산시,압량읍,부적리 601,35.84381785,128.7614826
혜성여자중학교,중학교,경상남도,거창군,거창읍,상림리 274,35.68725247,127.9058254
함평중학교,중학교,전라남도,함평군,함평읍,기각리 1175,35.06780892,126.5219752
태전중학교,중학교,경기도,광주시,태전동,산22-5번지 일원,37.37409029,127.2293414
인천미송중학교,중학교,인천광역시,연수구,송도동,308-4,37.41595901,126.6131619
부안중학교,중학교,전북특별자치도,부안군,부안읍,서외리 410-1,35.72803921,126.724749
해누리중학교,중학교,서울특별시,송파구,가락동,479-1,37.498245,127.102192
진서중학교,중학교,경상남도,진주시,수곡면,대천리 226-1,35.19813125,127.9275029
노변중학교,중학교,대구광역시,수성구,노변동,735,35.83808624,128.6943549
해리중학교,중학교,전북특별자치도,고창군,해리면,하련리 245,35.46277932,126.539783
부천남중학교,중학교,경기도,부천시,소사구,송내동 628,37.47906932,126.772016
선인국제중학교,중학교,경상남도,진주시,대곡면,월암리 219-1,35.30854504,128.1648399491
수월중학교,중학교,경상남도,거제시,수월동,1165,34.89067858,128.6448996
강천중학교,중학교,경기도,여주시,강천면,간매리 268-1,37.27087978,127.7124481
영신중학교,중학교,충청북도,영동군,영동읍,매천리 406-1,36.16900834,127.7748399
표선중학교,중학교,제주특별자치도,서귀포시,표선면,표선리 317-1,33.32933285,126.8320777
성주중학교,중학교,경기도,부천시,소사구,송내동 418,37.48028041,126.7599147
부산내성중학교,중학교,부산광역시,동래구,온천동,1458-20,35.20370364,129.077041
옥종중학교,중학교,경상남도,하동군,옥종면,청룡리 227,35.17908692,127.8794113
인천예송중학교,중학교,인천광역시,연수구,송도동,114-1,37.38341562,126.6275486
광주예술중학교,중학교,광주광역시,북구,매곡동,385,35.18631089,126.8878116
거제중학교,중학교,경상남도,거제시,아주동,295-8,34.86108759,128.6884261
서귀포중학교,중학교,제주특별자치도,서귀포시,서귀동,231,33.2472993,126.5693104
제주제일중학교,중학교,제주특별자치도,제주시,이도이동,539-4,33.49567465,126.5392087
주성중학교,중학교,충청북도,청주시,청원구,율량동 1903,36.66950234,127.4983628
천안쌍용중학교,중학교,충청남도,천안시,서북구,쌍용동 1927,36.803689,127.1202337
동인천여자중학교,중학교,인천광역시,서구,가좌동,402,37.49003475,126.6880861
신반포중학교,중학교,서울특별시,서초구,반포동,3-1,37.50626532,126.996115
천안서여자중학교,중학교,충청남도,천안시,동남구,봉명동 216-1,36.80361191,127.1365589
구암중학교,중학교,경상남도,창원시,마산회원구,구암동 1346,35.25608813,128.5967086
연희중학교,중학교,서울특별시,서대문구,남가좌동,368-1,37.57958728,126.9187918
대천여자중학교,중학교,충청남도,보령시,대천동,453-1,36.3546507,126.5927627
마천중학교,중학교,경상남도,함양군,마천면,덕전리 88-1,35.38782412,127.6593628
사천중학교,중학교,경상남도,사천시,사천읍,선인리 186-7,35.08089921,128.0980837
밀성여자중학교,중학교,경상남도,밀양시,내이동,590-4,35.5019567,128.7504629
천남중학교,중학교,충청남도,천안시,동남구,성남면 대화리 69-2,36.73072281,127.2611061
원이중학교,중학교,충청남도,태안군,원북면,마산리 510-2,36.82985852,126.2664746
물금중학교,중학교,경상남도,양산시,물금읍,가촌리 1272-12,35.31417406,128.9949047
정곡중학교,중학교,경상남도,의령군,정곡면,중교리 513,35.38243669,128.3273188
다산한강중학교,중학교,경기도,남양주시,다산동,6241,37.599206,127.1753983
홍성서부중학교,중학교,충청남도,홍성군,서부면,이호리 510,36.57100104,126.5088401
매양중학교,중학교,경기도,광주시,오포읍,양벌리 653,37.369112,127.247804
신사중학교,중학교,서울특별시,강남구,압구정동,410,37.52469784,127.0211914
천안월봉중학교,중학교,충청남도,천안시,서북구,불당동 1425,36.80126818,127.1109564
목포애향중학교,중학교,전라남도,목포시,옥암동,1325,34.8071145,126.4569787
마장중학교,중학교,서울특별시,성동구,마장동,766-49,37.56830949,127.042128
변산중학교,중학교,전북특별자치도,부안군,진서면,곰소리 427,35.58946353,126.605431
세인트존스베리 아카데미 제주,중학교,제주특별자치도,서귀포시,대정읍,구억리 1159,33.28529333,126.2843128
묵호중학교,중학교,강원특별자치도,동해시,발한동,190,37.54329866,129.1054298
청신여자중학교,중학교,충청남도,청양군,청양읍,벽천리 36,36.44170783,126.8008216
은여울중학교,중학교,경기도,김포시,마산동,639-9,37.637942,126.6390605
중흥중학교,중학교,경기도,부천시,원미구,중동 1053-1,37.50654272,126.7742134
지사중학교,중학교,전북특별자치도,임실군,지사면,금평리 47,35.56728894,127.358871
대동중학교,중학교,부산광역시,사하구,구평동,112-24,35.0873648,128.9842391
공근중학교,중학교,강원특별자치도,횡성군,공근면,학담리 23-5 번지,37.54023303,127.963107
숭의중학교,중학교,광주광역시,남구,방림동,50-3,35.12743476,126.9231472
염경중학교,중학교,서울특별시,강서구,염창동,79-8,37.55453781,126.8705292
대전두리중학교,중학교,대전광역시,유성구,송강동,162,36.4292747,127.3823802
우천중학교,중학교,강원특별자치도,횡성군,우천면,문암리 24 번지,37.4684289,128.0495417
대술중학교,중학교,충청남도,예산군,대술면,화천리 869-1,36.6566695,126.8917371
인천계수중학교,중학교,인천광역시,계양구,서운동,109-2,37.53515968,126.744919
신상중학교,중학교,경상북도,경산시,진량읍,신상리 343-1,35.87468993,128.8219306
갈뫼중학교,중학교,경기도,의왕시,내손동,785,37.37747542,126.9749024
영선중학교,중학교,전북특별자치도,고창군,무장면,무장리 431-1,35.41422378,126.5580061
대전체육중학교,중학교,대전광역시,유성구,원신흥동,530-1,36.33651309,127.3406536
이월중학교,중학교,충청북도,진천군,이월면,송림리 455-5,36.92704651,127.4281234
청아중학교,중학교,강원특별자치도,삼척시,당저동,성당길 63-7,37.4437482,129.1596221
신가중학교,중학교,광주광역시,광산구,신창동,1108-4,35.1876841,126.8378471
성곡중학교,중학교,경기도,부천시,오정구,작동 48,37.51747466,126.815342
천안봉서중학교,중학교,충청남도,천안시,서북구,쌍용동 899,36.80682005,127.129464
법원여자중학교,중학교,경기도,파주시,법원읍,가야리 57-1,37.85259972,126.8688511
버들중학교,중학교,강원특별자치도,원주시,반곡동,,37.33091186,127.989128
송곡여자중학교,중학교,서울특별시,중랑구,망우동,252-1,37.60668904,127.1051455
동명중학교,중학교,강원특별자치도,강릉시,포남동,424,37.7766622,128.9135576
서전주중학교,중학교,전북특별자치도,전주시,완산구,효자동1가 364-8,35.81033988,127.112233
온양용화중학교,중학교,충청남도,아산시,용화동,63-7,36.77457138,127.0074691
한울중학교,중학교,서울특별시,금천구,시흥동,792-1,37.46240099,126.9071815
둔촌중학교,중학교,서울특별시,강동구,둔촌동,19-1,37.53083609,127.1463317
신양중학교,중학교,경기도,김포시,양촌읍,양곡리 1251,37.65906492,126.6355015
화산중학교,중학교,전북특별자치도,완주군,화산면,화월리 897-6,36.03526614,127.1981792
강동중학교,중학교,서울특별시,강동구,강일동,347-3,37.56965025,127.177836
구산중학교,중학교,서울특별시,은평구,구산동,182-45,37.60987202,126.9094887
김포여자중학교,중학교,경기도,김포시,사우동,216,37.61839978,126.713009
판교중학교,중학교,충청남도,서천군,판교면,현암리 249,36.15664094,126.6873122
양화중학교,중학교,충청남도,부여군,양화면,족교리 166,36.13187757,126.8611121
증포중학교,중학교,경기도,이천시,증포동,476,37.28807095,127.4555511
울진중학교,중학교,경상북도,울진군,울진읍,연지리 822,36.99395651,129.405109
돌산중학교,중학교,전라남도,여수시,돌산읍,군내리 144,34.61545383,127.7279421
공릉중학교,중학교,서울특별시,노원구,공릉동,250,37.62222778,127.0836019
가야곡중학교,중학교,충청남도,논산시,가야곡면,강청리 343-14,36.14401067,127.1683998
신일중학교,중학교,울산광역시,남구,신정동,906-7,35.52803935,129.3110505
삼성중학교,중학교,경상남도,양산시,북정동,555,35.3607200025,129.0470499943
삼우중학교,중학교,전북특별자치도,완주군,이서면,상개리 580-2,35.82457344,127.0241716
양도중학교,중학교,경기도,김포시,풍무동,472-5,37.60472045,126.7307012
덕산중학교,중학교,경상남도,산청군,시천면,원리 170,35.27592431,127.8346458
광희중학교,중학교,서울특별시,성동구,응봉동,193,37.55115453,127.0339801
파평중학교,중학교,경기도,파주시,파평면,금파리 288,37.92006566,126.8374481
한라중학교,중학교,제주특별자치도,제주시,노형동,754-1,33.47778787,126.485177
가곡중학교,중학교,강원특별자치도,삼척시,가곡면,오저리 88,37.14634584,129.2048269
설천중학교,중학교,전북특별자치도,무주군,설천면,소천리 907-1,36.01252702,127.7881231
명석중학교,중학교,경상남도,진주시,명석면,관지리 256,35.21727403,128.0419314
부산대신중학교,중학교,부산광역시,서구,서대신동3가,92,35.1184364,129.0133803
양양중학교,중학교,강원특별자치도,양양군,양양읍,서문리 224 번지,38.07291216,128.6134498
역곡중학교,중학교,경기도,부천시,원미구,역곡동 101,37.49143964,126.8109076
생명중학교,중학교,충청북도,청주시,청원구,오창읍 양청리 810-9,36.71214657,127.4385489
푸른솔중학교,중학교,경기도,김포시,장기동,1866-3,37.65243694,126.6671637
홍주중학교,중학교,충청남도,홍성군,홍성읍,오관리 516,36.5927793,126.6625916
익산부송중학교,중학교,전북특별자치도,익산시,부송동,240-2,35.95596349,126.9959986
삼계중학교,중학교,전북특별자치도,임실군,삼계면,삼계리 339-2,35.51000699,127.2738797
경덕중학교,중학교,경상북도,안동시,태화동,598-1,36.56127878,128.7096062
대구중앙중학교,중학교,대구광역시,수성구,수성동4가,1145-1,35.86646267,128.6172837
개포중학교,중학교,서울특별시,강남구,개포동,660-37,37.48078757,127.0616268
배다리중학교,중학교,경기도,평택시,죽백동,793,37.00483365,127.1216313
남양주다산중학교,중학교,경기도,남양주시,다산동,6032,37.62784624,127.1587109
영중중학교,중학교,경기도,포천시,영중면,양문리 611-3,38.00004367,127.2458095
정원여자중학교,중학교,서울특별시,서대문구,홍은동,산11-141,37.58538212,126.9333431
각화중학교,중학교,광주광역시,북구,각화동,231,35.18149377,126.9379697
통진중학교,중학교,경기도,김포시,통진읍,마송리 14-15,37.68585311,126.6021476
무주중학교,중학교,전북특별자치도,무주군,무주읍,읍내리 355-5,36.01093683,127.6647946
제주중앙중학교,중학교,제주특별자치도,제주시,연동,323-14,33.48675886,126.5006626
문산수억중학교,중학교,경기도,파주시,파주읍,봉서리 산6,37.85202703,126.8025649
우산중학교,중학교,광주광역시,북구,오치동,57,35.18962767,126.9123959
경천중학교,중학교,충청남도,공주시,계룡면,경천리 423-1,36.32519668,127.1524563
배곧중학교,중학교,경기도,시흥시,정왕동,2487,37.37485445,126.7308421
목일중학교,중학교,서울특별시,양천구,신정동,330-2,37.51354095,126.8740325
완도여자중학교,중학교,전라남도,완도군,완도읍,군내리 1096,34.31294047,126.7420958
정관중학교,중학교,부산광역시,기장군,정관읍,용수리 1335,35.32390251,129.172949
고대중학교,중학교,충청남도,당진시,고대면,대촌리 657-2,36.93677371,126.5916532
경일중학교,중학교,서울특별시,성동구,성수동1가,22-27,37.54382982,127.0478683
효양중학교,중학교,경기도,이천시,부발읍,산촌리 533-2,37.26576297,127.4821566
진주중학교,중학교,경상남도,진주시,상봉동,987-3,35.1995329,128.0805137
무안중학교,중학교,경상남도,밀양시,무안면,신법리 192,35.47920648,128.654571
신주중학교,중학교,경상남도,양산시,물금읍,범어리 2673-10,35.33479185,129.0145282
송린중학교,중학교,경기도,화성시,새솔동,0,37.27681304,126.822267
안산해솔중학교,중학교,경기도,안산시,상록구,사동 1639-13,37.281329,126.8339796
조선대학교여자중학교,중학교,광주광역시,동구,지산동,491,35.14582248,126.9315765
동탄목동중학교,중학교,경기도,화성시,목동,산35,37.18861063,127.126423
천안북중학교,중학교,충청남도,천안시,동남구,성황동 4,36.81448797,127.1545115
도산중학교,중학교,경상남도,통영시,도산면,법송리 1042,34.9033263,128.3613601
한들중학교,중학교,전북특별자치도,김제시,요촌동,72-1,35.80448514,126.8917355
창원중학교,중학교,경상남도,창원시,의창구,도계동 901,35.25580991,128.6414039
보평중학교,중학교,경기도,성남시,분당구,백현동 543,37.39395033,127.1157671
숭신여자중학교,중학교,경기도,성남시,중원구,금광동 2686,37.45026861,127.1700177
운양중학교,중학교,경기도,김포시,장기동,2000-2,37.644976,126.6764461
풍성중학교,중학교,서울특별시,송파구,풍납동,388-16,37.52543858,127.1128839
경북대학교사범대학부설중학교,중학교,대구광역시,중구,대봉동,60-19,35.8625154,128.6006135
세종중학교,중학교,경상남도,밀양시,가곡동,566-1,35.47378054,128.7637125
제주동중학교,중학교,제주특별자치도,제주시,화북일동,1146-2,33.51882145,126.5723074
임천중학교,중학교,충청남도,부여군,임천면,구교리 531-4,36.18196395,126.8978693
석교중학교,중학교,전라남도,진도군,임회면,석교리 366,34.40928568,126.1949291
보안중학교,중학교,전북특별자치도,부안군,보안면,영전리 398-1,35.61010081,126.6735425
선정중학교,중학교,서울특별시,은평구,갈현동,227-5,37.61870451,126.9090316
연일중학교,중학교,부산광역시,연제구,연산동,1086,35.18482183,129.0971099
태장중학교,중학교,강원특별자치도,원주시,태장동,720-1,37.357764,127.9590329
문산중학교,중학교,경기도,파주시,야동동,140-14,37.77260399,126.7628873
소양중학교,중학교,전북특별자치도,완주군,소양면,황운리 750,35.85655921,127.2324813
조남중학교,중학교,경기도,시흥시,조남동,702,37.377491,126.8585907
신방학중학교,중학교,서울특별시,도봉구,방학동,307-1,37.66414043,127.028899
상신중학교,중학교,서울특별시,은평구,신사동,141,37.58978547,126.9064249
안산성호중학교,중학교,경기도,안산시,상록구,일동 82-2,37.31415903,126.8681669
보령중학교,중학교,충청남도,보령시,주포면,보령리 산6-7,36.41706057,126.5905927
오션중학교,중학교,부산광역시,강서구,명지동,3242-3,35.08044246,128.909599
신림중학교,중학교,강원특별자치도,원주시,신림면,신림리 572,37.2298983,128.0879389
범물중학교,중학교,대구광역시,수성구,범물동,1366,35.81501767,128.6398567
건양대학교병설건양중학교,중학교,충청남도,논산시,양촌면,남산리 564,36.14155764,127.2343403
오산중학교,중학교,서울특별시,용산구,보광동,168-4,37.52358051,127.0008872
봉담중학교,중학교,경기도,화성시,봉담읍,상리 11-40,37.21655105,126.9533521
대흥중학교,중학교,충청남도,예산군,대흥면,상중리 231,36.60548656,126.7916056
덕장중학교,중학교,경기도,의왕시,청계동,973,37.39322824,126.9988109
은평중학교,중학교,서울특별시,은평구,구산동,182-44,37.610619,126.9083472
동명중학교,중학교,대전광역시,중구,석교동,195-5,36.30838794,127.4387263
성연중학교,중학교,충청남도,서산시,성연면,평리 299-1,36.83692899,126.4617895
보성복내중학교,중학교,전라남도,보성군,복내면,봉천리 300,34.89875852,127.140216
상서중학교,중학교,강원특별자치도,화천군,상서면,파포리 291,38.1567044,127.6495105
흥천중학교,중학교,경기도,여주시,흥천면,효지리 163-1,37.32737755,127.5555146
초읍중학교,중학교,부산광역시,부산진구,초읍동,510-1,35.18096061,129.0557404
세정중학교,중학교,경기도,여주시,능서면,매류리 376-6,37.280109,127.563793
화계중학교,중학교,서울특별시,강북구,수유동,491-28,37.63251806,127.0097091
호남중학교,중학교,전북특별자치도,정읍시,시기동,475,35.55709637,126.8511976
가온중학교,중학교,울산광역시,중구,반구동,50,35.56437844,129.3382861
감계중학교,중학교,경상남도,창원시,의창구,북면 감계리 253-2,35.30023915,128.5873017
지축중학교,중학교,경기도,고양시,덕양구,지축동 543-1,37.65336369,126.9177423
이평중학교,중학교,전북특별자치도,정읍시,이평면,창동리 473-2,35.66166447,126.8116013
화신중학교,중학교,부산광역시,북구,화명동,1408,35.23864485,129.0145395
설악중학교,중학교,경기도,가평군,설악면,신천리 76-2,37.6819367,127.4939499884
대강중학교,중학교,전북특별자치도,남원시,대강면,방동리 1338-5,35.34177514,127.215826
연당중학교,중학교,강원특별자치도,영월군,남면,연당리 992 번지,37.18839642,128.4074473
태인중학교,중학교,전북특별자치도,정읍시,태인면,태성리 627-5,35.65261885,126.9389432
정일중학교,중학교,전북특별자치도,정읍시,공평동,348,35.58114306,126.8307516
명지중학교,중학교,부산광역시,강서구,명지동,3386,35.10198148,128.925769
연성중학교,중학교,경기도,시흥시,하상동,370,37.392487,126.8134103
다산새봄중학교,중학교,경기도,남양주시,다산동,3556,37.618804,127.1590195
경신중학교,중학교,서울특별시,종로구,혜화동,5-119,37.59220227,126.999531
창동중학교,중학교,서울특별시,도봉구,방학동,722-27,37.66322957,127.0489975
송림중학교,중학교,경기도,성남시,분당구,이매동 378,37.39191272,127.1318098
울산중학교,중학교,울산광역시,중구,복산동,705,35.5657499,129.3235692
전주양지중학교,중학교,전북특별자치도,전주시,완산구,평화동2가 581-15,35.79174135,127.1243865
한솔중학교,중학교,세종특별자치시,한솔동,975,,36.47616935,127.2549802
밀성중학교,중학교,경상남도,밀양시,내이동,602-7,35.501573,128.7509238
범박중학교,중학교,경기도,부천시,소사구,범박동 232-3,37.46901052,126.814668
상지여자중학교,중학교,강원특별자치도,원주시,개운동,50-1,37.34004341,127.9616048
김포중학교,중학교,경기도,김포시,북변동,477,37.6221982,126.7079972
영훈국제중학교,중학교,서울특별시,강북구,미아동,471-2,37.61468187,127.0280933
대동여자중학교,중학교,강원특별자치도,횡성군,횡성읍,읍하리 371 번지,37.49221297,127.979723
장흥유치중학교,중학교,전라남도,장흥군,유치면,조양리 695,34.80273525,126.8355483
고산중학교,중학교,대구광역시,수성구,시지동,62,35.84528337,128.6986708
전주예술중학교,중학교,전북특별자치도,완주군,구이면,항가리 499-3,35.72023332,127.1087873
전주서중학교,중학교,전북특별자치도,전주시,완산구,서신동 762,35.83182841,127.1097297
동광중학교,중학교,강원특별자치도,고성군,토성면,백촌리 187,38.29445445,128.5429663
생연중학교,중학교,경기도,동두천시,생연동,714-4,37.89686651,127.0496665
부석중학교,중학교,충청남도,서산시,부석면,대두리 165-1,36.70916539,126.3937775
목운중학교,중학교,서울특별시,양천구,목동,922,37.52700952,126.8730442
인천당하중학교,중학교,인천광역시,서구,당하동,1076-1,37.59060591,126.6695556
길주중학교,중학교,경상북도,안동시,용상동,1536-1,36.556481,128.758422
성안중학교,중학교,경기도,안산시,상록구,사동 1538,37.30403122,126.8481679
새움중학교,중학교,세종특별자치시,다정동,363-215,,36.491141,127.2472378
금정중학교,중학교,부산광역시,금정구,남산동,382,35.27119081,129.0937601
풍무중학교,중학교,경기도,김포시,풍무동,545-1,37.60007633,126.7267522
음암중학교,중학교,충청남도,서산시,음암면,도당리 585-18,36.79028696,126.5181874
노곡중학교,중학교,서울특별시,도봉구,창동,32,37.64880251,127.0537437
성당중학교,중학교,대구광역시,달서구,본리동,166-16,35.840505,128.548237
남포중학교,중학교,충청남도,보령시,남포면,달산리 149,36.294738,126.5913743
두암중학교,중학교,광주광역시,북구,두암동,967-1,35.16620771,126.9351485
장흥회덕중학교,중학교,전라남도,장흥군,회진면,회진리 748,34.477201,126.9358307
가야여자중학교,중학교,부산광역시,부산진구,가야동,414-14,35.14759698,129.036494
가야중학교,중학교,경상남도,김해시,내동,1137-3,35.237055,128.8703601
진산중학교,중학교,충청남도,금산군,진산면,읍내리 606,36.1453448,127.370204
증산중학교,중학교,서울특별시,은평구,증산동,산24-4,37.58344275,126.904157
남해중학교,중학교,경상남도,남해군,남해읍,북변리 362-2,34.83897493,127.8967668
중앙여자중학교,중학교,서울특별시,서대문구,북아현동,190-1,37.56317672,126.9540593
상품중학교,중학교,경기도,여주시,산북면,상품리 69,37.40265113,127.4399231
여명중학교,중학교,부산광역시,동래구,사직동,130-1,35.19584799,129.0702833
여양중학교,중학교,전라남도,여수시,소라면,덕양리 1058,34.78900295,127.6314339
무등중학교,중학교,광주광역시,동구,소태동,625,35.12420772,126.9342236
대곶중학교,중학교,경기도,김포시,대곶면,율생리 336-2,37.64933563,126.5837202
안의중학교,중학교,경상남도,함양군,안의면,석천리 73,35.62990204,127.819746
대신중학교,중학교,서울특별시,종로구,행촌동,171-1,37.573109,126.9612546
광덕중학교,중학교,광주광역시,서구,화정동,652,35.1446869,126.8784967
관산중학교,중학교,경기도,안산시,단원구,원곡동 965,37.335274,126.7988246
전북체육중학교,중학교,전북특별자치도,완주군,소양면,해월리 377-19,35.8655498,127.2506488
나래중학교,중학교,경기도,김포시,구래동,6893-3,37.63888658,126.6258995
야음중학교,중학교,울산광역시,남구,야음동,789-11,35.52605365,129.3260298
서포중학교,중학교,경상남도,사천시,서포면,구평리 916,35.00843777,127.974528
악양중학교,중학교,경상남도,하동군,악양면,신흥리 921,35.16279021,127.7133466
천안부성중학교,중학교,충청남도,천안시,서북구,부대동 271-11,36.84770783,127.149805
경서중학교,중학교,대구광역시,달성군,옥포읍,교항리 2946,35.78280765,128.4451379
화성반월중학교,중학교,경기도,화성시,반월동,946,37.22388567,127.0542861
아산배방중학교,중학교,충청남도,아산시,배방읍,북수리 1712,36.76998614,127.0715073
율곡중학교,중학교,경상북도,김천시,율곡동,647,36.12191192,128.185983
청량중학교,중학교,경상북도,봉화군,명호면,도천리 264-2,36.86005258,128.8992053
장목예술중학교,중학교,경상남도,거제시,장목면,장목리 214-10,34.98496513,128.6808258
남일중학교,중학교,부산광역시,동래구,안락동,183,35.19312221,129.111616
광주동성중학교,중학교,광주광역시,남구,진월동,859-165,35.11548253,126.8935344
권선중학교,중학교,경기도,수원시,권선구,세류동 1130-1,37.24884036,127.017105
건국대학교사범대학부속중학교,중학교,서울특별시,광진구,화양동,528-4,37.54172407,127.0815971
대성중학교,중학교,경상남도,창녕군,대합면,등지리 651-7,35.60134951,128.4615163
장유중학교,중학교,경상남도,김해시,신문동,580,35.1901494,128.8203774
은산중학교,중학교,충청남도,부여군,은산면,신대리 333,36.31389574,126.8535309
도래울중학교,중학교,경기도,고양시,덕양구,도내동 988,37.63190171,126.868643
임호중학교,중학교,경상남도,김해시,내동,1146-6,35.23492485,128.870475
대전용운중학교,중학교,대전광역시,동구,용운동,300,36.32556291,127.4649845
송악중학교,중학교,충청남도,당진시,송악읍,가학리 395,36.91658244,126.7047622
화개중학교,중학교,경상남도,하동군,화개면,삼신리 672,35.19976932,127.6300146
군산자양중학교,중학교,전북특별자치도,군산시,옥구읍,선제리 716,35.92590431,126.6776642
광양중학교,중학교,전라남도,광양시,광양읍,우산리 576,34.97967879,127.5908687
청운중학교,중학교,서울특별시,종로구,청운동,89-142,37.58917094,126.971096
동해광희중학교,중학교,강원특별자치도,동해시,동회동,150 번지,37.48988277,129.1026542
고금중학교,중학교,전라남도,완도군,고금면,농상리 365,34.39388508,126.8032334
통영중앙중학교,중학교,경상남도,통영시,무전동,1054-4,34.86220913,128.4242359
방학중학교,중학교,서울특별시,도봉구,방학동,313,37.66545122,127.030859
전주신일중학교,중학교,전북특별자치도,전주시,완산구,중노송동 399-1,35.82896302,127.1532516
여수중앙여자중학교,중학교,전라남도,여수시,덕충동,1633,34.75308935,127.7329194
보성여자중학교,중학교,서울특별시,용산구,용산동2가,1-1123,37.54308154,126.9842842
고명중학교,중학교,서울특별시,성북구,돈암동,45-88,37.59767468,127.0191869
신안중학교,중학교,경기도,안양시,만안구,안양동 728,37.38811426,126.9148167
대전버드내중학교,중학교,대전광역시,서구,도마동,135-1,36.31732823,127.3834976
부리중학교,중학교,충청남도,금산군,부리면,양곡리 644-1,36.06595069,127.5556784
오산중학교,중학교,경기도,오산시,청학동,17,37.15430591,127.0626056
산정중학교,중학교,광주광역시,광산구,산정동,1117,35.17115964,126.8009661
물금동아중학교,중학교,경상남도,양산시,물금읍,물금리 95,35.30881511,128.9935314
오수중학교,중학교,전북특별자치도,임실군,오수면,오수리 455-2,35.54686393,127.3278067
이곡중학교,중학교,대구광역시,달서구,이곡동,1333,35.86211601,128.5118478
전주만성중학교,중학교,전북특별자치도,전주시,덕진구,중동 803,35.83673137,127.0654162
다온중학교,중학교,경기도,의정부시,가능동,833,37.74122216,127.037309
개운중학교,중학교,서울특별시,성북구,돈암동,83-145,37.59462665,127.0248421
문태중학교,중학교,전라남도,목포시,용당동,183,34.80057558,126.4030507
달천중학교,중학교,울산광역시,북구,달천동,11-67,35.63103622,129.3305407
부발중학교,중학교,경기도,이천시,부발읍,무촌리 58-1,37.28529944,127.4941441
진성여자중학교,중학교,전라남도,여수시,봉강동,203-1,34.73964826,127.7213738
한림여자중학교,중학교,제주특별자치도,제주시,한림읍,한림리 1490,33.41031345,126.2597361
화동중학교,중학교,강원특별자치도,정선군,화암면,화암리 386 번지,37.33964977,128.7872645
잠신중학교,중학교,서울특별시,송파구,잠실동,22-1,37.51613937,127.087802
반포중학교,중학교,충청남도,공주시,반포면,봉곡리 242-6,36.40429868,127.2425628
의령여자중학교,중학교,경상남도,의령군,가례면,가례리 265-1,35.32416174,128.2453647
정안중학교,중학교,충청남도,공주시,정안면,내촌리 214-1,36.60385335,127.1171299
김화여자중학교,중학교,강원특별자치도,철원군,서면,와수리 589-3 번지,38.24404542,127.4333719
상암중학교,중학교,서울특별시,마포구,상암동,1657,37.57905692,126.8875508
군남중학교,중학교,경기도,연천군,군남면,진상리 704-1,38.067822,127.0155896
진부중학교,중학교,강원특별자치도,평창군,진부면,하진부리 258-2 번지,37.63615526,128.552628
사파중학교,중학교,경상남도,창원시,성산구,사파동 94-1,35.21896417,128.7005664
미조중학교,중학교,경상남도,남해군,미조면,미조리 400,34.71635241,128.0393878
고성여자중학교,중학교,경상남도,고성군,고성읍,송학리 309-1,34.97989917,128.3263738
혜원여자중학교,중학교,서울특별시,중랑구,망우동,519,37.59327987,127.0970427
양강중학교,중학교,서울특별시,양천구,신월동,499-2,37.52491016,126.849688
배재중학교,중학교,서울특별시,강동구,고덕동,313,37.55505939,127.1502473
불광중학교,중학교,서울특별시,은평구,불광동,173,37.62320355,126.9321291
연동중학교,중학교,세종특별자치시,연동면,내판리,96-1,36.55410203,127.3302463
수락중학교,중학교,서울특별시,노원구,상계동,1254,37.68314469,127.0548083
솔올중학교,중학교,강원특별자치도,강릉시,교동,1798,37.77109607,128.879798
반송여자중학교,중학교,부산광역시,해운대구,반송동,622-1,35.23297673,129.1444397
가거도초등학교신안흑산중학교가거도분교장,중학교,전라남도,신안군,흑산면,가거도리 266,34.05255202,125.1302548
순천향림중학교,중학교,전라남도,순천시,석현동,157,34.97263764,127.4857664
어정중학교,중학교,경기도,용인시,기흥구,중동 1103,37.28072654,127.1451478
성남중학교,중학교,경기도,성남시,중원구,성남동 2872,37.43246198,127.1443208
현남중학교,중학교,강원특별자치도,양양군,현남면,광진리 78-1 번지,37.95368906,128.769532
성암여자중학교,중학교,서울특별시,강북구,미아동,320-1,37.62041353,127.0239059
장호원중학교,중학교,경기도,이천시,장호원읍,노탑리 717,37.12648855,127.6170899
동명중학교,중학교,경상북도,칠곡군,동명면,송산리 111,35.98517727,128.549309
전주서신중학교,중학교,전북특별자치도,전주시,완산구,서신동 833,35.82877357,127.1167419
전주서곡중학교,중학교,전북특별자치도,전주시,완산구,효자동3가 1407-4,35.83554893,127.1035986
부산남중학교,중학교,부산광역시,영도구,남항동2가,217-1,35.08830794,129.0399633
화원중학교,중학교,전라남도,해남군,화원면,신덕리 45,34.67092845,126.3229609
대구제일중학교,중학교,대구광역시,중구,봉산동,230-1,35.86152514,128.5970111
광교중학교,중학교,경기도,수원시,영통구,이의동 1207,37.30452503,127.044661
면목중학교,중학교,서울특별시,중랑구,면목동,490,37.58321586,127.0963033
녹산중학교,중학교,부산광역시,강서구,녹산동,136-6,35.11814821,128.8878836
문성중학교,중학교,광주광역시,남구,봉선동,599-1,35.12045939,126.9049884
대전정림중학교,중학교,대전광역시,서구,괴곡동,361-2,36.29385348,127.3609961
삼가중학교,중학교,경상남도,합천군,삼가면,일부리 398,35.41122598,128.1265002
동성중학교,중학교,서울특별시,종로구,혜화동,90-7,37.58496996,127.0030977
동평중학교,중학교,부산광역시,부산진구,부암동,452-17,35.17115019,129.0411405
대전중앙중학교,중학교,대전광역시,중구,중촌동,14-1,36.33842277,127.4147891
석정여자중학교,중학교,강원특별자치도,영월군,영월읍,하송리 318 번지,37.18016344,128.4599183
신동중학교,중학교,경상북도,칠곡군,지천면,신리 산15-9,35.958431,128.483912
고산중학교,중학교,제주특별자치도,제주시,한경면,고산리 3147-4,33.30007758,126.181868
가평중학교,중학교,경기도,가평군,가평읍,대곡리 273,37.82753786,127.5100298
강명중학교,중학교,서울특별시,강동구,강일동,737,37.555404,127.175014
석성중학교,중학교,충청남도,부여군,석성면,증산리 1249-2,36.24923918,126.9977371
창성중학교,중학교,경기도,성남시,수정구,산성동 3,37.46072562,127.1540897
경포중학교,중학교,강원특별자치도,강릉시,노암동,462-1,37.74193219,128.9000107
영남중학교,중학교,서울특별시,영등포구,대림동,735,37.49787218,126.8958365
전북중학교,중학교,전북특별자치도,전주시,덕진구,동산동 685-1,35.87414679,127.0780105
음봉중학교,중학교,충청남도,아산시,음봉면,동암리 716,36.842771,127.0672333
광주중학교,중학교,광주광역시,서구,금호동,821,35.12571323,126.8561139
신현중학교,중학교,경기도,광주시,오포읍,신현리 753-1,37.35779656,127.1510943
연서중학교,중학교,세종특별자치시,연서면,신대리,88,36.58064127,127.2577898
동평중학교,중학교,울산광역시,남구,달동,119-8,35.53405261,129.3248356
계북중학교,중학교,전북특별자치도,장수군,계북면,어전리 841,35.78964391,127.6148355
송양중학교,중학교,경기도,의정부시,낙양동,762,37.75172729,127.104422
다대중학교,중학교,부산광역시,사하구,다대동,945,35.05737649,128.9682545
백운중학교,중학교,서울특별시,도봉구,쌍문동,68-2,37.65640592,127.035904
공항중학교,중학교,서울특별시,강서구,공항동,12-3,37.56217751,126.8149668
마곡하늬중학교,중학교,서울특별시,강서구,마곡동,749,37.558128,126.8209848
서면중학교,중학교,부산광역시,부산진구,부암동,125-3,35.16048734,129.052235
온양중학교,중학교,충청남도,아산시,용화동,276,36.773724,126.9983721
신명중학교,중학교,서울특별시,강동구,길동,42,37.54181449,127.1492919
삼천포여자중학교,중학교,경상남도,사천시,용강동,740,34.94358035,128.0853254
효성중학교,중학교,대구광역시,달서구,월성동,247,35.83430422,128.5284024
상동중학교,중학교,강원특별자치도,영월군,상동읍,천평리 177-1 번지,37.12525841,128.8224544
봉림중학교,중학교,서울특별시,관악구,봉천동,1531-38,37.48119817,126.9377027
우성중학교,중학교,충청남도,공주시,우성면,방흥리 20,36.46327418,127.0544004
이산중학교,중학교,경기도,화성시,오산동,605-2,37.19116497,127.0891727
용수중학교,중학교,부산광역시,북구,화명동,2302,35.23020512,129.008191
주천중학교,중학교,전북특별자치도,진안군,주천면,주양리 75,35.97912612,127.4299875
무안행복중학교,중학교,전라남도,무안군,일로읍,오룡리 88,34.80608664,126.4822915
동평중학교,중학교,대구광역시,북구,구암동,787-4,35.93717488,128.563522
대원국제중학교,중학교,서울특별시,광진구,중곡동,176-124,37.56249279,127.089418
남해여자중학교,중학교,경상남도,남해군,남해읍,서변리 349,34.83610696,127.8887587
장기중학교,중학교,경기도,김포시,장기동,1314,37.647811,126.6648355
정의여자중학교,중학교,서울특별시,도봉구,쌍문동,150-1,37.65335584,127.0324273
율원중학교,중학교,대구광역시,동구,율하동,1623,35.86138631,128.701872
정우중학교,중학교,전북특별자치도,정읍시,정우면,수금리 8-1,35.6461159,126.8830837
삼호중학교,중학교,울산광역시,남구,무거동,1454-1,35.54948487,129.2680619
대전느리울중학교,중학교,대전광역시,서구,관저동,1375,36.29722802,127.3394081
전주용소중학교,중학교,전북특별자치도,전주시,덕진구,송천동1가 842,35.86268677,127.1174748
남원하늘중학교,중학교,전북특별자치도,남원시,하정동,36-4,35.40855263,127.381441
수주중학교,중학교,경기도,부천시,오정구,고강동 277-2,37.5313946,126.8169546
신덕중학교,중학교,부산광역시,북구,만덕동,946,35.203105,129.0305599884
청평중학교,중학교,경기도,가평군,청평면,청평리 744,37.74343941,127.4222115
삽교중학교,중학교,충청남도,예산군,삽교읍,두리 558,36.68661525,126.7495186
태안여자중학교,중학교,충청남도,태안군,태안읍,동문리 350-3,36.75185621,126.306301
중원중학교,중학교,경기도,부천시,원미구,중동 1024-2,37.511937,126.762847
온양여자중학교,중학교,충청남도,아산시,풍기동,214-28,36.776944,127.0143735
갈월중학교,중학교,경기도,포천시,소흘읍,이가팔리 487,37.82400784,127.1532572
논산여자중학교,중학교,충청남도,논산시,취암동,462-5,36.19590257,127.0924237
대월중학교,중학교,경기도,이천시,대월면,초지리 306-3,37.22442055,127.491426
계남중학교,중학교,전북특별자치도,장수군,계남면,화양리 540-4,35.70509628,127.5727227
대전송강중학교,중학교,대전광역시,유성구,송강동,8-1,36.43781613,127.381437
한영중학교,중학교,서울특별시,강동구,상일동,166,37.54914056,127.1577731
연천중학교,중학교,서울특별시,은평구,불광동,441-1,37.62754521,126.9258199
천안성성중학교,중학교,충청남도,천안시,서북구,두정동 1062,36.8376315,127.1350369
전주동중학교,중학교,전북특별자치도,전주시,덕진구,인후동2가 24-1,35.83858477,127.1508852
시흥중학교,중학교,경기도,시흥시,정왕동,1870-4,37.35294946,126.7318635
덕산중학교,중학교,경기도,부천시,오정구,오정동 117-2,37.52891232,126.793608
상도중학교,중학교,경기도,부천시,원미구,상동 418-1,37.49435941,126.7603474
마전중학교,중학교,인천광역시,서구,마전동,1029-1,37.597933,126.665293
용정중학교,중학교,전라남도,보성군,미력면,용정리 186,34.80691435,127.1087337
외산중학교,중학교,충청남도,부여군,외산면,만수리 34-17,36.30026287,126.700252
군산남중학교,중학교,전북특별자치도,군산시,문화동,785-10,35.97350222,126.6982092
장수중학교,중학교,전북특별자치도,장수군,장수읍,장수리 390,35.65352113,127.5207329
오륙도중학교,중학교,부산광역시,남구,용호동,951,35.10404563,129.1151091
서림여자중학교,중학교,충청남도,서천군,서천읍,사곡리 45,36.08312752,126.6993362
부산수영중학교,중학교,부산광역시,수영구,광안동,732,35.15679738,129.1097243
동화중학교,중학교,강원특별자치도,홍천군,영귀미면,속초리 711,37.67971012,127.9380557
경상국립대학교사범대학부설중학교,중학교,경상남도,진주시,가좌동,산182-1,35.1589968,128.0965348
동구여자중학교,중학교,서울특별시,성북구,성북동,168-275,37.594194,127.0082153
군산서흥중학교,중학교,전북특별자치도,군산시,서흥남동,853,35.97158018,126.7090955
임계중학교,중학교,강원특별자치도,정선군,임계면,봉산리 241-2,37.49285585,128.8460294
도당중학교,중학교,경기도,부천시,원미구,도당동 36,37.51804734,126.787367
대창중학교,중학교,경상북도,예천군,예천읍,노상리 1,36.6600499,128.4552453
서석중학교,중학교,강원특별자치도,홍천군,서석면,풍암리 269-1,37.70937582,128.1897158
경산중학교,중학교,경상북도,경산시,계양동,112-3,35.82428626,128.7484647
고촌중학교,중학교,경기도,김포시,고촌읍,신곡리 446-2,37.608539,126.7680642
예산중학교,중학교,충청남도,예산군,예산읍,주교리 350,36.67841854,126.8337459
동래중학교,중학교,부산광역시,동래구,명륜동,686-3,35.21016048,129.0793873
김해중앙여자중학교,중학교,경상남도,김해시,동상동,715-2,35.23260078,128.8886173
계양중학교,중학교,인천광역시,계양구,귤현동,430,37.5689105,126.7382324
상명중학교,중학교,서울특별시,노원구,중계동,515,37.64954781,127.0680416
개군중학교,중학교,경기도,양평군,개군면,부리 453-1,37.42858075,127.5397798
단원중학교,중학교,경기도,안산시,단원구,고잔동 431-4,37.32794999,126.822711
선일중학교,중학교,경기도,안산시,단원구,선부동 799-5,37.33549008,126.8037698
지명중학교,중학교,전라남도,신안군,지도읍,광정리 1271,35.06113938,126.2139863
목포혜인여자중학교,중학교,전라남도,목포시,죽교동,30,34.79998068,126.372628
신남중학교,중학교,서울특별시,양천구,신월동,610-3,37.52077389,126.847893
문산동중학교,중학교,경기도,파주시,문산읍,문산리 95-9,37.85922282,126.7806655
명덕여자중학교,중학교,서울특별시,강서구,내발산동,169-1,37.55394399,126.8342915
한강중학교,중학교,서울특별시,용산구,서빙고동,4-1,37.52361192,126.9927909
탄벌중학교,중학교,경기도,광주시,탄벌동,72-3,37.41306261,127.2438458
종암중학교,중학교,서울특별시,성북구,종암동,32-3,37.593111,127.0319913
창덕여자중학교,중학교,서울특별시,중구,정동,27-3,37.5664328,126.9692102
서산석림중학교,중학교,충청남도,서산시,석림동,557-10,36.77382862,126.4685068
석호중학교,중학교,경기도,안산시,상록구,사동 541-1,37.29968123,126.8522454
무안중학교,중학교,전라남도,무안군,일로읍,월암리 350,34.85500753,126.4940492
정읍중학교,중학교,전북특별자치도,정읍시,시기동,58,35.55381853,126.8637005
월곶중학교,중학교,경기도,시흥시,월곶동,1010-2,37.39264071,126.7379036
서화중학교,중학교,강원특별자치도,인제군,서화면,천도리 619 번지,38.22102397,128.2090807
대저중학교,중학교,부산광역시,강서구,대저2동,2039,35.17758668,128.956294
양화중학교,중학교,서울특별시,영등포구,문래동3가,48,37.5196596,126.8959945
까치울중학교,중학교,경기도,부천시,오정구,여월동 303,37.51533749,126.8013393
주월중학교,중학교,광주광역시,남구,주월동,1112,35.12786826,126.9039873
보절중학교,중학교,전북특별자치도,남원시,덕과면,만도리 70,35.5114906,127.4010593
효천중학교,중학교,광주광역시,남구,행암동,521,35.102046,126.8831279
한가람중학교,중학교,경기도,파주시,와동동,1316,37.73115198,126.7564238
심원중학교,중학교,경기도,부천시,원미구,중동 1097-1,37.49986182,126.7827908
노성중학교,중학교,충청남도,논산시,노성면,교촌리 62,36.27748391,127.1338082
부천부흥중학교,중학교,경기도,부천시,원미구,중동 1074,37.50522138,126.778126
아라중학교,중학교,제주특별자치도,제주시,아라이동,1419,33.48610003,126.5459376
내촌중학교,중학교,강원특별자치도,홍천군,내촌면,도관리 367 번지,37.81885072,128.092521
옥길중학교,중학교,경기도,부천시,소사구,옥길동 740-1,37.4638274,126.8269434
왜관중학교,중학교,경상북도,칠곡군,왜관읍,왜관리 724,35.98533291,128.4045326
진관중학교,중학교,서울특별시,은평구,진관동,16,37.64425564,126.9257277
서령중학교,중학교,충청남도,서산시,동문동,552,36.79247551,126.4582768
득량중학교,중학교,전라남도,보성군,득량면,오봉리 764-1,34.762115,127.1722971
금당중학교,중학교,광주광역시,남구,주월동,536-3,35.13007561,126.8888949
대전둔곡중학교,중학교,대전광역시,유성구,둔곡동,261-4,36.45317499,127.3646394
삼천포제일중학교,중학교,경상남도,사천시,용강동,505-1,34.94879903,128.085664
양덕중학교,중학교,강원특별자치도,홍천군,남면,양덕원리 66 번지,37.60888471,127.7701243
평리중학교,중학교,대구광역시,서구,평리동,1070-7,35.87323246,128.5615509
삼천포중학교,중학교,경상남도,사천시,벌리동,10,34.94270825,128.0848167
하랑중학교,중학교,경기도,남양주시,호평동,125-8,37.65003598,127.2552349
해안중학교,중학교,강원특별자치도,양구군,해안면,143 번지,38.28377125,128.1356864
위례한빛중학교,중학교,경기도,성남시,수정구,창곡동 568,37.46797483,127.1486362
충주대소원중학교,중학교,충청북도,충주시,대소원면,본리 647,36.987973,127.8274338
거창대성중학교,중학교,경상남도,거창군,거창읍,가지리 324,35.69107845,127.9017417
천안불당중학교,중학교,충청남도,천안시,서북구,불당동 830,36.80455543,127.1098957
반송중학교,중학교,부산광역시,해운대구,반송동,418-4,35.23493637,129.1517617
인천운서중학교,중학교,인천광역시,중구,운서동,3083-23,37.49069616,126.5051066
능허대중학교,중학교,인천광역시,연수구,송도동,191-10,37.37353727,126.6578118
과천율목중학교,중학교,경기도,과천시,갈현동,240-2,37.40785863,126.9822609
충북체육중학교,중학교,충청북도,진천군,문백면,도하리 774,36.76308637,127.4347297
세연중학교,중학교,강원특별자치도,태백시,황지동,274-13 번지,37.17829998,128.9898266
한다사중학교,중학교,경상남도,하동군,양보면,장암리 산219-1,35.06967621,127.8301279
고진중학교,중학교,경기도,용인시,처인구,고림동 635-15,37.24776317,127.217432
한국창의예술중학교,중학교,전라남도,광양시,마동,328-6,34.94880756,127.7019096
배곧라라중학교,중학교,경기도,시흥시,배곧동,189,37.3693389,126.7230306
대관령중학교,중학교,강원특별자치도,평창군,대관령면,횡계리 340 번지,37.67337608,128.6990911
양곡중학교,중학교,경상남도,창원시,성산구,신촌동 32,35.19852083,128.6268165
복흥중학교,중학교,전북특별자치도,순창군,복흥면,정산리 686,35.43279512,126.9255003
개양중학교,중학교,경상남도,진주시,가좌동,669,35.160414,128.1097423
남원용성중학교,중학교,전북특별자치도,남원시,도통동,240,35.41996321,127.3924337
박달중학교,중학교,경기도,안양시,만안구,박달동 938,37.39939795,126.8970462
경암중학교,중학교,대구광역시,달서구,성당동,670-29,35.848377,128.5486078
주산중학교,중학교,충청남도,보령시,주산면,금암리 506,36.19860758,126.6363604
부일중학교,중학교,경기도,부천시,소사구,소사본동 406,37.46623463,126.7997359
하탑중학교,중학교,경기도,성남시,분당구,야탑동 520,37.40946211,127.137175
광일중학교,중학교,경기도,광주시,도척면,노곡리 241-2,37.30374165,127.3307934
진경여자중학교,중학교,전북특별자치도,익산시,황등면,동연리 620,36.00127876,126.9327919
강화중학교,중학교,인천광역시,강화군,강화읍,관청리 36,37.75040512,126.4910321
대전외삼중학교,중학교,대전광역시,유성구,반석동,614,36.39414482,127.310146
길안중학교,중학교,경상북도,안동시,길안면,천지리 731-1,36.45903834,128.8946102
삼천포중앙여자중학교,중학교,경상남도,사천시,벌리동,355-1,34.94002572,128.0911538
동두천중학교,중학교,경기도,동두천시,생연동,472-3,37.90471471,127.0592539
서해삼육중학교,중학교,충청남도,홍성군,광천읍,광천리 165,36.50662283,126.6269267
익산부천중학교,중학교,전북특별자치도,익산시,어양동,8-3,35.95342256,126.9901284
수원북중학교,중학교,경기도,수원시,장안구,영화동 22,37.29541111,127.021034
지평선중학교,중학교,전북특별자치도,김제시,성덕면,묘라리 99-1,35.82821233,126.8312524
복대중학교,중학교,충청북도,청주시,흥덕구,복대동 2608,36.63383868,127.4264098
한성중학교,중학교,서울특별시,서대문구,북아현동,170-1,37.55909644,126.9544565
춘성중학교,중학교,강원특별자치도,춘천시,신북읍,율문리 306 번지,37.92742351,127.7496092
화순중학교,중학교,전라남도,화순군,화순읍,대리 97-5,35.05646996,126.9771469
장산중학교,중학교,경상북도,경산시,사정동,59,35.81897414,128.7303219
사내중학교,중학교,강원특별자치도,화천군,사내면,사창리 352-1,38.06471424,127.5191095
비룡중학교,중학교,경기도,안성시,당왕동,536-1,37.01568452,127.2627594
부귀중학교,중학교,전북특별자치도,진안군,부귀면,거석리 475,35.84026603,127.3661615
부산중앙중학교,중학교,부산광역시,기장군,정관읍,방곡리 409,35.32256309,129.1875912
안청중학교,중학교,경기도,안성시,당왕동,10-1,37.02200634,127.274877
매성중학교,중학교,전라남도,나주시,빛가람동,95,35.02863389,126.7917708
서동중학교,중학교,대구광역시,달성군,다사읍,서재리 485,35.86763317,128.4968732
수성중학교,중학교,경기도,수원시,장안구,조원동 672,37.29479929,127.012183
내동중학교,중학교,경기도,부천시,오정구,내동 27,37.51773405,126.7746305
각리중학교,중학교,충청북도,청주시,청원구,오창읍 각리 637-4,36.70898232,127.4223164
철성중학교,중학교,경상남도,고성군,고성읍,기월리 143-1,34.98419221,128.3198032
웅천중학교,중학교,충청남도,보령시,웅천읍,대창리 449-1,36.23446791,126.6041447
인창중학교,중학교,서울특별시,서대문구,충정로2가,70,37.56488513,126.9640232
중화중학교,중학교,서울특별시,중랑구,면목동,83,37.58450379,127.0945608
박문중학교,중학교,인천광역시,연수구,송도동,161-1,37.38565091,126.6723684
세도중학교,중학교,충청남도,부여군,세도면,간대리 402,36.16727567,126.9439111
용성중학교,중학교,경상북도,경산시,용성면,당리리 150-4,35.792593,128.8733966
가평북중학교,중학교,경기도,가평군,북면,이곡리 13-45,37.87934605,127.5481207
산동중학교,중학교,경상북도,구미시,산동면,동곡리 933,36.169039,128.439788
서귀포대신중학교,중학교,제주특별자치도,서귀포시,강정동,136,33.25727167,126.5063965
율면중학교,중학교,경기도,이천시,율면,고당리 545,37.08769127,127.5425144
대영중학교,중학교,서울특별시,영등포구,신길동,342-49,37.50343784,126.905208
옥현중학교,중학교,울산광역시,남구,무거동,476,35.540049,129.2627732
북평중학교,중학교,강원특별자치도,동해시,용정동,470 번지,37.49829667,129.1157835
정화중학교,중학교,대구광역시,수성구,범어동,산105-1,35.84940778,128.6418878
봉일천중학교,중학교,경기도,파주시,조리읍,봉일천리 257,37.74768969,126.8137473
주례중학교,중학교,부산광역시,사상구,주례동,55-33,35.1484767,129.0141706
여수여자중학교,중학교,전라남도,여수시,관문동,100,34.74171416,127.7450481
율곡중학교,중학교,강원특별자치도,강릉시,교동,695,37.77035857,128.888822
금남중학교,중학교,경상남도,하동군,금남면,덕천리 1241,34.98640295,127.8395655
성원중학교,중학교,서울특별시,성동구,성수동2가,333-17,37.53945182,127.0513835
진북고등공민학교,중학교,전북특별자치도,전주시,덕진구,진북동 1144-9,35.831816,127.1310811
성주중학교가천분교장,중학교,경상북도,성주군,가천면,창천리 861,35.88671985,128.1601936
영천여자중학교,중학교,경상북도,영천시,화룡동,178-3,35.967226,128.9224925
연서중학교,중학교,서울특별시,은평구,증산동,193-21,37.587044,126.9092766
대흥중학교,중학교,경상북도,포항시,북구,용흥동 418-9,36.04530538,129.353959
송남중학교,중학교,충청남도,아산시,송악면,역촌리 353-1,36.72154175,127.0043515
대룡중학교,중학교,강원특별자치도,춘천시,퇴계동,1036-1,37.847303,127.7446209
대전탄방중학교,중학교,대전광역시,서구,둔산동,1512,36.35044287,127.394387
매송중학교,중학교,경기도,성남시,분당구,이매동 145,37.396738,127.1233688
이리남중학교,중학교,전북특별자치도,익산시,모현동1가,890,35.946058,126.936942
대전노은중학교,중학교,대전광역시,유성구,노은동,524,36.37004922,127.324236
신어중학교,중학교,경상남도,김해시,삼방동,201,35.24481393,128.9118515
임성중학교,중학교,충청남도,예산군,오가면,역탑리 463-18,36.690006,126.7860128
개웅중학교,중학교,서울특별시,구로구,개봉동,273-15,37.4875269,126.8510711
운암중학교,중학교,광주광역시,북구,운암동,1056,35.18471442,126.873828
경일중학교,중학교,대구광역시,서구,원대동1가,440,35.88139487,128.5763528
초장중학교,중학교,부산광역시,서구,초장동,75-56,35.09477125,129.0182219
무안몽탄중학교,중학교,전라남도,무안군,몽탄면,구산리 58,34.94034434,126.5099323
탕정중학교,중학교,충청남도,아산시,탕정면,명암리 852,36.80257362,127.0638757
봉서중학교,중학교,전북특별자치도,완주군,봉동읍,둔산리 857-2,35.96601954,127.1252764
낙운중학교,중학교,경상북도,상주시,낙동면,상촌리 650,36.37637874,128.2530359
부천여자중학교,중학교,경기도,부천시,소사구,송내동 414,37.48137871,126.7604813
천북중학교,중학교,충청남도,보령시,천북면,하만리 185-27,36.48343927,126.5335437
대전덕명중학교,중학교,대전광역시,유성구,덕명동,606,36.34588695,127.3026899977
세일중학교,중학교,서울특별시,금천구,독산동,147-2,37.47459441,126.8953689
석적중학교,중학교,경상북도,칠곡군,석적읍,남율리 1190,36.06409306,128.4056548
회현중학교,중학교,전북특별자치도,군산시,회현면,대정리 102-1,35.91210816,126.7549318
온곡중학교,중학교,서울특별시,노원구,상계동,687,37.66058142,127.0643327
상현중학교,중학교,서울특별시,동작구,상도동,111-52,37.49390836,126.9603433
신도봉중학교,중학교,서울특별시,도봉구,쌍문동,94-1,37.64959473,127.033202
양덕중학교,중학교,경상남도,창원시,마산회원구,합성동 17-5,35.24262116,128.5951783
문성중학교,중학교,경상북도,김천시,지좌동,604-2,36.11844595,128.1468769
효문중학교,중학교,서울특별시,도봉구,쌍문동,468,37.65269871,127.0184005
병영중학교,중학교,전라남도,강진군,병영면,성남리 316,34.71314245,126.8136053
무룡중학교,중학교,울산광역시,중구,약사동,707-7,35.56500671,129.3356399
단성중학교,중학교,충청북도,단양군,단성면,상방리 79-1,36.93515176,128.3225622
양덕여자중학교,중학교,부산광역시,북구,구포동,1,35.2042128,129.0134063
나전중학교,중학교,강원특별자치도,정선군,북평면,나전리 571 번지,37.44126381,128.6645315
우도중학교,중학교,제주특별자치도,제주시,우도면,연평리 1442,33.50514824,126.9554325
서재중학교,중학교,대구광역시,달성군,다사읍,서재리 302,35.873349,128.4995437
덕수중학교,중학교,서울특별시,중구,인현동2가,3,37.56557957,126.9969973
영춘중학교,중학교,충청북도,단양군,영춘면,상리 496-1,37.08374471,128.4844996
여남중학교,중학교,전라남도,여수시,남면,우학리 181,34.51226252,127.7679765
홍성여자중학교,중학교,충청남도,홍성군,홍성읍,소향리 30-1,36.6072488,126.6601233
보성회천중학교,중학교,전라남도,보성군,회천면,율포리 164,34.6770177,127.0852354
배영중학교,중학교,전북특별자치도,정읍시,흑암동,520,35.60126026,126.8116536
염광중학교,중학교,서울특별시,노원구,월계동,820,37.630217,127.0492646
일곡중학교,중학교,광주광역시,북구,일곡동,818-1,35.20969424,126.898401
제주서중학교,중학교,제주특별자치도,제주시,연동,2405,33.49477253,126.480886
경안중학교,중학교,경상북도,안동시,송현동,599-1,36.57641972,128.6813514
유덕중학교,중학교,광주광역시,서구,유촌동,868-3,35.163501,126.8597102
성덕여자중학교,중학교,서울특별시,강동구,천호동,23-3,37.54996367,127.1419039
구일중학교,중학교,서울특별시,구로구,구로동,685-161,37.49530091,126.8737702
진영장등중학교,중학교,경상남도,김해시,진영읍,진영리 1706,35.31261423,128.7307199
평원중학교,중학교,강원특별자치도,원주시,단계동,913번지,37.33867015,127.9361119
합덕중학교,중학교,충청남도,당진시,합덕읍,소소리 51-1,36.8133825,126.7624107
여산중학교,중학교,전북특별자치도,익산시,여산면,두여리 716,36.06683286,127.0806499815
영등포중학교,중학교,서울특별시,동작구,대방동,13-2,37.5080846,126.9331435
대전동산중학교,중학교,대전광역시,중구,문화동,361-1,36.31611842,127.4044919
명호중학교,중학교,부산광역시,강서구,명지동,3235-3,35.08053123,128.898733
신도중학교,중학교,서울특별시,은평구,진관동,208,37.63298366,126.9308787
길음중학교,중학교,서울특별시,성북구,길음동,635-7,37.61409036,127.0174557
동해중학교,중학교,부산광역시,동래구,명륜동,8-25,35.21702368,129.0889348
동원중학교,중학교,서울특별시,중랑구,망우동,85-3,37.603807,127.1094981
지품천중학교,중학교,경상북도,김천시,대덕면,관기리 777,35.91764637,127.9631045
관촌중학교,중학교,전북특별자치도,임실군,관촌면,관촌리 601,35.67849508,127.2697068
경운중학교,중학교,대구광역시,서구,내당동,352-4,35.85972807,128.553556
대산중학교,중학교,경상남도,함안군,대산면,평림리 955,35.34795693,128.4392206
양진중학교,중학교,서울특별시,광진구,광장동,414-1,37.54457517,127.098348
군산동산중학교,중학교,전북특별자치도,군산시,금동,26-83,35.95104691,126.7060781
석문중학교,중학교,충청남도,당진시,석문면,삼봉리 892-4,37.0118307,126.5327815
김천석천중학교,중학교,경상북도,김천시,황금동,36-4,36.11757395,128.122053
대건중학교,중학교,대구광역시,달서구,월성동,247,35.83395004,128.5281133
재송여자중학교,중학교,부산광역시,해운대구,재송동,1157,35.18984281,129.131017
청산중학교,중학교,전라남도,완도군,청산면,도청리 220,34.1818915,126.8638457
이리동중학교,중학교,전북특별자치도,익산시,동산동,1062,35.93247393,126.9694299
운암중학교,중학교,전북특별자치도,임실군,운암면,쌍암리 617-5,35.66390758,127.1564253
가산중학교,중학교,서울특별시,금천구,독산동,300-21,37.46877706,126.8944749
구산중학교구남분교장,중학교,경상남도,창원시,마산합포구,구산면 반동리 383,35.08695811,128.5870692
포항포은중학교,중학교,경상북도,포항시,남구,오천읍 원리 982,35.965596,129.4046146
동아여자중학교,중학교,광주광역시,남구,봉선동,11,35.12584749,126.9220699
서현중학교,중학교,충청북도,청주시,흥덕구,가경동 2066,36.61989101,127.4313028
월배중학교,중학교,대구광역시,달서구,진천동,811,35.81361315,128.532188
자양중학교,중학교,서울특별시,광진구,자양동,524-10,37.53539805,127.074384
진천중학교,중학교,충청북도,진천군,진천읍,성석리 462,36.86732592,127.446551
원봉중학교,중학교,충청북도,청주시,상당구,용암동 2100,36.61418134,127.5055537
강진대구중학교,중학교,전라남도,강진군,대구면,수동리 649-1,34.49283075,126.8000594
행당중학교,중학교,서울특별시,성동구,행당동,66-3,37.55455404,127.0419634
칠보중학교,중학교,경기도,수원시,권선구,금곡동 1093,37.27362167,126.9444852
동학중학교,중학교,경기도,화성시,반월동,184-8,37.23298711,127.0581592
오현중학교,중학교,제주특별자치도,제주시,화북일동,4675,33.51780188,126.556469
방산중학교,중학교,강원특별자치도,양구군,방산면,금악리 220-8,38.20502185,127.9380739
장흥관산중학교,중학교,전라남도,장흥군,관산읍,죽교리 199,34.56809506,126.9403839
전주양현중학교,중학교,전북특별자치도,전주시,덕진구,만성동 1357-1,35.847761,127.0749816
샘고을중학교,중학교,전북특별자치도,정읍시,장명동,209-1,35.5680704,126.8563949
금당중학교,중학교,전라남도,완도군,금당면,육산리 201,34.44149306,127.0603093
홍천여자중학교,중학교,강원특별자치도,홍천군,홍천읍,갈마곡리 28-1,37.69747802,127.905088
신언중학교,중학교,울산광역시,울주군,언양읍,서부리 386-65,35.56747899,129.1137675
대전송촌중학교,중학교,대전광역시,대덕구,송촌동,495-10,36.36405796,127.4434344
장산중학교,중학교,부산광역시,해운대구,반여동,1411-8,35.198782,129.1177118
노화중학교,중학교,전라남도,완도군,노화읍,이포리 345,34.18404317,126.5729982
광양진월중학교,중학교,전라남도,광양시,진월면,선소리 752,34.9851208,127.7499349
연제중학교,중학교,부산광역시,연제구,연산동,1777-10,35.1792871,129.0897786
영성중학교,중학교,경기도,성남시,중원구,하대원동 150,37.42721098,127.147292
서울체육중학교,중학교,서울특별시,송파구,방이동,88-14,37.52233038,127.1298226
경일중학교,중학교,부산광역시,강서구,명지동,3408,35.09406962,128.9162897
성서중학교,중학교,경기도,용인시,수지구,성복동 769,37.31498196,127.0640834
동강중학교,중학교,전라남도,고흥군,동강면,유둔리 64-3,34.77202639,127.3363619
호저중학교,중학교,강원특별자치도,원주시,호저면,주산리 645 번지,37.41811388,127.9219136
달성중학교,중학교,대구광역시,달성군,화원읍,명곡리 261,35.80080717,128.4933042
농소중학교,중학교,울산광역시,북구,호계동,726,35.62568723,129.355343
갈산중학교,중학교,충청남도,홍성군,갈산면,상촌리 319,36.60486517,126.547814
영동중학교,중학교,충청북도,영동군,영동읍,계산리 78,36.16994986,127.7876056
김해여자중학교,중학교,경상남도,김해시,대성동,140,35.24019103,128.8777008
탐라중학교,중학교,제주특별자치도,제주시,아라이동,3006,33.4920277,126.5450897
원주대성중학교,중학교,강원특별자치도,원주시,무실동,산 123-1 번지,37.32730971,127.9208655
경혜여자중학교,중학교,대구광역시,남구,대명동,3056-26,35.84318216,128.5641032
부천중학교,중학교,경기도,부천시,원미구,중동 777,37.49042809,126.7688648
양산여자중학교,중학교,경상남도,양산시,교동,206,35.34527202,129.0241365
전주풍남중학교,중학교,전북특별자치도,전주시,완산구,효자동1가 504-5,35.79980046,127.1152469
광남중학교,중학교,서울특별시,광진구,광장동,554-15,37.54083041,127.101621
유성중학교,중학교,대전광역시,유성구,상대동,457,36.34589364,127.3347496
배화여자중학교,중학교,서울특별시,종로구,누상동,150,37.57954401,126.9672919
향남중학교,중학교,경기도,화성시,향남읍,행정리 481,37.12873445,126.927754
전주근영중학교,중학교,전북특별자치도,전주시,완산구,중화산동2가 247,35.82030227,127.1246416
함안중학교,중학교,경상남도,함안군,가야읍,도항리 163-3,35.282922,128.4042846
순천금당중학교,중학교,전라남도,순천시,해룡면,상삼리 695,34.94417403,127.531538
부남중학교,중학교,전북특별자치도,무주군,부남면,대소리 510,35.97290779,127.5597534
신정중학교,중학교,부산광역시,기장군,정관읍,용수리 1363,35.32908463,129.1688999905
한양중학교,중학교,서울특별시,중구,신당동,224-2,37.5658716,127.0114433
창문여자중학교,중학교,서울특별시,강북구,미아동,8-16,37.6134057,127.0357962
산양중학교,중학교,경상남도,통영시,산양읍,남평리 862-1,34.80205332,128.3920215
구림중학교,중학교,전북특별자치도,순창군,구림면,운남리 233,35.45297226,127.100401
석관중학교,중학교,서울특별시,성북구,석관동,88-2,37.60814014,127.0667131
서창중학교,중학교,경상남도,양산시,삼호동,158-1,35.41270108,129.1782555
진안중학교,중학교,경기도,화성시,진안동,857-1,37.2165232,127.0378176
세광중학교,중학교,충청북도,청주시,서원구,미평동 349,36.60287611,127.4547348
하양여자중학교,중학교,경상북도,경산시,하양읍,대학리 100,35.92967651,128.826076
동향중학교,중학교,전북특별자치도,진안군,동향면,대량리 188,35.83550868,127.5723506
진해남중학교,중학교,경상남도,창원시,진해구,경화동 781-22,35.161618,128.6893971
시곡중학교,중학교,경기도,안산시,상록구,사동 1342-1,37.29276441,126.856039
건국중학교,중학교,부산광역시,사하구,하단동,산41,35.10952808,128.9696164
철원여자중학교,중학교,강원특별자치도,철원군,동송읍,이평리 862 번지,38.20530981,127.210088
청주여자중학교,중학교,충청북도,청주시,서원구,사직동 6-3,36.63468533,127.4805441
화봉중학교,중학교,울산광역시,북구,화봉동,677-1,35.58935749,129.3608359
옥구중학교,중학교,전북특별자치도,군산시,대야면,지경리 877-10,35.94316674,126.8050803
장계중학교,중학교,전북특별자치도,장수군,장계면,장계리 301,35.73247313,127.5826999
삼현여자중학교,중학교,경상남도,진주시,상평동,218-1,35.17765098,128.1107371
부명중학교,중학교,경기도,부천시,원미구,중동 1176,37.49795306,126.7641504
소양중학교,중학교,강원특별자치도,춘천시,사농동,82 번지,37.90575943,127.726089
부곡중앙중학교,중학교,경기도,군포시,부곡동,1095,37.32360247,126.9383429
돌산중앙중학교,중학교,전라남도,여수시,돌산읍,둔전리 607,34.65320725,127.7704784
브니엘예술중학교,중학교,부산광역시,금정구,구서동,50-1,35.25485306,129.1039264
육민관중학교,중학교,강원특별자치도,원주시,흥업면,흥업리 751번지,37.30936357,127.9184855
광주광남중학교,중학교,경기도,광주시,태전동,131-6,37.38042776,127.236244
부강중학교,중학교,세종특별자치시,부강면,부강리,500,36.52631715,127.3648142
목포홍일중학교,중학교,전라남도,목포시,죽교동,580-6,34.80223621,126.3755128
신림중학교,중학교,전북특별자치도,고창군,신림면,무림리 61-1,35.48793032,126.7175946
안골포중학교,중학교,경상남도,창원시,진해구,청안동 476,35.10252543,128.8051432
함평손불중학교,중학교,전라남도,함평군,손불면,대전리 636,35.14418792,126.4281757
영천중학교,중학교,경상북도,영천시,창구동,산1-3,35.97489339,128.928862
아산중학교,중학교,전북특별자치도,고창군,아산면,하갑리 370,35.43874982,126.6320729
해제중학교,중학교,전라남도,무안군,해제면,양매리 888-6,35.11538542,126.2984775
사동중학교,중학교,경상북도,경산시,사동,660,35.81400185,128.7590562
순천풍덕중학교,중학교,전라남도,순천시,풍덕동,323-5,34.93819689,127.5072413
고려중학교,중학교,광주광역시,북구,삼각동,666,35.19253901,126.8982854
광주동성여자중학교,중학교,광주광역시,남구,진월동,406,35.11548253,126.8935344
신니중학교,중학교,충청북도,충주시,신니면,신청리 산16-1,37.002505,127.7406411
시흥은행중학교,중학교,경기도,시흥시,은행동,544,37.44288989,126.802227
원주중학교,중학교,강원특별자치도,원주시,단구동,460 번지,37.33758424,127.9591067
삼남중학교,중학교,전북특별자치도,부안군,부안읍,선은리 135,35.72920143,126.7422519
주례여자중학교,중학교,부산광역시,사상구,주례동,95,35.14894787,129.0073779
대전삼육중학교,중학교,대전광역시,서구,도마동,163-11,36.31184344,127.3724191
자인중학교,중학교,경상북도,경산시,자인면,북사리 242,35.81989055,128.8217723
덕암중학교,중학교,전북특별자치도,김제시,서암동,1,35.81309241,126.8870829
삼남중학교,중학교,울산광역시,울주군,삼남면,가천리 664-35,35.52411841,129.0968091
남춘천중학교,중학교,강원특별자치도,춘천시,온의동,남춘천중학교,37.86053611,127.7210884
연무중학교,중학교,충청남도,논산시,연무읍,안심리 30-1,36.1312247,127.0969895
신광여자중학교,중학교,서울특별시,용산구,청파동3가,100,37.54289988,126.9694475
매탄중학교,중학교,경기도,수원시,영통구,매탄동 1353,37.26073463,127.039259
옥포성지중학교,중학교,경상남도,거제시,옥포동,242,34.88726316,128.6905058
남목중학교,중학교,울산광역시,동구,서부동,568,35.53883553,129.4232406
서귀중앙여자중학교,중학교,제주특별자치도,서귀포시,동홍동,1488-1,33.25564731,126.5618758
함열중학교,중학교,전북특별자치도,익산시,함열읍,와리 530-65,36.0827198,126.9597687
안화중학교,중학교,경기도,화성시,병점동,853,37.21111875,127.0485705
한서중학교,중학교,강원특별자치도,홍천군,서면,모곡리 897-1,37.68747653,127.5942168
영신중학교,중학교,경기도,수원시,권선구,오목천동 537-1,37.24190913,126.9669823
용문중학교,중학교,서울특별시,성북구,안암동2가,96-1,37.58869033,127.0246608
금광중학교,중학교,경기도,성남시,중원구,금광동 2414,37.44660311,127.1716429
덕원중학교,중학교,대구광역시,수성구,욱수동,81,35.82572222,128.705953
방어진중학교,중학교,울산광역시,동구,화정동,207,35.50469476,129.4180856
가람중학교,중학교,부산광역시,북구,구포동,1020-1,35.20431722,128.9988799
개원중학교,중학교,서울특별시,강남구,개포동,184,37.49163975,127.0714157
순창북중학교,중학교,전북특별자치도,순창군,순창읍,순화리 78,35.3790983,127.1389666
엄궁중학교,중학교,부산광역시,사상구,엄궁동,2,35.1348927,128.9748587
전주효정중학교,중학교,전북특별자치도,전주시,완산구,서완산동1가 227-1,35.8067646,127.1336242
군위중학교우보분교장,중학교,대구광역시,군위군,우보면,이화리 1414-24,36.187536,128.6665367
안서중학교,중학교,경기도,광명시,소하동,883-13,37.4383574,126.8821568
한겨레중학교,중학교,경기도,안성시,죽산면,칠장리 10-1,37.030603,127.4226896
정자중학교,중학교,경기도,성남시,분당구,정자동 123,37.3653198,127.1101466
평동중학교,중학교,광주광역시,광산구,용동,185,35.12903067,126.7534195
여선중학교,중학교,전라남도,여수시,선원동,136,34.76822906,127.6542642
이리중학교,중학교,전북특별자치도,익산시,평화동,169,35.93424298,126.9418576
산서중학교,중학교,전북특별자치도,장수군,산서면,동화리 73,35.58388638,127.3990162
판교중학교,중학교,경기도,성남시,분당구,판교동 633,37.38722313,127.0875578
명인중학교,중학교,경기도,수원시,장안구,정자동 888-1,37.29223274,126.9930863
창녕여자중학교,중학교,경상남도,창녕군,창녕읍,말흘리 51,35.53925262,128.5052665
목포유달중학교,중학교,전라남도,목포시,산정동,10,34.80494028,126.3905327
금명중학교,중학교,부산광역시,북구,금곡동,1893,35.2434222,129.0120576
화산중학교,중학교,전라남도,해남군,화산면,연정리 501-1,34.49546532,126.5091666
서강중학교,중학교,광주광역시,북구,동림동,산153-1,35.17517965,126.8680368
옥계중학교,중학교,강원특별자치도,강릉시,옥계면,천남리 172 번지,37.60274801,129.0331651
북인천여자중학교,중학교,인천광역시,계양구,효성동,551,37.52650954,126.7017954
하단중학교,중학교,부산광역시,사하구,하단동,502-1,35.11106623,128.9599891
야탑중학교,중학교,경기도,성남시,분당구,야탑동 336,37.41612945,127.1312341
양감중학교,중학교,경기도,화성시,양감면,신왕리 475-1,37.08148848,126.951662
장림여자중학교,중학교,부산광역시,사하구,장림동,60,35.07862378,128.9812227
장성중학교,중학교,전라남도,장성군,장성읍,영천리 610-2,35.30839569,126.7926017
부산체육중학교,중학교,부산광역시,영도구,동삼동,525,35.07205496,129.064034
갈마중학교,중학교,대전광역시,서구,갈마동,370-1,36.34848881,127.3648403
선덕중학교,중학교,서울특별시,도봉구,쌍문동,263,37.65634868,127.0268766
성호중학교,중학교,경기도,오산시,원동,607-2,37.13961594,127.0818199
치악중학교,중학교,강원특별자치도,원주시,단계동,481-8,37.35372963,127.9303187
대전월평중학교,중학교,대전광역시,서구,월평동,663,36.3566482,127.3674693
엄사중학교,중학교,충청남도,계룡시,엄사면,엄사리 396-9,36.28815009,127.2299894
봉명중학교,중학교,경상남도,김해시,외동,470,35.22758024,128.8630051
양주백석중학교,중학교,경기도,양주시,백석읍,복지리 162,37.789077,126.990016
쌍치중학교,중학교,전북특별자치도,순창군,쌍치면,쌍계리 576-7,35.49956589,127.0015481
공주여자중학교,중학교,충청남도,공주시,교동,3-2,36.460576,127.1187267
하랑중학교,중학교,강원특별자치도,동해시,발한동,377,37.56048966,129.1022817
입암중학교,중학교,전북특별자치도,정읍시,입암면,단곡리 573-4,35.51610661,126.7945601
아름중학교,중학교,세종특별자치시,아름동,1321,,36.514292,127.245223
고한중학교,중학교,강원특별자치도,정선군,고한읍,80,37.20615372,128.8529158
홍산중학교,중학교,충청남도,부여군,홍산면,북촌리 124-2,36.21510909,126.7666228
지수중학교,중학교,경상남도,진주시,지수면,승산리 511-1,35.22983862,128.2675300198
신성중학교,중학교,경기도,안양시,만안구,안양동 587-68,37.38415457,126.918832
군북중학교,중학교,경상남도,함안군,군북면,덕대리 267,35.26050336,128.3437104
서산명지중학교,중학교,충청남도,서산시,대산읍,대로리 313-20,36.96773724,126.4101982
삼성중학교,중학교,서울특별시,관악구,신림동,220-1,37.4676059,126.9425132
곤지암중학교,중학교,경기도,광주시,곤지암읍,곤지암리 453-12,37.34856308,127.3376092
전주덕진중학교,중학교,전북특별자치도,전주시,덕진구,덕진동2가 234-1,35.84406521,127.1169315
김해대동중학교,중학교,경상남도,김해시,대동면,초정리 13-13,35.23865485,128.9936485
영양여자중학교,중학교,경상북도,영양군,영양읍,동부리 5,36.66188808,129.1297626
수진중학교,중학교,경기도,성남시,수정구,수진동 4674,37.43711701,127.1236376
구룡포중학교,중학교,경상북도,포항시,남구,구룡포읍 구룡포리 199-30,35.99179076,129.5659125
진주동중학교,중학교,경상남도,진주시,금산면,중천리 281-3,35.21676532,128.1426495
사송중학교,중학교,경상남도,양산시,동면,내송리 885,35.31997636,129.0696455
한재중학교,중학교,전라남도,담양군,대전면,대치리 891-2,35.27502333,126.8905002
달서중학교,중학교,대구광역시,달성군,하빈면,감문리 816,35.8861993,128.4214028
약목중학교,중학교,경상북도,칠곡군,약목면,복성리 777,36.03537499,128.3604432
양지중학교,중학교,경기도,안산시,단원구,고잔동 781-2,37.30478573,126.8337383
천곡중학교,중학교,광주광역시,광산구,월계동,776-10,35.21195873,126.8348752
삼각산중학교,중학교,서울특별시,강북구,미아동,1357-11,37.61614897,127.0145684
금산동중학교,중학교,충청남도,금산군,금산읍,아인리 134-2,36.10629597,127.4810847
백양중학교,중학교,부산광역시,북구,만덕동,878,35.20712747,129.0405619
신기중학교,중학교,대구광역시,동구,신기동,578,35.86816727,128.7023577
지정중학교,중학교,경상남도,의령군,지정면,마산리 650-2,35.36486068,128.414972
상당중학교,중학교,부산광역시,해운대구,좌동,1406,35.17893373,129.1761373
도곡중학교,중학교,서울특별시,강남구,도곡동,541-2,37.49230771,127.0452179
숭문중학교,중학교,서울특별시,마포구,대흥동,28-16,37.55089081,126.9457689
강신중학교,중학교,서울특별시,양천구,신월동,1010,37.51513716,126.8381601
의신중학교,중학교,전라남도,진도군,의신면,돈지리 660-2,34.44017722,126.2798028
정산중학교,중학교,충청남도,청양군,정산면,역촌리 555-10,36.41261092,126.9561688
교동중학교,중학교,인천광역시,강화군,교동면,대룡리 723-7,37.77846268,126.2843169
문시중학교,중학교,경기도,오산시,금암동,519,37.17443429,127.0471779
삼정중학교,중학교,경상남도,김해시,삼정동,636,35.23393351,128.9014451
포두중학교,중학교,전라남도,고흥군,포두면,길두리 1036,34.56639673,127.3403298
상무중학교,중학교,광주광역시,서구,쌍촌동,471,35.14492058,126.8579816
양정중학교,중학교,서울특별시,양천구,목동,911-2,37.535384,126.8877343
문산중학교,중학교,경상남도,진주시,충무공동,273-1,35.176983,128.1524800094
신성여자중학교,중학교,제주특별자치도,제주시,영평동,2377-1,33.47704923,126.5631856
성신여자중학교,중학교,경상북도,상주시,계산동,330-1,36.42809793,128.1635092
진상중학교,중학교,전라남도,광양시,진상면,섬거리 557-38,35.01702381,127.7165243
완도보길중학교,중학교,전라남도,완도군,보길면,부황리 11-3,34.16802251,126.5635684
공주영명중학교,중학교,충청남도,공주시,중동,308,36.4519602,127.1278725
세마중학교,중학교,경기도,오산시,세교동,625,37.18105837,127.042247
익산중학교,중학교,전북특별자치도,익산시,금마면,동고도리 565,35.99491837,127.055479
대연중학교,중학교,부산광역시,남구,대연동,1219-80,35.13195379,129.0850542
강경여자중학교,중학교,충청남도,논산시,강경읍,남교리 48-1,36.16054218,127.0212997
안산해양중학교,중학교,경기도,안산시,상록구,사동 1512-3,37.29530464,126.8211678
은계중학교,중학교,경기도,시흥시,대야동,642-244,37.447197,126.8001873
영양중학교,중학교,경상북도,영양군,영양읍,서부리 540,36.66077434,129.1108216
마산동중학교,중학교,경상남도,창원시,마산회원구,회원동 376-1,35.22110594,128.5681332
광주숭일중학교,중학교,광주광역시,북구,일곡동,46-24,35.21781348,126.8969064
신태인중학교,중학교,전북특별자치도,정읍시,신태인읍,신태인리 9,35.69198097,126.8937261
대청중학교,중학교,경상남도,김해시,대청동,319-2,35.18858742,128.8025437
만덕중학교,중학교,부산광역시,북구,만덕동,646-18,35.21489917,129.0316913
대촌중학교,중학교,광주광역시,남구,지석동,268-2,35.08507851,126.8321505
언양중학교,중학교,울산광역시,울주군,언양읍,동부리 15-1,35.57274968,129.1276791
보성중학교,중학교,서울특별시,송파구,방이동,89-22,37.52008989,127.1357293
왕선중학교,중학교,대구광역시,달성군,다사읍,매곡리 1541,35.8633285,128.4663062
번암중학교,중학교,전북특별자치도,장수군,번암면,노단리 491,35.53566532,127.5482984
서산여자중학교,중학교,충청남도,서산시,석림동,420,36.76881764,126.4668512
경성중학교,중학교,서울특별시,마포구,연남동,369-1,37.56351064,126.9191663
북서울중학교,중학교,서울특별시,도봉구,도봉동,585,37.68154186,127.0428342
임피중학교,중학교,전북특별자치도,군산시,서수면,서수리 1085-1,35.98422417,126.8698947
울산스포츠과학중학교,중학교,울산광역시,북구,산하동,799-1,35.62375059,129.4313014
오룡중학교,중학교,전라남도,무안군,삼향읍,남악리 2535,34.80782842,126.4752255
양서중학교,중학교,서울특별시,양천구,신월동,169-4,37.53262929,126.8291351
수성중학교,중학교,대구광역시,수성구,파동,2,35.82587108,128.6072057
순천삼산중학교,중학교,전라남도,순천시,해룡면,신대리 1995,34.933829,127.5557272
삼평중학교,중학교,경기도,성남시,분당구,삼평동 727,37.400607,127.1157402
대전대성중학교,중학교,대전광역시,중구,목동,95-1,36.331971,127.4070779
외솔중학교,중학교,울산광역시,중구,서동,622,35.58435465,129.3431813
영암낭주중학교,중학교,전라남도,영암군,학산면,독천리 151,34.72700558,126.5662539
영종중학교,중학교,인천광역시,중구,운남동,1655-12,37.48351207,126.5252529
동해중학교,중학교,경상남도,고성군,동해면,양촌리 814,35.04641801,128.4474265
홍천중학교,중학교,강원특별자치도,홍천군,홍천읍,희망리 20-6 번지,37.69793823,127.8907053
함태중학교,중학교,강원특별자치도,태백시,황지동,166-2번지,37.14594878,128.9865614
서일중학교,중학교,충청남도,서산시,지곡면,화천리 908,36.85930055,126.4324993
상봉중학교,중학교,서울특별시,중랑구,상봉동,282,37.60152799,127.0901246
양청중학교,중학교,충청북도,청주시,청원구,오창읍 양청리 704,36.72014588,127.424052
천호중학교,중학교,서울특별시,강동구,천호동,38-1,37.54651926,127.139698
제주여자중학교,중학교,제주특별자치도,제주시,아라일동,2360,33.4833337,126.5397621
삼선중학교,중학교,서울특별시,성북구,동소문동4가,278-174,37.59174763,127.0078716
충암중학교,중학교,서울특별시,은평구,응암동,272-113,37.58464029,126.9218095
강서중학교,중학교,인천광역시,강화군,하점면,이강리 389,37.77311093,126.3881076
신월중학교,중학교,경상남도,창원시,의창구,신월동 33,35.22860169,128.6935418
미금중학교,중학교,경기도,남양주시,다산동,3526,37.61497744,127.1593169
계룡중학교,중학교,경상남도,거제시,고현동,293-3,34.88492349,128.6283693
순천주암중학교,중학교,전라남도,순천시,주암면,창촌리 663,35.06307271,127.2732628
율량중학교,중학교,충청북도,청주시,청원구,주중동 581-6,36.67563376,127.486176
한산중학교,중학교,경상남도,통영시,한산면,하소리 36-2,34.768266,128.5076295
상서중학교,중학교,전북특별자치도,부안군,상서면,용서리 117,35.68741026,126.6765207
원동중학교,중학교,경상남도,양산시,원동면,원리 577,35.37604466,128.9216574
대전갑천중학교,중학교,대전광역시,서구,월평동,306,36.36194589,127.369162
대서중학교,중학교,대구광역시,달서구,송현동,898-15,35.82360753,128.5435493
목포정명여자중학교,중학교,전라남도,목포시,양동,86-1,34.79640482,126.3831138
운리중학교,중학교,광주광역시,서구,풍암동,897,35.121707,126.8626226
약산중학교,중학교,전라남도,완도군,약산면,장용리 850,34.39213844,126.8996588
삼성현중학교,중학교,경상북도,경산시,백천동,591-2,35.801141,128.7401211
옥동중학교,중학교,울산광역시,남구,옥동,648-1,35.5383655,129.2840699
분당중학교,중학교,경기도,성남시,분당구,정자동 153,37.36090634,127.1110695
석포여자중학교,중학교,부산광역시,남구,용당동,596-1,35.12211493,129.0940301
군산금강중학교,중학교,전북특별자치도,군산시,미룡동,899,35.940976,126.6882519
낙동중학교,중학교,부산광역시,강서구,대저1동,1491-7,35.21643385,128.9662764
숭실중학교,중학교,서울특별시,은평구,신사동,300-88,37.59327482,126.9024039
이리북중학교,중학교,전북특별자치도,익산시,신동,427-1,35.96370252,126.9514716
원광중학교,중학교,전북특별자치도,익산시,부송동,122-5,35.97389316,127.0013592
기계중학교기북분교장,중학교,경상북도,포항시,북구,기북면 용기리 74,36.13131831,129.1671005
신동중학교,중학교,서울특별시,서초구,잠원동,54-6,37.5169159,127.0129154
불암중학교,중학교,서울특별시,노원구,하계동,288-3,37.64573547,127.0734572
안락중학교,중학교,부산광역시,동래구,안락동,177-3,35.19163803,129.1092578
상촌중학교,중학교,경기도,수원시,권선구,금곡동 1057,37.27623606,126.935309
동국대학교사범대학부속여자중학교,중학교,서울특별시,광진구,구의동,238-1,37.54192936,127.0869731
전주평화중학교,중학교,전북특별자치도,전주시,완산구,평화동2가 911-2,35.78337483,127.1340232
고실중학교,중학교,광주광역시,광산구,장덕동,1310,35.19295174,126.8129875
순천승평중학교,중학교,전라남도,순천시,해룡면,신대리 1967,34.93819484,127.5452926
김해모산중학교,중학교,경상남도,김해시,장유동,872,35.16598838,128.8300547
신상중학교,중학교,서울특별시,노원구,상계동,754-4,37.65190308,127.0639869
상경중학교,중학교,서울특별시,노원구,상계동,653,37.66714877,127.0537053
능동중학교,중학교,경기도,화성시,능동,1082,37.21224018,127.0614267
대산중학교,중학교,충청남도,서산시,대산읍,대산리 150-93,36.93326619,126.4404028
후평중학교,중학교,강원특별자치도,춘천시,후평동,486-5 번지,37.87595864,127.7488513
청담중학교,중학교,서울특별시,강남구,청담동,143,37.52865979,127.0448101
매호중학교,중학교,대구광역시,수성구,매호동,1332,35.84396065,128.7022897
구미여자중학교,중학교,경상북도,구미시,원평동,404,36.12523333,128.3269776
대광중학교,중학교,서울특별시,동대문구,신설동,53-3,37.57795467,127.0253235
곡선중학교,중학교,경기도,수원시,권선구,권선동 1063,37.25452378,127.0234711
경서중학교,중학교,서울특별시,강서구,가양동,1483,37.56124186,126.857764
감곡중학교,중학교,충청북도,음성군,감곡면,오향리 890-3,37.1114206,127.641395
부산진여자중학교,중학교,부산광역시,부산진구,전포동,342-25,35.15445462,129.0694206
북후중학교,중학교,경상북도,안동시,북후면,장기리 816,36.68092819,128.6989439
장덕중학교,중학교,광주광역시,광산구,장덕동,1494,35.186225,126.811149
광주북성중학교,중학교,광주광역시,북구,유동,81-1,35.15968492,126.9032356
수일여자중학교,중학교,경기도,수원시,장안구,조원동 198-1,37.30810329,127.0076654
위미중학교,중학교,제주특별자치도,서귀포시,남원읍,위미리 2065-1,33.28049717,126.6635449
당진중학교대호지분교장,중학교,충청남도,당진시,대호지면,조금리 27-5,36.89952977,126.5092123
담양금성중학교,중학교,전라남도,담양군,금성면,석현리 51,35.340526,127.0211102
구림중학교,중학교,전라남도,영암군,군서면,동구림리 414-1,34.76013402,126.6259299
두루중학교,중학교,세종특별자치시,고운동,1385,,36.51807167,127.2386496
청람중학교,중학교,전라남도,강진군,군동면,라천리 161,34.649205,126.820322
감문중학교,중학교,경상북도,김천시,감문면,삼성리 676,36.21758894,128.1861782
한밭여자중학교,중학교,대전광역시,동구,대동,28,36.32892323,127.4485993
만월중학교,중학교,인천광역시,남동구,서창동,658,37.42646913,126.7521838
백산중학교,중학교,전북특별자치도,부안군,백산면,오곡리 547-5,35.70808449,126.7910026
숭인중학교,중학교,서울특별시,동대문구,답십리동,463-1,37.57392046,127.044089
서일중학교,중학교,서울특별시,서초구,서초동,1313,37.49852986,127.0232207
산내중학교,중학교,전북특별자치도,남원시,산내면,대정리 601,35.42289088,127.6274529
광주서석중학교,중학교,광주광역시,서구,화정동,525,35.14925067,126.881315
서야중학교,중학교,충청남도,당진시,합덕읍,합덕리 262-1,36.79091841,126.7874361
대전구봉중학교,중학교,대전광역시,서구,관저동,1132,36.30041393,127.3301539
경덕중학교,중학교,충청북도,청주시,흥덕구,가경동 1500,36.61943157,127.4360439
광산중학교,중학교,광주광역시,광산구,우산동,1569-2,35.15922599,126.808605
원천중학교,중학교,경기도,수원시,영통구,원천동 78-7,37.27640244,127.0490259
천생중학교,중학교,경상북도,구미시,구평동,474-2,36.09007828,128.4377035
당산중학교,중학교,서울특별시,영등포구,당산동,121,37.53203308,126.907614
대전서중학교,중학교,대전광역시,서구,괴정동,266-4,36.3364274,127.374561
산외중학교,중학교,전북특별자치도,정읍시,산외면,정량리 1175-1,35.61870768,127.0448971
오상중학교,중학교,경상북도,구미시,장천면,상장리 700,36.12502535,128.4961942
매화중학교,중학교,경상북도,울진군,매화면,매화리 1141,36.91225713,129.3811157
수명중학교,중학교,서울특별시,강서구,내발산동,757,37.54856699,126.8240596
중계중학교,중학교,서울특별시,노원구,중계동,358-3,37.65563822,127.0752409
현북중학교,중학교,강원특별자치도,양양군,현북면,상광정리 556-2 번지,38.01470005,128.6939467
마성중학교,중학교,경상북도,문경시,마성면,외어리 400,36.69529959,128.133819
신정여자중학교,중학교,서울특별시,강서구,화곡동,477-1,37.53838143,126.8570622
광양백운중학교,중학교,전라남도,광양시,중동,1674-8,34.93473703,127.6946462
두일중학교,중학교,경기도,파주시,동패동,1744,37.71998297,126.712557
전주온빛중학교,중학교,전북특별자치도,전주시,덕진구,장동 1070,35.84350884,127.058398
웅상여자중학교,중학교,경상남도,양산시,평산동,281-1,35.37547538,129.1448484
장곡중학교,중학교,경기도,시흥시,장곡동,826,37.379873,126.7876166
신기중학교,중학교,경기도,안양시,동안구,호계동 1075-1,37.37908069,126.9588302
번동중학교,중학교,서울특별시,강북구,번동,231,37.63244533,127.0362077
선유도중학교,중학교,전북특별자치도,군산시,옥도면,선유도리 234,35.811858,126.4124056
신양중학교,중학교,충청남도,예산군,신양면,신양리 318-5,36.603915,126.8709326
신포중학교,중학교,강원특별자치도,춘천시,사북면,신포리 322 번지,38.025546,127.6424296
구남중학교,중학교,부산광역시,북구,구포동,894,35.19595722,128.9978621
고천중학교,중학교,경기도,의왕시,오전동,413,37.35235722,126.9829824
성덕중학교,중학교,광주광역시,광산구,장덕동,1119,35.19561959,126.8164213
호계중학교,중학교,경상남도,창원시,마산회원구,내서읍 호계리 645,35.26685106,128.5139257
진례중학교,중학교,경상남도,김해시,진례면,초전리 243,35.24908424,128.7561667
넙도초등학교노화중학교넙도분교장,중학교,전라남도,완도군,노화읍,내리 488-1,34.18846082,126.5042111
대륜중학교,중학교,대구광역시,수성구,만촌동,산241,35.85168394,128.6567622
김천여자중학교,중학교,경상북도,김천시,성내동,51,36.12577398,128.1191369
정광중학교,중학교,광주광역시,광산구,소촌동,815,35.15514287,126.7960286
강화여자중학교,중학교,인천광역시,강화군,강화읍,갑곳리 1089-8,37.74429631,126.4950253
삼척중학교,중학교,강원특별자치도,삼척시,자원동,회강길 66,37.438993,129.1436447
연현중학교,중학교,경기도,안양시,만안구,석수동 442-5,37.42938399,126.899507
구이중학교,중학교,전북특별자치도,완주군,구이면,원기리 543-4,35.734126,127.1183738
낭주중학교,중학교,전북특별자치도,부안군,부안읍,봉덕리 658-2,35.713802,126.7346339
신백중학교,중학교,경기도,화성시,남양읍,남양리 2057,37.20343745,126.8302503
지산중학교,중학교,대구광역시,수성구,지산동,1256-1,35.82463972,128.6285993
옥곡중학교,중학교,전라남도,광양시,옥곡면,묵백리 74-1,34.99549987,127.7009386
지정중학교,중학교,강원특별자치도,원주시,지정면,간현리 795-1 번지,37.36618378,127.8389446
광주동신여자중학교,중학교,광주광역시,북구,풍향동,475,35.16943786,126.9223461
남원중학교,중학교,전북특별자치도,남원시,향교동,640,35.42133278,127.3794518
군산월명중학교,중학교,전북특별자치도,군산시,소룡동,1526,35.97516852,126.6797151
감곡중학교,중학교,전북특별자치도,정읍시,감곡면,방교리 488,35.7183138,126.9235695
중랑중학교,중학교,서울특별시,중랑구,중화동,276-1,37.60535089,127.0807928
연암중학교,중학교,울산광역시,북구,연암동,1128,35.58514247,129.360901
충덕중학교,중학교,전라남도,여수시,덕충동,429,34.75489021,127.7464736
심원중학교,중학교,전북특별자치도,고창군,심원면,연화리 664-9,35.52028349,126.5485883
오름중학교,중학교,제주특별자치도,제주시,도련일동,1891,33.51667441,126.5844702
당정중학교,중학교,경기도,군포시,당정동,566,37.34871302,126.9588427
관양중학교,중학교,경기도,안양시,동안구,관양동 1407-2,37.40568279,126.9605487
방화중학교,중학교,서울특별시,강서구,방화동,636-1,37.56433471,126.8071069
대전새미래중학교,중학교,대전광역시,유성구,지족동,1045,36.37923467,127.3051005
성재중학교,중학교,서울특별시,강서구,가양동,1463,37.56944938,126.8452953
선화여자중학교,중학교,부산광역시,동구,초량동,827-6,35.1210635,129.0329123
하동중학교,중학교,경상남도,하동군,하동읍,광평리 220-4,35.062148,127.7479205
연북중학교,중학교,서울특별시,서대문구,연희동,141,37.577581,126.9384801
남춘천여자중학교,중학교,강원특별자치도,춘천시,온의동,321-2번지,37.8589848,127.720999
성남여자중학교,중학교,경기도,성남시,수정구,신흥동 47-1,37.45023391,127.1427174
전주곤지중학교,중학교,전북특별자치도,전주시,완산구,동완산동 395,35.81056438,127.143278
원당중학교,중학교,충청남도,당진시,원당동,1224,36.90004426,126.6407478
부산동중학교,중학교,부산광역시,부산진구,전포동,449-8,35.15326954,129.0712527
내면중학교,중학교,강원특별자치도,홍천군,내면,창촌리 1655-3,37.766466,128.3877386
이화중학교,중학교,울산광역시,북구,중산동,803,35.65832707,129.3391358
월봉중학교,중학교,광주광역시,광산구,산월동,884-3,35.20943732,126.8489785
율현중학교,중학교,경기도,수원시,팔달구,화서동 729,37.28612119,126.9826535
휘경중학교,중학교,서울특별시,동대문구,휘경동,286-66,37.58709299,127.0617461
성화중학교,중학교,대구광역시,북구,복현동,540-1,35.9032298,128.620265
문곡중학교,중학교,강원특별자치도,정선군,남면,문곡리 317-7 번지,37.26589652,128.7397508
경구중학교,중학교,대구광역시,중구,남산동,2380-5,35.85851368,128.5835008
불곡중학교,중학교,경기도,성남시,분당구,구미동 92,37.34745932,127.119915
신곡중학교,중학교,부산광역시,해운대구,좌동,1329,35.16814646,129.1818773
서울문영여자중학교,중학교,서울특별시,관악구,봉천동,1695,37.47290457,126.9509181
월서중학교,중학교,대구광역시,달서구,월성동,1317,35.81972903,128.5264911
화성중학교,중학교,충청남도,청양군,화성면,구재리 156-3,36.43693383,126.7220449
도원중학교,중학교,대구광역시,달서구,도원동,1452,35.80619402,128.5450006
신서중학교,중학교,서울특별시,양천구,신정동,310-6,37.51596644,126.8550164
성수중학교,중학교,전북특별자치도,임실군,성수면,양지리 257,35.6297434,127.3358183
남성중학교,중학교,전북특별자치도,익산시,신동,156-4,35.95635944,126.965918
대전신계중학교,중학교,대전광역시,서구,복수동,451,36.30195661,127.3770392
청라중학교,중학교,충청남도,보령시,청라면,의평리 206,36.38888916,126.6622666
초지중학교,중학교,경기도,안산시,단원구,초지동 723-2,37.3120993,126.8179787
설악중학교,중학교,강원특별자치도,속초시,교동,780-5번지,38.20550398,128.5790108
여수종고중학교,중학교,전라남도,여수시,동산동,산12-4,34.74436688,127.7363763
용지중학교,중학교,전북특별자치도,김제시,용지면,구암리 258-1,35.85077247,126.9605037
선린중학교,중학교,서울특별시,용산구,청파동3가,131-2,37.54296872,126.9649361
일신여자중학교,중학교,서울특별시,송파구,송파동,99-2,37.501777,127.1142413
방배중학교,중학교,서울특별시,서초구,반포동,586-1,37.49486827,126.997827
보인중학교,중학교,서울특별시,송파구,오금동,162,37.4975692,127.1395178
천내중학교,중학교,대구광역시,달성군,화원읍,구라리 1560-12,35.80935839,128.5034625
목포여자중학교,중학교,전라남도,목포시,경동2가,7-2,34.78517069,126.3801797
환일중학교,중학교,서울특별시,중구,만리동2가,218-2,37.553608,126.962807
금곡중학교,중학교,부산광역시,북구,금곡동,99-2,35.26085915,129.017153
청란여자중학교,중학교,대전광역시,중구,부사동,436-1,36.31073792,127.4295277
광안중학교,중학교,부산광역시,수영구,광안동,977-1,35.16822316,129.1049195
대안중학교,중학교,경기도,안양시,동안구,호계동 1225,37.37798341,126.9658777
전주남중학교,중학교,전북특별자치도,전주시,완산구,평화동1가 445-4,35.79608353,127.1402939
부산중앙여자중학교,중학교,부산광역시,서구,서대신동3가,181,35.11584673,129.0110339
천안가온중학교,중학교,충청남도,천안시,동남구,청당동 482,36.78776535,127.1555309
아현중학교,중학교,서울특별시,마포구,아현동,267-1,37.55640071,126.9565000215
녹천중학교,중학교,서울특별시,노원구,월계동,321-7,37.63108361,127.0617375
서울여자중학교,중학교,서울특별시,마포구,염리동,128-2,37.5477805,126.94907
대청중학교,중학교,서울특별시,강남구,대치동,502,37.49043056,127.0583501
양학중학교,중학교,경상북도,포항시,북구,득량동 205-6,36.03347484,129.3418898
이매중학교,중학교,경기도,성남시,분당구,이매동 102,37.40192933,127.126055
조양중학교,중학교,경기도,양주시,광적면,가납리 908,37.82006347,126.9791625
상하중학교,중학교,전북특별자치도,고창군,상하면,장산리 78-6,35.44537281,126.4882935
대전자운중학교,중학교,대전광역시,유성구,신봉동,208,36.411014,127.3380614
인제중학교,중학교,강원특별자치도,인제군,인제읍,상동리 26-2 번지,38.07084007,128.1754146
현도중학교,중학교,충청북도,청주시,서원구,현도면 선동리 256-3,36.48310468,127.425716
만경중학교,중학교,전북특별자치도,김제시,만경읍,만경리 527,35.84855174,126.8172224
대치중학교,중학교,서울특별시,강남구,도곡동,460,37.48457751,127.0470652
세곡중학교,중학교,서울특별시,강남구,자곡동,617,37.47198073,127.0918862
월촌중학교,중학교,서울특별시,양천구,목동,909,37.53706518,126.8827588
동일중학교,중학교,서울특별시,금천구,시흥동,산100-4,37.45193626,126.9158199
한들물빛중학교,중학교,충청남도,아산시,탕정면,매곡리 283-1번지,36.78537042,127.0890755
회덕중학교,중학교,대전광역시,대덕구,와동,55,36.40116218,127.4258058
인천하늘중학교,중학교,인천광역시,중구,운남동,1737-2,37.4838328,126.543285
충북여자중학교,중학교,충청북도,청주시,서원구,모충동 280,36.62663158,127.4841051
운주중학교,중학교,전북특별자치도,완주군,운주면,장선리 179-1,36.08868999,127.2813392
가재울중학교,중학교,서울특별시,서대문구,북가좌동,472,37.57517186,126.9099537
매포중학교,중학교,충청북도,단양군,매포읍,평동리 118,37.03007021,128.3066264
상북중학교,중학교,울산광역시,울주군,상북면,향산리 344,35.5820685,129.099067
노원중학교,중학교,서울특별시,노원구,상계동,743,37.64936114,127.059692
상관중학교,중학교,전북특별자치도,완주군,상관면,신리 603-5,35.771038,127.2067382
목포항도여자중학교,중학교,전라남도,목포시,상동,327,34.81662603,126.4111056
인지중학교,중학교,부산광역시,해운대구,반여동,1621,35.20405092,129.1255897
서연중학교,중학교,서울특별시,서대문구,연희동,267-1,37.56822527,126.9273336
용진중학교,중학교,전북특별자치도,완주군,용진읍,상운리 121-1,35.88236024,127.1532729
양천중학교,중학교,서울특별시,양천구,신월동,948,37.51900116,126.8305508
둔내중학교,중학교,강원특별자치도,횡성군,둔내면,둔방내리 96-3 번지,37.51082915,128.2127223
동원중학교,중학교,경상남도,통영시,광도면,죽림리 산334,34.87046484,128.4130674
대전중학교,중학교,대전광역시,중구,대흥동,361-2,36.320792,127.4248636
예일여자중학교,중학교,서울특별시,은평구,구산동,8-3,37.6109459,126.9147928
여주여자중학교,중학교,경기도,여주시,상동,149-1,37.29549345,127.6462791
단양소백산중학교,중학교,충청북도,단양군,영춘면,장발리 732,37.085031,128.4237823
김제중학교,중학교,전북특별자치도,김제시,신풍동,215-1,35.79376151,126.8995867
양산중앙중학교,중학교,경상남도,양산시,남부동,556-1,35.33259109,129.0259921
여의도중학교,중학교,서울특별시,영등포구,여의도동,40-1,37.5239802,126.9357531
구남중학교,중학교,대구광역시,달서구,두류동,1207-1,35.85810993,128.5726243
운남중학교,중학교,광주광역시,광산구,운남동,776-6,35.17763057,126.828617
대구동중학교,중학교,대구광역시,수성구,수성동2가,119-4,35.85820019,128.6159585
동패중학교,중학교,경기도,파주시,동패동,1765,37.70857005,126.7359559
동명여자중학교,중학교,서울특별시,서대문구,천연동,31-1,37.56861542,126.9622529
용산중학교,중학교,서울특별시,용산구,용산동2가,1-1623,37.546003,126.980976
신창중학교,중학교,충청남도,아산시,신창면,남성리 834번지,36.788901,126.9522512
진광중학교,중학교,강원특별자치도,원주시,우산동,,37.37291539,127.9358278
합포여자중학교,중학교,경상남도,창원시,마산회원구,회성동 458-9,35.23215536,128.561743
부론중학교,중학교,강원특별자치도,원주시,부론면,법천리 1442 번지,37.20782695,127.7516585
인천가현중학교,중학교,인천광역시,서구,신현동,305-1,37.52109126,126.6685551
목포청호중학교,중학교,전라남도,목포시,연산동,1984,34.816088,126.3906435
금지중학교,중학교,전북특별자치도,남원시,금지면,옹정리 589-1,35.35002408,127.3016161
당곡중학교,중학교,서울특별시,관악구,봉천동,682,37.4923589,126.9326777
경수중학교,중학교,서울특별시,성동구,성수동2가,268,37.53950904,127.0592712
배곧해솔중학교,중학교,경기도,시흥시,정왕동,2561,37.36006848,126.717234
대전봉우중학교,중학교,대전광역시,서구,관저동,1150,36.2984703,127.3327047
해운대여자중학교,중학교,부산광역시,해운대구,우동,산104-4,35.16805143,129.1535665
해운중학교,중학교,경상남도,창원시,마산합포구,해운동 51,35.17757645,128.565297
대전어은중학교,중학교,대전광역시,유성구,어은동,96,36.36600526,127.3529132
구의중학교,중학교,서울특별시,광진구,화양동,303-18,37.5428503,127.0788404
잠원중학교,중학교,경기도,수원시,영통구,망포동 223-1,37.23937024,127.0487269
기민중학교,중학교,충청남도,논산시,관촉동,320-1,36.19634099,127.1085413
곡성중학교,중학교,전라남도,곡성군,곡성읍,읍내리 726-1,35.28105328,127.2883269
송원중학교,중학교,경기도,수원시,장안구,송죽동 376,37.29724061,127.0028454
금오중학교,중학교,경상남도,양산시,동면,석산리 1448-1,35.32204222,129.027763
신남중학교,중학교,강원특별자치도,인제군,남면,신남리 404,37.96985666,128.0794889
하의중학교,중학교,전라남도,신안군,하의면,웅곡리 220,34.60603857,126.0371142
청산중학교,중학교,충청북도,옥천군,청산면,백운리 333-3,36.349135,127.795974
동양중학교,중학교,부산광역시,부산진구,부암동,718,35.177302,129.0318696
동삭중학교,중학교,경기도,평택시,칠원동,산62-1,37.01947742,127.105278
송산중학교,중학교,경기도,화성시,송산면,사강리 558-2,37.21535671,126.7306439
신정중학교,중학교,울산광역시,남구,옥동,163-6,35.54188841,129.2913335
영란여자중학교,중학교,서울특별시,중랑구,망우동,220,37.6031324,127.1053324
용남중학교,중학교,경상남도,사천시,용현면,선진리 67,35.044169,128.0643803
윤슬중학교,중학교,경기도,하남시,망월동,1045,37.563425,127.1815823
선일여자중학교,중학교,서울특별시,은평구,갈현동,240-1,37.62030421,126.9119931
광진중학교,중학교,서울특별시,광진구,자양동,693,37.53221959,127.0901621
상계제일중학교,중학교,서울특별시,노원구,중계동,132,37.6610756,127.0780785
하서중학교,중학교,전북특별자치도,부안군,하서면,석상리 378-1,35.71414156,126.6376014
해성중학교,중학교,경상남도,남해군,남면,평산리 271,34.77357644,127.8602782
고덕중학교,중학교,충청남도,예산군,고덕면,대천리 692,36.74449194,126.6987447
동의중학교,중학교,부산광역시,부산진구,전포동,12-1,35.16436585,129.070422
당산서중학교,중학교,서울특별시,영등포구,당산동5가,5,37.53248394,126.8988251
용전중학교,중학교,강원특별자치도,평창군,용평면,용전리 207-1 번지,37.60900531,128.4394004
왕궁중학교,중학교,전북특별자치도,익산시,왕궁면,흥암리 91-1,35.96712764,127.0909328
문산북중학교,중학교,경기도,파주시,문산읍,당동리 149,37.86299886,126.7757779
원덕중학교,중학교,강원특별자치도,삼척시,원덕읍,호산리 370 번지,37.178519,129.3315382
명서중학교,중학교,경상남도,창원시,의창구,명서동 28-1,35.25153733,128.6440578
학산중학교,중학교,전북특별자치도,정읍시,상동,84,35.56034415,126.8753952
대구북중학교,중학교,대구광역시,북구,복현동,219-1,35.8973669,128.6204404
삼광중학교,중학교,경기도,파주시,적성면,식현리 284,37.94557773,126.8855095
청명중학교,중학교,경기도,수원시,영통구,영통동 955-3,37.26185806,127.0781262
동변중학교,중학교,대구광역시,북구,동변동,695,35.91925722,128.6056093
청하중학교,중학교,전북특별자치도,김제시,청하면,관상리 471-2,35.88191902,126.8514878
수완중학교,중학교,광주광역시,광산구,수완동,1495,35.18686035,126.8277241
대평중학교,중학교,경기도,수원시,장안구,정자동 871-1,37.29743078,126.9898634
수현중학교,중학교,경기도,화성시,봉담읍,수영리 691,37.226381,126.950823
덕문중학교,중학교,부산광역시,강서구,성북동,407-2,35.0515106,128.8306934
하남중학교,중학교,광주광역시,광산구,월곡동,541,35.16740467,126.8050612
초연중학교,중학교,부산광역시,부산진구,초읍동,50-1,35.179553,129.0449128
안산중학교,중학교,전라남도,여수시,안산동,714,34.7553989,127.6524025
광주진흥중학교,중학교,광주광역시,광산구,신창동,638-5,35.19643601,126.8416886
대전봉명중학교,중학교,대전광역시,유성구,봉명동,1022,36.34964791,127.344931
고북중학교,중학교,충청남도,서산시,고북면,가구리 624-27,36.66963853,126.5340292
남원한빛중학교,중학교,전북특별자치도,남원시,월락동,428,35.42390146,127.402738
천왕중학교,중학교,서울특별시,구로구,천왕동,273-1,37.48265442,126.8373336
수송중학교,중학교,서울특별시,강북구,번동,456-1,37.63680065,127.0339176
석보중학교,중학교,경상북도,영양군,석보면,원리리 142-1,36.55265804,129.135533
서연중학교,중학교,경기도,화성시,장지동,115-1,37.16088657,127.110215
고성동중학교,중학교,경상남도,고성군,거류면,당동리 235,34.987736,128.4012968
동진여자중학교,중학교,경상남도,창원시,진해구,풍호동 740-1,35.142582,128.703942
별내중학교,중학교,경기도,남양주시,별내면,청학리 421,37.71101831,127.112746
전주성심여자중학교,중학교,전북특별자치도,전주시,완산구,교동 280,35.81195132,127.150661
재송중학교,중학교,부산광역시,해운대구,재송동,1033-1,35.19316189,129.128547
계림중학교,중학교,경상북도,경주시,황성동,469-8,35.86411253,129.2141461
광주체육중학교,중학교,광주광역시,북구,운암동,184,35.18250305,126.8794162
고흥중학교,중학교,전라남도,고흥군,고흥읍,남계리 238,34.61480957,127.2890618
중앙기독중학교,중학교,경기도,수원시,영통구,원천동 134,37.27533477,127.0576904
단구중학교,중학교,강원특별자치도,원주시,단구동,1675번지,37.32082488,127.9568666
율전중학교,중학교,경기도,수원시,장안구,율전동 168-41,37.30336795,126.9663526
과천문원중학교,중학교,경기도,과천시,별양동,40,37.42339944,126.9952942
오산원일중학교,중학교,경기도,오산시,원동,360-8,37.13977634,127.0726758
줄포중학교,중학교,전북특별자치도,부안군,줄포면,줄포리 272,35.59248737,126.676313
마령중학교,중학교,전북특별자치도,진안군,마령면,평지리 580-4,35.73289992,127.3716574
순성중학교,중학교,충청남도,당진시,순성면,봉소리 483-1,36.85241021,126.706178
고흥풍양중학교,중학교,전라남도,고흥군,풍양면,율치리 920-1,34.57000635,127.2520243
성지여자중학교,중학교,경상남도,창원시,마산합포구,완월동 206-1,35.197937,128.5598321
안양부흥중학교,중학교,경기도,안양시,동안구,비산동 1102-1,37.39408695,126.9454579
장위중학교,중학교,서울특별시,성북구,장위동,231-623,37.61129251,127.0408412
대전신일중학교,중학교,대전광역시,중구,부사동,376-10,36.30917839,127.4345257
대천서중학교,중학교,충청남도,보령시,신흑동,824,36.31849307,126.5141199
창선중학교,중학교,경상남도,남해군,창선면,상죽리 115,34.85749552,128.0122318
소하중학교,중학교,경기도,광명시,소하동,1329,37.44819692,126.887415
금성중학교,중학교,전북특별자치도,김제시,신풍동,144-1,35.7980177,126.8988054
부천동여자중학교,중학교,경기도,부천시,소사구,괴안동 171-15,37.48077502,126.8102137
노형중학교,중학교,제주특별자치도,제주시,노형동,3812,33.47966933,126.4758285
삼정중학교,중학교,서울특별시,강서구,방화동,856,37.5814869,126.8106015
상하중학교,중학교,경기도,용인시,기흥구,상하동 672,37.261597,127.1356759
경산여자중학교,중학교,경상북도,경산시,옥곡동,7,35.8177642,128.7299454
남한중학교,중학교,경기도,하남시,신장동,367-5,37.54274227,127.2092757
명지중학교,중학교,서울특별시,서대문구,홍은동,323-9,37.58491135,126.9270902
원미중학교,중학교,경기도,부천시,원미구,원미동 13,37.499273,126.7944904
성남중학교,중학교,서울특별시,동작구,대방동,375-1,37.50528157,126.9266153
온산중학교,중학교,울산광역시,울주군,온산읍,덕신리 71-1,35.43958116,129.3177428
수원원일중학교,중학교,경기도,수원시,영통구,매탄동 1229-10,37.26539571,127.053545
망미중학교,중학교,부산광역시,수영구,망미동,952-2,35.17566242,129.0985872
광장중학교,중학교,서울특별시,광진구,광장동,394-5,37.54717752,127.1019276
언남중학교,중학교,서울특별시,서초구,양재동,310,37.47240137,127.044281
화천중학교,중학교,강원특별자치도,화천군,하남면,위라리 502번지,38.09694119,127.7082684
풍각중학교,중학교,경상북도,청도군,풍각면,송서리 553-6,35.64122493,128.6207782
칠성중학교,중학교,경상남도,함안군,칠서면,용성리 22-22,35.38841766,128.5028395
산곡남중학교,중학교,인천광역시,부평구,산곡동,261-4,37.50013864,126.707396
인천재능중학교,중학교,인천광역시,동구,송림동,37-382,37.47553313,126.6504734
등원중학교,중학교,서울특별시,강서구,등촌동,707-4,37.55971763,126.8516806
강경중학교,중학교,충청남도,논산시,강경읍,채산리 511,36.1484243,127.0083211
청주남중학교,중학교,충청북도,청주시,서원구,수곡동 124-3,36.61442695,127.4842559
대전관저중학교,중학교,대전광역시,서구,관저동,993,36.30572428,127.3396966
경구중학교,중학교,경상북도,구미시,봉곡동,279,36.14854107,128.307609
흥덕중학교,중학교,전북특별자치도,고창군,흥덕면,흥덕리 436,35.52331092,126.7015304
성지송학중학교,중학교,전라남도,영광군,군서면,송학리 219-1,35.27183641,126.459325
무안청계중학교,중학교,전라남도,무안군,청계면,도림리 542,34.91547999,126.4297122
기안중학교,중학교,경기도,화성시,기안동,365,37.22434165,126.9753192
용하중학교,중학교,강원특별자치도,양구군,국토정중앙면,용하리 406,38.10953368,128.0360735
전일중학교,중학교,전북특별자치도,전주시,덕진구,인후동2가 39-16,35.83829946,127.144964
마산삼진중학교,중학교,경상남도,창원시,마산합포구,진동면 진동리 241-1,35.11430894,128.4882202
금호중학교,중학교,경상북도,영천시,금호읍,교대리 172-1,35.93238187,128.8736677
보덕중학교,중학교,충청북도,보은군,탄부면,하장리 27-1,36.436294,127.8049905
대명중학교,중학교,서울특별시,강남구,대치동,952,37.50633641,127.0609849
약사중학교,중학교,울산광역시,중구,약사동,571-1,35.57095263,129.3390424
문경여자중학교,중학교,경상북도,문경시,모전동,513,36.5956739,128.1898857
안덕중학교,중학교,제주특별자치도,서귀포시,안덕면,화순리 296,33.24892777,126.3374515
대천중학교,중학교,충청남도,보령시,명천동,430-4,36.3423924,126.6005643
영통중학교,중학교,경기도,수원시,영통구,영통동 964-2,37.2536188,127.0637499
제천중학교,중학교,충청북도,제천시,서부동,251,37.13942849,128.2043508
포항이동중학교,중학교,경상북도,포항시,남구,이동 664,36.03035784,129.340069
전북동화중학교,중학교,전북특별자치도,정읍시,태인면,태창리 217-2,35.65059282,126.9374917
부원여자중학교,중학교,인천광역시,부평구,부평동,70-128,37.49329275,126.7170969
영남중학교,중학교,대구광역시,달서구,상인동,70,35.82076999,128.5363043
안동중학교,중학교,경상북도,안동시,태화동,255,36.56465434,128.711948
화동중학교,중학교,경상북도,상주시,화동면,이소리 323,36.3884768,127.9587288
무을중학교,중학교,경상북도,구미시,무을면,무등리 327,36.25877943,128.1891946
푸른중학교,중학교,경기도,화성시,능동,1135,37.20235319,127.056597
노일중학교,중학교,서울특별시,노원구,상계동,1044,37.67260103,127.0535508
청솔중학교,중학교,경기도,성남시,분당구,금곡동 124,37.35647367,127.1102747
충렬중학교,중학교,부산광역시,동래구,명장동,149-9,35.20295251,129.1084027
명일중학교,중학교,서울특별시,강동구,고덕동,489,37.55759545,127.1472905
남주중학교,중학교,제주특별자치도,서귀포시,동홍동,1907,33.27652166,126.5649677
추자중학교,중학교,제주특별자치도,제주시,추자면,신양리 333,33.94580566,126.3253151
봉평중학교,중학교,강원특별자치도,평창군,봉평면,창동리 332번지,37.61770857,128.3813508
영락중학교,중학교,서울특별시,은평구,응암동,226-13,37.5969603,126.925133
개운중학교,중학교,경상남도,양산시,삼호동,747,35.41239092,129.1699843
전주신흥중학교,중학교,전북특별자치도,전주시,완산구,중화산동1가 188,35.81541013,127.1362767
대평중학교,중학교,대구광역시,서구,평리동,730-1,35.88026893,128.5623308
호계중학교,중학교,경기도,안양시,동안구,호계동 315-5,37.37834907,126.9517363
고운중학교,중학교,세종특별자치시,고운동,1710,,36.50533931,127.2377219
만경여자중학교,중학교,전북특별자치도,김제시,만경읍,만경리 404-2,35.85368921,126.8147776
해남제일중학교,중학교,전라남도,해남군,해남읍,구교리 273,34.57655772,126.5965165
강서중학교,중학교,강원특별자치도,춘천시,서면,금산리 592 번지,37.90710564,127.7011928
임원중학교,중학교,강원특별자치도,삼척시,원덕읍,임원리 921,37.24083403,129.3364043
연초중학교,중학교,경상남도,거제시,연초면,죽토리 724,34.91287432,128.6590176
전주해성중학교,중학교,전북특별자치도,전주시,완산구,삼천동2가 555,35.78676751,127.1008413
귀인중학교,중학교,경기도,안양시,동안구,평촌동 914,37.38403061,126.9633897
상남중학교,중학교,강원특별자치도,인제군,상남면,1리 2반 153번지,37.872462,128.256762
대청중학교,중학교,인천광역시,옹진군,대청면,대청리 1143-2,37.8325852,124.6939792
신창중학교,중학교,서울특별시,노원구,월계동,805-5,37.6285588,127.0474776
수원제일중학교,중학교,경기도,수원시,팔달구,화서동 5,37.28713514,127.0008026
조암중학교,중학교,대구광역시,달서구,월성동,1150-1,35.8232027,128.5240795
경원중학교,중학교,경상남도,창원시,성산구,중앙동 113,35.22548083,128.6632959
안심중학교,중학교,대구광역시,동구,서호동,121,35.86674984,128.7092322
풍납중학교,중학교,서울특별시,송파구,풍납동,390,37.525365,127.1156283
대전대신중학교,중학교,대전광역시,서구,복수동,283-63,36.30895881,127.3800492
태릉중학교,중학교,서울특별시,중랑구,묵동,121-278,37.61253191,127.0834356
반안중학교,중학교,부산광역시,해운대구,반여동,1164-4,35.20337703,129.112395
전주온고을중학교,중학교,전북특별자치도,전주시,덕진구,인후동1가 117,35.829151,127.1654968
구룡중학교,중학교,서울특별시,강남구,개포동,650,37.48615258,127.056121
삼례중학교,중학교,전북특별자치도,완주군,삼례읍,삼례리 1691-7,35.91106842,127.078716
부산개성중학교,중학교,부산광역시,부산진구,가야동,459-45,35.14694899,129.0328751
금산중학교,중학교,충청남도,금산군,금산읍,중도리 166,36.10630313,127.4943581
대전내동중학교,중학교,대전광역시,서구,변동,254-440,36.33228389,127.3702487
청주중학교,중학교,충청북도,청주시,상당구,영동 8,36.64295204,127.4859557
성일중학교,중학교,서울특별시,동대문구,제기동,271-41,37.58185023,127.033829
현대중학교,중학교,울산광역시,동구,서부동,238-21,35.52408034,129.423179
고려대학교사범대학부속중학교,중학교,서울특별시,성북구,정릉동,660,37.60783857,127.0028302
충남여자중학교,중학교,대전광역시,중구,목동,126,36.33163973,127.411631
연천중학교,중학교,부산광역시,연제구,연산동,272,35.18405315,129.1020301
전주중앙중학교,중학교,전북특별자치도,전주시,덕진구,진북동 301-19,35.82800762,127.1380542
성내중학교,중학교,전북특별자치도,고창군,성내면,신성리 100-1,35.54309223,126.7444702
순창여자중학교,중학교,전북특별자치도,순창군,순창읍,순화리 514-2,35.37840957,127.1339636
전주우전중학교,중학교,전북특별자치도,전주시,완산구,효자동2가 188,35.80597309,127.1073907
원당중학교,중학교,인천광역시,서구,원당동,852-2,37.59640974,126.7033113
감정중학교,중학교,경기도,김포시,감정동,595,37.62110744,126.7009004
남대문중학교,중학교,서울특별시,성북구,장위동,126,37.61865113,127.0551517
목포영화중학교,중학교,전라남도,목포시,상동,525-9,34.80736557,126.4108458
산격중학교,중학교,대구광역시,북구,산격동,500-136,35.90230254,128.6087049
다운중학교,중학교,울산광역시,중구,다운동,676-1,35.56786292,129.2701094
항도중학교,중학교,부산광역시,부산진구,전포동,175-8,35.16152979,129.0670152
일신중학교,중학교,광주광역시,북구,일곡동,853-1,35.21152511,126.893691
원곡중학교,중학교,경기도,안산시,단원구,원곡동 936-1,37.33133132,126.8017354
안산중학교,중학교,경기도,안산시,상록구,장상동 10,37.36094704,126.8741442
법성중학교,중학교,전라남도,영광군,법성면,대덕리 543,35.35826749,126.4560099727
대전법동중학교,중학교,대전광역시,대덕구,법동,196-1,36.36652684,127.4335276
이인중학교,중학교,충청남도,공주시,이인면,이인리 122,36.35940783,127.063905
광주충장중학교,중학교,광주광역시,동구,산수동,552-6,35.15673578,126.9285933
목포옥암중학교,중학교,전라남도,목포시,옥암동,1271,34.81033767,126.4529022
중동중학교,중학교,서울특별시,강남구,일원동,692,37.48851679,127.0786121
남지여자중학교,중학교,경상남도,창녕군,남지읍,마산리 894-6,35.38974539,128.4687749
가덕중학교,중학교,충청북도,청주시,상당구,가덕면 수곡리 255,36.5779265,127.5784827
부산서중학교,중학교,부산광역시,동구,수정동,1048-689,35.12549303,129.0363578
웅촌중학교,중학교,울산광역시,울주군,웅촌면,곡천리 295-1,35.462485,129.2087306
진선여자중학교,중학교,서울특별시,강남구,역삼동,713,37.502323,127.0482866
대자중학교,중학교,광주광역시,서구,동천동,649,35.16908898,126.8675218
섬강중학교,중학교,강원특별자치도,원주시,지정면,가곡리 가곡리 461-2,37.37687867,127.8807396
장기중학교,중학교,세종특별자치시,장군면,하봉리,37-1,36.4938836,127.2017261
대구동부중학교,중학교,대구광역시,수성구,만촌동,645-1,35.872516,128.6442074
백석중학교,중학교,서울특별시,강서구,등촌동,520-5,37.54829091,126.8589539
원통중학교,중학교,강원특별자치도,인제군,북면,원통리 398-1 번지,38.12747115,128.2129813
진안여자중학교,중학교,전북특별자치도,진안군,진안읍,군상리 1066,35.80154854,127.4213457
지사중학교,중학교,부산광역시,강서구,지사동,1183-2,35.15217997,128.8351469
대천리중학교,중학교,부산광역시,북구,화명동,509,35.24235441,129.021697
화곡중학교,중학교,서울특별시,강서구,내발산동,715,37.5484056,126.8326573
송동중학교,중학교,전북특별자치도,남원시,송동면,신평리 48-3,35.36398527,127.3426621
범어중학교,중학교,경상남도,양산시,물금읍,범어리 2677-1,35.33187736,129.0099715
동해중학교,중학교,강원특별자치도,동해시,발한동,537-3 번지,37.54341476,129.097066
산남중학교,중학교,경기도,수원시,영통구,매탄동 1216,37.26912854,127.0513148
대구가톨릭대학교사범대학부속무학중학교,중학교,경상북도,경산시,하양읍,도리리 76,35.92002869,128.8159912
양영중학교,중학교,경기도,성남시,분당구,서현동 293,37.37652556,127.1359747
동도중학교,중학교,대구광역시,수성구,범어동,336,35.84943264,128.6396851
치평중학교,중학교,광주광역시,서구,쌍촌동,472,35.14468809,126.859102
백운중학교,중학교,전북특별자치도,진안군,백운면,백암리 631,35.68898827,127.3975578
대전괴정중학교,중학교,대전광역시,서구,괴정동,120,36.34040306,127.3788431
서귀포여자중학교,중학교,제주특별자치도,서귀포시,서홍동,1326,33.25584018,126.5465121
부인중학교,중학교,경기도,부천시,원미구,상동 398,37.49055345,126.7486718
숙지중학교,중학교,경기도,수원시,팔달구,화서동 652,37.28243119,126.9922207
중문중학교,중학교,제주특별자치도,서귀포시,중문동,1935,33.25097421,126.429445
대원중학교,중학교,경기도,성남시,중원구,금광동 2422,37.44763955,127.1725632
청웅중학교,중학교,전북특별자치도,임실군,청웅면,구고리 1060-1,35.56942024,127.1982913
둔덕중학교,중학교,경상남도,거제시,둔덕면,하둔리 407-2,34.83967678,128.505806
이천경남중학교,중학교,경기도,이천시,설성면,금당리 175,37.13607492,127.5188855
여수삼일중학교,중학교,전라남도,여수시,소라면,죽림리 1126,34.763658,127.6407695
창촌중학교,중학교,강원특별자치도,춘천시,남산면,강촌리 331 번지,37.80668519,127.6350181
응곡중학교,중학교,경기도,시흥시,장곡동,386-7,37.38077945,126.7832788
진남여자중학교,중학교,전라남도,여수시,미평동,328,34.7695745,127.7067839
함양중학교,중학교,경상남도,함양군,함양읍,교산리 217,35.52544442,127.7310521
울산제일중학교,중학교,울산광역시,중구,태화동,871,35.55487147,129.2848051
유구중학교,중학교,충청남도,공주시,유구읍,석남리 359,36.54974089,126.9483435
나주금천중학교,중학교,전라남도,나주시,빛가람동,315,35.01469441,126.797563
동강중학교,중학교,충청남도,서천군,기산면,두북리 25,36.07188978,126.7491652
대방중학교,중학교,서울특별시,동작구,신대방동,492-200,37.49543678,126.9130162
임실동중학교,중학교,전북특별자치도,임실군,임실읍,이도리 751,35.61456761,127.2788369
천안오성중학교,중학교,충청남도,천안시,서북구,두정동 2009,36.83617123,127.1291473
웅천중학교,중학교,경상남도,창원시,진해구,남문동 1213-14,35.10245311,128.7546083
마곡중학교,중학교,서울특별시,강서구,마곡동,731-73,37.567907,126.8214009
웅포중학교,중학교,전북특별자치도,익산시,웅포면,고창리 190,36.08871987,126.8852374
복수중학교,중학교,충청남도,금산군,복수면,수영리 240-1,36.18127321,127.3875622
대전지족중학교,중학교,대전광역시,유성구,지족동,879,36.37793595,127.3208044
와룡중학교,중학교,대구광역시,달서구,이곡동,1189-1,35.85830017,128.5020267
화순제일중학교,중학교,전라남도,화순군,화순읍,대리 130,35.0548525,126.9747483
임곡중학교,중학교,광주광역시,광산구,임곡동,783-1,35.22062838,126.7419508
상서중학교,중학교,대구광역시,달서구,성당동,670-31,35.84643612,128.5498704
인주중학교,중학교,충청남도,아산시,인주면,밀두리 644,36.867281922,126.8933977281
안좌중학교,중학교,전라남도,신안군,안좌면,창마리 290,34.74424551,126.1275449
사당중학교,중학교,서울특별시,동작구,사당동,209-16,37.48776119,126.9685407
효정중학교,중학교,울산광역시,북구,양정동,222,35.55923755,129.3787986
동성고등공민학교,중학교,경기도,하남시,광암동,323,37.512391,127.1723389
백운중학교,중학교,충청북도,제천시,백운면,평동리 570,37.14280559,128.0168918
화도중학교,중학교,경기도,화성시,마도면,석교리 212,37.20491217,126.7752047
화산중학교,중학교,경상북도,영천시,화산면,유성리 1360-1,36.01997426,128.8488845
군산진포중학교,중학교,전북특별자치도,군산시,수송동,61-10,35.97243982,126.7220784
모락중학교,중학교,경기도,의왕시,오전동,11-4,37.3680803,126.9677165
남강중학교,중학교,서울특별시,관악구,신림동,627-1,37.47137567,126.9249091
경희여자중학교,중학교,서울특별시,동대문구,회기동,1-5,37.59394914,127.054891
어모중학교,중학교,경상북도,김천시,어모면,동좌리 519,36.20138852,128.1090763
계룡중학교,중학교,충청남도,계룡시,금암동,75-1,36.26755868,127.2551156
태성중학교,중학교,경기도,용인시,처인구,남동 28,37.22892007,127.2088324
동백중학교,중학교,부산광역시,해운대구,중동,750-11,35.16584538,129.1743447
양지중학교,중학교,세종특별자치시,도담동,896,,36.50873217,127.2684692
부여여자중학교,중학교,충청남도,부여군,부여읍,쌍북리 209,36.28746065,126.9244869
송면중학교,중학교,충청북도,괴산군,청천면,이평리 191,36.65954414,127.8736127
귀래중학교,중학교,강원특별자치도,원주시,귀래면,운남리 1136 번지,37.17136117,127.8849727
광운중학교,중학교,서울특별시,노원구,월계동,500,37.61923977,127.0565452
모라중학교,중학교,부산광역시,사상구,모라동,1348,35.1906712,128.992438
운중중학교,중학교,경기도,성남시,분당구,운중동 950,37.39124417,127.0736017
기성중학교,중학교,대전광역시,서구,흑석동,282-4,36.25111009,127.3411542
장안여자중학교,중학교,경기도,화성시,장안면,사곡리 산49-2,37.07765669,126.8163354
영덕중학교,중학교,경기도,수원시,영통구,영통동 957-3,37.25855295,127.072890035
쌍룡중학교,중학교,강원특별자치도,영월군,한반도면,888 번지,37.17789678,128.3164053
가원중학교,중학교,서울특별시,송파구,가락동,106-3,37.49099949,127.1231711
장평중학교,중학교,부산광역시,사하구,감천동,567-9,35.09396796,128.9944685
신일중학교,중학교,서울특별시,강북구,미아동,193-1,37.62796722,127.028427
사천중학교,중학교,강원특별자치도,강릉시,사천면,석교리 234 번지,37.82832184,128.8454797
다사중학교,중학교,대구광역시,달성군,다사읍,매곡리 729,35.86255586,128.4555466
귀일중학교,중학교,제주특별자치도,제주시,애월읍,하귀2리 1276,33.47900072,126.4052261
보성중학교,중학교,전라남도,보성군,보성읍,옥평리 805,34.76481313,127.0909425
오창중학교,중학교,충청북도,청주시,청원구,오창읍 창리 151-4,36.73519455,127.4613997
우석중학교,중학교,강원특별자치도,춘천시,석사동,723,37.86636438,127.755251
동백중학교,중학교,경기도,용인시,기흥구,동백동 578,37.28558222,127.1589105
빛가람중학교,중학교,전라남도,나주시,빛가람동,625,35.00863779,126.786368
수곡중학교,중학교,충청북도,청주시,서원구,수곡동 1003,36.61430614,127.474159
청풍중학교,중학교,충청북도,제천시,청풍면,물태리 144-1,36.99628126,128.1648122
명륜여자중학교,중학교,경기도,안성시,낙원동,609-1,37.00503274,127.2751069
보은여자중학교,중학교,충청북도,보은군,보은읍,교사리 174-2,36.4947201267,127.7161032825
광성중학교,중학교,서울특별시,마포구,신수동,91-20,37.54869756,126.9359696
추부중학교,중학교,충청남도,금산군,추부면,마전리 407,36.19272749,127.4685019
세화중학교,중학교,제주특별자치도,제주시,구좌읍,세화리 1198,33.52155716,126.8530677
군산제일중학교,중학교,전북특별자치도,군산시,조촌동,84,35.97273147,126.7490296
보람중학교,중학교,세종특별자치시,보람동,685,,36.477583,127.29313
아영중학교,중학교,전북특별자치도,남원시,아영면,청계리 103,35.50702807,127.6098924
진주남중학교,중학교,경상남도,진주시,칠암동,384,35.181018,128.090492
청량중학교,중학교,서울특별시,동대문구,청량리동,14,37.58821921,127.0506226
예람중학교,중학교,강원특별자치도,동해시,단봉동,1-1 번지,37.48104844,129.1240127
대전도마중학교,중학교,대전광역시,서구,도마동,111-3,36.31917326,127.3723111
오성중학교,중학교,대구광역시,수성구,만촌동,1070,35.85447266,128.6447837
완도중학교,중학교,전라남도,완도군,완도읍,군내리 943,34.308886,126.751084
일동중학교,중학교,경기도,포천시,일동면,기산리 96-2,37.96123182,127.315232
공음중학교,중학교,전북특별자치도,고창군,공음면,칠암리 570-1,35.3791647,126.5146986
전주아중중학교,중학교,전북특별자치도,전주시,덕진구,우아동2가 888-1,35.83248496,127.1703815
봉의중학교,중학교,강원특별자치도,춘천시,후평동,498-120번지,37.87743853,127.7441016
팔렬중학교,중학교,강원특별자치도,홍천군,내촌면,물걸리 252번지,37.78372576,128.151705
용강중학교,중학교,서울특별시,용산구,이촌동,301-78,37.52157693,126.9754853
남원주중학교,중학교,강원특별자치도,원주시,단구동,1565-1 번지,37.32289526,127.945122
안동여자중학교,중학교,경상북도,안동시,법상동,1,36.57298365,128.7275685
모동중학교,중학교,부산광역시,사상구,모라동,75-12,35.18496213,129.0030872
한내여자중학교,중학교,충청남도,보령시,동대동,4-1,36.3496648,126.6237225
한산중학교,중학교,충청남도,서천군,한산면,성외리 198,36.09242718,126.8041285
문수중학교,중학교,울산광역시,남구,무거동,488-17,35.53837124,129.2572996
별망중학교,중학교,경기도,안산시,단원구,초지동 739-2,37.30449617,126.8125395
계화중학교,중학교,전북특별자치도,부안군,계화면,창북리 783,35.75980648,126.6949525
옥포중학교,중학교,경상남도,거제시,옥포동,781-2,34.89573315,128.6981136
생림중학교,중학교,경상남도,김해시,생림면,생철리 316-5,35.353465,128.8502498
칠보중학교,중학교,전북특별자치도,정읍시,칠보면,와우리 696,35.61302799,126.9933595
성보중학교,중학교,서울특별시,관악구,신림동,1690,37.48072837,126.9209573
신엄중학교,중학교,제주특별자치도,제주시,애월읍,신엄리 1247,33.47270585,126.3684672
웅상중학교,중학교,경상남도,양산시,평산동,297-3,35.37645026,129.1439927
간동중학교,중학교,강원특별자치도,화천군,간동면,유촌리 608-1,38.056341,127.7915913
옥정중학교,중학교,경기도,양주시,옥정동,산 100-7,37.82204162,127.0884206
장원중학교,중학교,서울특별시,중구,신당동,432-35,37.55396452,127.0060429
과천중학교,중학교,경기도,과천시,중앙동,12,37.433149,126.9893133
이의중학교,중학교,경기도,수원시,영통구,하동 981,37.2913276,127.0707668
중평중학교,중학교,서울특별시,노원구,하계동,271-2,37.63697638,127.062393
충주중학교,중학교,충청북도,충주시,호암동,192-1,36.95812516,127.9386753
매원중학교,중학교,경기도,수원시,영통구,매탄동 812,37.26661639,127.0452492
적상중학교,중학교,전북특별자치도,무주군,적상면,사산리 1210-1,35.93509921,127.6565828
김해삼계중학교,중학교,경상남도,김해시,삼계동,1425,35.26651465,128.8642383
대호중학교,중학교,경기도,오산시,궐동,617,37.16220081,127.0568708
어유중학교,중학교,경기도,파주시,적성면,어유지리 306,37.99392706,126.9882777
방이중학교,중학교,서울특별시,송파구,방이동,53,37.51501058,127.1132445
진평중학교,중학교,경상북도,구미시,진평동,178,36.09504481,128.4218139
묘산중학교,중학교,경상남도,합천군,묘산면,산제리 10,35.66049728,128.1135315
제천동중학교,중학교,충청북도,제천시,신백동,21,37.132634,128.2346597
황산중학교,중학교,전라남도,해남군,황산면,우항리 16-1,34.58080637,126.4473618
용인신촌중학교,중학교,경기도,용인시,기흥구,보정동 1268,37.31614242,127.1132682
감포중학교,중학교,경상북도,경주시,감포읍,오류리 478-2,35.81078851,129.5061535
대전용전중학교,중학교,대전광역시,대덕구,중리동,234-7,36.35658849,127.425228
인천서창중학교,중학교,인천광역시,남동구,서창동,543-7,37.43371946,126.7498088
다율중학교,중학교,경기도,파주시,다율동,1010,37.738582,126.728065
숙명여자중학교,중학교,서울특별시,강남구,도곡동,91,37.49147536,127.0526126
장안중학교,중학교,부산광역시,기장군,장안읍,좌천리 323,35.31450466,129.2407453
성복중학교,중학교,경기도,용인시,수지구,성복동 104-2,37.31974732,127.0764604
장흥장평중학교,중학교,전라남도,장흥군,장평면,용강리 52,34.77411141,126.9734838
화성세정중학교,중학교,경기도,화성시,동탄면,산척동 741,37.167167,127.124759
한천중학교,중학교,서울특별시,노원구,공릉동,481,37.63131395,127.072468
낙동중학교,중학교,경상북도,상주시,낙동면,낙동리 128-1,36.3654791,128.3001767
수지중학교,중학교,경기도,용인시,수지구,풍덕천동 663,37.33289857,127.0943635
영암여자중학교,중학교,전라남도,영암군,영암읍,동무리 4,34.80443156,126.7034113
동수원중학교,중학교,경기도,수원시,영통구,매탄동 1200,37.2712924,127.0547216
신천중학교,중학교,경기도,시흥시,신천동,262,37.43428739,126.782428
일직중학교,중학교,경상북도,안동시,일직면,귀미리 1016-3,36.4706707,128.6638115
성지중학교,중학교,대구광역시,달서구,이곡동,1300-2,35.85336693,128.5146753
매천중학교,중학교,대구광역시,북구,태전동,1128,35.91048477,128.547327
덕계중학교,중학교,경기도,양주시,덕계동,406-2,37.816207,127.0500454
백신중학교,중학교,경기도,고양시,일산동구,마두동 788,37.65133133,126.7831773
예당중학교,중학교,경기도,화성시,석우동,61-1,37.20806531,127.079278
평창중학교,중학교,강원특별자치도,평창군,평창읍,중리 350 번지,37.36861758,128.3993748
송탄중학교,중학교,경기도,평택시,지산동,1195,37.07656162,127.066572
홍익대학교사범대학부속여자중학교,중학교,서울특별시,마포구,성산동,산11-31,37.55964474,126.9132084
속초중학교,중학교,강원특별자치도,속초시,교동,776-8,38.20392531,128.5741808
신평중학교,중학교,경기도,하남시,신장동,214-3,37.5441467,127.2140723
부림중학교,중학교,경기도,안양시,동안구,관양동 1586-1,37.39806651,126.9532768
근덕중학교,중학교,강원특별자치도,삼척시,근덕면,교가리 540 번지,37.38492867,129.2243017
백마중학교,중학교,경기도,고양시,일산동구,마두동 733,37.65512778,126.7933085
삼숭중학교,중학교,경기도,양주시,삼숭동,679-1,37.79780068,127.1086048
여수웅천중학교,중학교,전라남도,여수시,웅천동,1672,34.75103353,127.674991
안산부곡중학교,중학교,경기도,안산시,상록구,부곡동 693,37.32381712,126.8587264
남면중학교,중학교,충청남도,태안군,남면,달산리 1174-2,36.67354349,126.3001728
솔샘중학교,중학교,서울특별시,강북구,미아동,837-734,37.62366717,127.0121792
진량중학교,중학교,경상북도,경산시,진량읍,신상리 1114-6,35.87727334,128.8110155
숭곡중학교,중학교,서울특별시,성북구,하월곡동,87-1,37.60847848,127.0312998
용신중학교,중학교,경기도,용인시,처인구,김량장동 466-1,37.23396718,127.1924527
의왕중학교,중학교,경기도,의왕시,오전동,350-1,37.35203705,126.9755771
선화여자중학교,중학교,인천광역시,미추홀구,도화동,241,37.47099649,126.6548626
감일중학교,중학교,경기도,하남시,감이동,532,37.50118776,127.1623407
대성중학교,중학교,서울특별시,은평구,갈현동,267-17,37.62314228,126.9097907
나포중학교,중학교,전북특별자치도,군산시,나포면,옥곤리 445-5,36.02778284,126.832334
상안중학교,중학교,울산광역시,북구,상안동,838-1,35.627825,129.3299248
전곡중학교,중학교,경기도,연천군,전곡읍,전곡리 400-3,38.03431521,127.071145
서라벌중학교,중학교,서울특별시,강북구,우이동,103-9,37.65698403,127.0114883
부광중학교,중학교,인천광역시,부평구,부개동,22-1,37.50101254,126.7374688
옥계중학교,중학교,경상북도,구미시,거의동,610-1,36.13852781,128.410856
신평중학교,중학교,충청남도,당진시,신평면,금천리 998-5,36.88245998,126.7601596
태평중학교,중학교,경기도,성남시,수정구,태평동 5140,37.44667267,127.1288292
화원중학교,중학교,대구광역시,달성군,화원읍,본리리 104-2,35.79899515,128.509593
삼호중학교,중학교,전라남도,영암군,삼호읍,용앙리 262,34.75075323,126.4674655
검단중학교,중학교,인천광역시,서구,마전동,908-2,37.6035808,126.6577475
중원중학교,중학교,서울특별시,노원구,중계동,511-3,37.64423868,127.0680295
신관중학교,중학교,서울특별시,관악구,신림동,산168-10,37.48020125,126.9344522
한얼중학교,중학교,경상남도,김해시,진영읍,여래리 479,35.30449312,128.7420673
대천중학교,중학교,부산광역시,남구,대연동,643-1,35.12854485,129.1033023
창덕중학교,중학교,경상남도,창원시,의창구,동읍 용잠리 282,35.277441,128.6888058
해동중학교,중학교,부산광역시,영도구,동삼동,산57,35.06967072,129.069638
장승중학교,중학교,서울특별시,동작구,상도동,175-1,37.50314858,126.940834
은성중학교,중학교,서울특별시,강남구,도곡동,938-10,37.48837857,127.0352324
서천중학교,중학교,충청남도,서천군,서천읍,군사리 601,36.07540844,126.6928792
동신중학교,중학교,대전광역시,동구,판암동,241,36.320296,127.4595324
모서중학교,중학교,경상북도,상주시,모서면,삼포리 222-3,36.34441508,127.961057
광성중학교,중학교,인천광역시,중구,도원동,12-73,37.467551,126.639567
동양중학교,중학교,서울특별시,동작구,흑석동,198-90,37.51022314,126.9574775
산동중학교,중학교,경상북도,영천시,화남면,삼창리 86,36.068362,128.897874
신백현중학교,중학교,경기도,성남시,분당구,백현동 566,37.38628783,127.1102305
효령중학교,중학교,대구광역시,군위군,효령면,중구리 355,36.15464034,128.5778532
동마중학교,중학교,서울특별시,성동구,마장동,405-45,37.56280251,127.0403512
경북중부중학교,중학교,경상북도,의성군,비안면,이두리 341,36.33827359,128.4912044
용문중학교,중학교,경기도,양평군,용문면,마룡리 663-2,37.49187337,127.5988154
난곡중학교,중학교,서울특별시,금천구,독산동,906-41,37.47804558,126.9107916
옥천중학교,중학교,충청북도,옥천군,옥천읍,삼양리 163,36.30561277,127.5692719
마산중앙중학교,중학교,경상남도,창원시,마산회원구,합성동 12-1,35.24269513,128.5969158
석우중학교,중학교,경기도,화성시,반송동,84,37.20830479,127.0704255
진천여자중학교,중학교,충청북도,진천군,진천읍,성석리 343,36.86921086,127.4562294
포항동해중학교,중학교,경상북도,포항시,남구,동해면 도구리 621,35.98983978,129.4398423
의왕부곡중학교,중학교,경기도,의왕시,월암동,431,37.31483225,126.9570769
대전만년중학교,중학교,대전광역시,서구,만년동,246,36.36704635,127.3763124
성곡중학교,중학교,대구광역시,달서구,용산동,527,35.86181094,128.522943
밀양중학교,중학교,경상남도,밀양시,삼문동,115-1,35.48341292,128.7560193
금성중학교,중학교,전라남도,나주시,대호동,899-1,35.0380384,126.712291
포천중학교,중학교,경기도,포천시,신북면,가채리 841-1,37.90694114,127.2025475
운정중학교,중학교,경기도,파주시,야당동,1032,37.707956,126.755632
발산중학교,중학교,경기도,고양시,일산서구,주엽동 56,37.66984321,126.7696268
온정중학교,중학교,경상북도,울진군,온정면,소태리 799-1,36.72653526,129.3466575
경안여자중학교,중학교,경상북도,안동시,금곡동,1-3,36.57250005,128.7231447
하남중학교,중학교,부산광역시,사하구,하단동,1181-2,35.09962347,128.9589257
만정중학교,중학교,경기도,안성시,공도읍,만정리 779-1,37.0086015,127.1729856
휘문중학교,중학교,서울특별시,강남구,대치동,952-1,37.50528945,127.061984
소천중학교,중학교,경상북도,봉화군,소천면,현동리 701-10,36.94233953,129.0006938
풍산중학교,중학교,경상북도,안동시,풍산읍,안교리 320,36.58414665,128.5665358
소현중학교,중학교,경기도,용인시,기흥구,보정동 1170,37.30158937,127.0937847
무원중학교,중학교,경기도,고양시,덕양구,행신동 695,37.6176865,126.830582
장흥향원중학교,중학교,전라남도,장흥군,장흥읍,건산리 448-1,34.68260537,126.9120574
부일여자중학교,중학교,인천광역시,부평구,부평동,755-45,37.484253,126.7194725
화정중학교,중학교,경기도,고양시,덕양구,화정동 941,37.63491092,126.8264796
동영중학교,중학교,충청남도,청양군,남양면,구룡리 402-1,36.40091037,126.7663426
영북중학교,중학교,경기도,포천시,영북면,운천리 385-1,38.09364006,127.2776573
서정중학교,중학교,경기도,고양시,덕양구,행신동 1070,37.618497,126.8497837
일산동중학교,중학교,경기도,고양시,일산서구,탄현동 1482,37.69537427,126.7680679
충주여자중학교,중학교,충청북도,충주시,교현동,369-1,36.97689631,127.9339639
지도중학교,중학교,경기도,고양시,덕양구,화정동 1134,37.62706051,126.8340317
구월여자중학교,중학교,인천광역시,남동구,구월동,1409-1,37.44854554,126.7027392
전주솔빛중학교,중학교,전북특별자치도,전주시,덕진구,송천동1가 127-29,35.85903251,127.124056
두광중학교,중학교,울산광역시,울주군,두서면,인보리 97-1,35.65515117,129.1689031
부계중학교,중학교,대구광역시,군위군,부계면,춘산리 496,36.07957908,128.6548326
진명여자중학교,중학교,경상남도,진주시,하대동,120-1,35.18786394,128.1256918
임자중학교,중학교,전라남도,신안군,임자면,대기리 353,35.09046024,126.0997368
철암중학교,중학교,강원특별자치도,태백시,철암동,산 61-12 번지,37.1218814,129.0442778
칠곡중학교,중학교,대구광역시,북구,읍내동,545,35.94817565,128.550746
한양대학교사범대학부속중학교,중학교,서울특별시,성동구,사근동,223,37.56191884,127.042324
장성삼서중학교,중학교,전라남도,장성군,삼서면,대곡리 297-1,35.229225,126.6518544
영덕중학교,중학교,경상북도,영덕군,영덕읍,화개리 72,36.41488843,129.3679427
영인중학교,중학교,충청남도,아산시,영인면,아산리 35-6,36.85439358,126.9614626
전주우아중학교,중학교,전북특별자치도,전주시,덕진구,우아동3가 602-21,35.85413557,127.1536003
광덕중학교,중학교,경기도,안산시,상록구,월피동 274,37.33746804,126.8460351
토평중학교,중학교,경기도,구리시,토평동,963,37.59005331,127.1443047
신광중학교,중학교,경상북도,포항시,북구,신광면 토성리 344,36.13077706,129.263967
동광양중학교,중학교,전라남도,광양시,중동,1730-2,34.945509997,127.6965072
옥과중학교,중학교,전라남도,곡성군,옥과면,율사리 271,35.27255501,127.1282988
무안북중학교,중학교,전라남도,무안군,무안읍,교촌리 257,34.98928006,126.467799
단월중학교,중학교,경기도,양평군,단월면,보룡리 396,37.541051,127.6725011
현암중학교,중학교,경기도,용인시,수지구,죽전동 1238,37.32955546,127.1218001
와우중학교,중학교,경기도,화성시,봉담읍,동화리 238-63,37.2191393,126.9660071
용인신릉중학교,중학교,경기도,용인시,기흥구,신갈동 689,37.29025948,127.1160249
의흥중학교,중학교,대구광역시,군위군,의흥면,읍내리 210-2,36.17476864,128.7211368
홍은중학교,중학교,서울특별시,서대문구,홍은동,183,37.59189151,126.9357524
합천중학교,중학교,경상남도,합천군,합천읍,합천리 293,35.56424376,128.166591
동도중학교,중학교,서울특별시,마포구,염리동,150,37.54670177,126.9469053
나주다시중학교,중학교,전라남도,나주시,다시면,영동리 453-30,35.01511534,126.6379377
심도중학교,중학교,인천광역시,강화군,화도면,상방리 845-1,37.63128211,126.4212324
신명중학교,중학교,충청북도,충주시,엄정면,용산리 387-1,37.08806988,127.910885
소성중학교,중학교,전북특별자치도,정읍시,소성면,등계리 909,35.55620959,126.7855099477
신안흑산중학교,중학교,전라남도,신안군,흑산면,진리 26,34.68286744,125.4327867
진안중학교,중학교,전북특별자치도,진안군,진안읍,군상리 1053-4,35.80074338,127.4183991
황금중학교,중학교,대구광역시,수성구,황금동,821,35.84414275,128.619483
부평동중학교,중학교,인천광역시,부평구,부개동,120-6,37.49665352,126.7408276
한광여자중학교,중학교,경기도,평택시,비전동,504,36.99789035,127.0960037
신연중학교,중학교,서울특별시,서대문구,연희동,1-107,37.58271543,126.9398364
동방여자중학교,중학교,대전광역시,서구,복수동,276,36.30623876,127.3746013
성화중학교,중학교,충청북도,청주시,서원구,성화동 615,36.61741372,127.459426
용호중학교,중학교,경기도,군포시,당동,883,37.34302578,126.9446325
삼성중학교,중학교,경상북도,의성군,단북면,노연리 377,36.3892258,128.428132
살레시오여자중학교,중학교,광주광역시,동구,지산동,480,35.14697577,126.9298381
북인천중학교,중학교,인천광역시,계양구,계산동,765,37.54258661,126.7171108
계산여자중학교,중학교,인천광역시,계양구,계산동,292,37.53635047,126.7326684
부흥중학교,중학교,부산광역시,해운대구,좌동,1304,35.17518509,129.1788134
인덕원중학교,중학교,경기도,안양시,동안구,관양동 1482,37.40224961,126.9714242
청도중학교,중학교,경상북도,청도군,청도읍,고수리 840-2,35.64073632,128.7479311
평택여자중학교,중학교,경기도,평택시,비전동,236-21,36.99300685,127.1030819
속초해랑중학교,중학교,강원특별자치도,속초시,금호동,625-37 번지,38.20675952,128.5844798
신현중학교,중학교,인천광역시,서구,신현동,212-11,37.51991492,126.6642505
도곡중학교,중학교,경기도,평택시,포승읍,도곡리 1112,36.989221,126.8487617
만수중학교,중학교,인천광역시,남동구,만수동,48,37.45480199,126.7374800416
동주여자중학교,중학교,부산광역시,사하구,괴정동,380-1,35.100772,129.0013638
학남중학교,중학교,대구광역시,북구,국우동,1085,35.94553027,128.570413
중산중학교,중학교,경기도,고양시,일산동구,중산동 1575-2,37.69140401,126.7835017
감만중학교,중학교,부산광역시,남구,감만동,2-1,35.12173218,129.0892609
화순북면중학교,중학교,전라남도,화순군,백아면,이천리 26,35.166156,127.1340919
강북중학교,중학교,대구광역시,북구,구암동,787-1,35.93870319,128.5648981
집현중학교,중학교,세종특별자치시,금남면,집현리,883-50,36.49102686,127.3218875
충주북여자중학교,중학교,충청북도,충주시,교현동,490,36.98004113,127.9390387
영흥중학교,중학교,인천광역시,옹진군,영흥면,내리 496-95,37.26520659,126.4794201
남수원중학교,중학교,경기도,수원시,권선구,권선동 1244,37.25199587,127.0336582
작전중학교,중학교,인천광역시,계양구,작전동,85,37.5335682,126.7294678
광주동명중학교,중학교,광주광역시,서구,쌍촌동,1320-1,35.15980175,126.8566005
산양중학교,중학교,경상북도,문경시,산양면,불암리 210,36.6133604,128.255518
동덕여자중학교,중학교,서울특별시,서초구,방배동,산81-5,37.47587863,126.991995
청옥중학교,중학교,경기도,평택시,청북읍,옥길리 1126,37.01478998,126.9150395
신흥중학교,중학교,경상북도,포항시,남구,오천읍 세계리 700-3,35.96497037,129.4224437
명곡여자중학교,중학교,경상남도,창원시,의창구,명서동 117,35.24370853,128.6449711
고척중학교,중학교,서울특별시,구로구,고척동,76-2,37.49974083,126.8613425
강현중학교,중학교,서울특별시,동작구,상도동,335-5,37.50311599,126.9307563
문창중학교,중학교,서울특별시,동작구,신대방동,364-58,37.495803,126.9224055
양동중학교,중학교,경기도,양평군,양동면,쌍학리 215-2,37.42168348,127.755652
계산중학교,중학교,인천광역시,계양구,계산동,1085-4,37.53455221,126.7425839
영광여자중학교,중학교,경상북도,영주시,영주동,139,36.83289851,128.6208221
나주반남중학교,중학교,전라남도,나주시,반남면,흥덕리 22-15,34.90175176,126.6521307
광혜원중학교,중학교,충청북도,진천군,광혜원면,광혜원리 520,36.99214384,127.440182
용동중학교,중학교,경기도,용인시,처인구,양지면 남곡리 164-5,37.23151178,127.2829773
인천청람중학교,중학교,인천광역시,서구,청라동,140-5,37.5387195,126.6438114
인천공항중학교,중학교,인천광역시,중구,운서동,2747-8,37.49774785,126.4841639
포항제철중학교,중학교,경상북도,포항시,남구,지곡동 52,36.02230834,129.3270264
덕양중학교,중학교,경기도,고양시,덕양구,화전동 274-3,37.60465416,126.8717155
청운중학교,중학교,경기도,양평군,청운면,용두리 690-4,37.55334405,127.711468
대보중학교,중학교,경상북도,포항시,남구,호미곶면 대보리 214,36.07565376,129.5672519
웅동중학교,중학교,경상남도,창원시,진해구,두동 1166-4,35.11282287,128.7962528
의림여자중학교,중학교,충청북도,제천시,하소동,49-5,37.14280399,128.197346
교하중학교,중학교,경기도,파주시,동패동,1706,37.72281294,126.7208925
안천중학교,중학교,전북특별자치도,진안군,안천면,백화리 1550,35.90029728,127.5601694
오마중학교,중학교,경기도,고양시,일산서구,주엽동 4,37.6776984,126.761562
가람중학교,중학교,경기도,고양시,덕양구,행신동 927,37.62365997,126.8412071
금곡중학교,중학교,경기도,남양주시,금곡동,152-9,37.6339474,127.2145117
운천중학교,중학교,경기도,오산시,오산동,911-1,37.15829932,127.078007
대전대청중학교,중학교,대전광역시,대덕구,신탄진동,149-5,36.44891127,127.4378826
국사봉중학교,중학교,서울특별시,동작구,상도동,214-437,37.49353263,126.9440557
서원중학교,중학교,경기도,용인시,수지구,상현동 834,37.3018915,127.0805582
속리산중학교,중학교,충청북도,보은군,삼승면,내망리 653,36.39305285,127.7362021
동암중학교,중학교,인천광역시,부평구,십정동,589,37.47415487,126.7058161
양진중학교,중학교,경기도,안성시,공도읍,진사리 135-8,36.98582893,127.1438654
인천해원중학교,중학교,인천광역시,서구,청라동,103-25,37.52723444,126.6280402
단국대학교사범대학부속중학교,중학교,서울특별시,강남구,대치동,1013-2,37.49561749,127.0577682
동평여자중학교,중학교,부산광역시,부산진구,부암동,450-1,35.17040463,129.0435305
신목중학교,중학교,서울특별시,양천구,목동,902-1,37.53702399,126.8730725
부곡중학교,중학교,부산광역시,금정구,부곡동,산56-3,35.23143656,129.0961977
강동중학교,중학교,대구광역시,동구,신서동,559,35.86694911,128.729474
운동중학교,중학교,충청북도,청주시,상당구,용암동 2946,36.60532067,127.5137136
대전대성여자중학교,중학교,대전광역시,동구,가양동,309-7,36.33772604,127.4405617
원삼중학교,중학교,경기도,용인시,처인구,원삼면 고당리 95-1,37.16816305,127.3093128
담양여자중학교,중학교,전라남도,담양군,담양읍,강쟁리 176,35.29960333,126.9762152
늘푸른중학교,중학교,경기도,성남시,분당구,정자동 178-6,37.35739426,127.1051176
모계중학교,중학교,경상북도,청도군,화양읍,범곡리 117,35.6494626,128.7359915
연화중학교,중학교,인천광역시,연수구,연수동,632,37.41233122,126.6803368
인송중학교,중학교,인천광역시,연수구,옥련동,194-28,37.42690268,126.6426349
삼산중학교,중학교,인천광역시,부평구,삼산동,445-1,37.51666884,126.7361058
유강중학교,중학교,경상북도,포항시,남구,연일읍 유강리 143-5,36.00900446,129.3181196
아포중학교,중학교,경상북도,김천시,아포읍,국사리 757-1,36.15917383,128.2429083
광평중학교,중학교,경상북도,구미시,광평동,160,36.11651264,128.3568194
상도중학교,중학교,경상북도,포항시,남구,대도동 157-1,36.01453645,129.3616232
장흥중학교,중학교,전라남도,장흥군,장흥읍,건산리 506,34.68363266,126.9103612
언북중학교,중학교,서울특별시,강남구,논현동,69,37.51942855,127.0331263
광신중학교,중학교,서울특별시,관악구,신림동,산87-6,37.4644762,126.9259406
인천석남중학교,중학교,인천광역시,서구,석남동,329-7,37.498987,126.6795646
백암중학교,중학교,경기도,용인시,처인구,백암면 근창리 166,37.164968,127.3685728
중원중학교,중학교,충청북도,충주시,동량면,대전리 1507-1,37.03586225,127.929891
오태중학교,중학교,경상북도,구미시,오태동,613-2,36.07176063,128.3540672
옥계동부중학교,중학교,경상북도,구미시,옥계동,911,36.13905171,128.426171
강진작천중학교,중학교,전라남도,강진군,작천면,평리 172-1,34.70612997,126.7706339
산본중학교,중학교,경기도,군포시,산본동,1088-2,37.3695021,126.9271263
송도중학교,중학교,인천광역시,중구,답동,36,37.46826663,126.6289964
발곡중학교,중학교,경기도,의정부시,신곡동,724-3,37.72744102,127.0549978
창신중학교,중학교,경상남도,창원시,마산회원구,봉암동 511-8,35.22433034,128.5973703
회인중학교,중학교,충청북도,보은군,회인면,중앙리 130,36.49453108,127.5967488
상지여자중학교,중학교,경상북도,상주시,함창읍,오동리 635,36.5693225,128.1851504
세지중학교,중학교,전라남도,나주시,세지면,오봉리 279-2,34.91802313,126.7483047
성의중학교,중학교,경상북도,김천시,지좌동,621,36.11395555,128.1389811
대전가양중학교,중학교,대전광역시,동구,가양동,36-2,36.35085594,127.4486569
의정부여자중학교,중학교,경기도,의정부시,가능동,653-24,37.74996862,127.039693
용현중학교,중학교,인천광역시,미추홀구,용현동,627-435,37.44785506,126.639544
우수영중학교,중학교,전라남도,해남군,문내면,동외리 880-1,34.59539971,126.312378
판곡중학교,중학교,경기도,남양주시,호평동,456-3,37.66279729,127.2419367
상원여자중학교,중학교,경기도,성남시,수정구,단대동 57,37.45701189,127.1580691
함박중학교,중학교,인천광역시,연수구,청학동,109-1,37.42443194,126.6615319
금정중학교,중학교,경기도,군포시,금정동,870-5,37.35663236,126.9390466
신곡중학교,중학교,경기도,의정부시,신곡동,685-2,37.74316219,127.0598807
민락중학교,중학교,경기도,의정부시,민락동,692-10,37.74089695,127.095632
봉화중학교,중학교,서울특별시,중랑구,망우동,122-1,37.59582753,127.1043156
동인천중학교,중학교,인천광역시,남동구,구월동,1089-1,37.45482878,126.697536
장안중학교,중학교,경기도,성남시,분당구,분당동 114,37.37142116,127.1466862
안양서중학교,중학교,경기도,안양시,만안구,안양동 1055-3,37.38592792,126.9043162
용곡중학교,중학교,서울특별시,광진구,중곡동,176-77,37.56595126,127.0890896
벌교여자중학교,중학교,전라남도,보성군,벌교읍,벌교리 508,34.84501119,127.3407995
다인중학교,중학교,경상북도,의성군,다인면,도암리 283,36.45317309,128.3551268
풍기중학교,중학교,경상북도,영주시,풍기읍,동부리 369,36.87028488,128.5315522
원화중학교,중학교,대구광역시,달서구,성당동,670-30,35.84830827,128.5491224
거제고현중학교,중학교,경상남도,거제시,고현동,368,34.87766458,128.6247295
성산중학교,중학교,서울특별시,마포구,합정동,365-1,37.54731637,126.9165629
목포제일중학교,중학교,전라남도,목포시,용해동,170-5,34.796132,126.4069043
연무중학교,중학교,경기도,수원시,영통구,이의동 1325,37.29290141,127.0518821
인수중학교,중학교,서울특별시,강북구,수유동,551,37.64386667,127.0099213
문성중학교,중학교,서울특별시,금천구,독산동,61,37.4754682,126.9084938
배명중학교,중학교,서울특별시,송파구,삼전동,172-1,37.4976895,127.0958118
동구중학교,중학교,경기도,구리시,인창동,483-7,37.61261522,127.1350602
남평중학교,중학교,전라남도,나주시,남평읍,동사리 165,35.04569913,126.8463686
정수중학교,중학교,충청북도,영동군,양산면,송호리 70-1,36.12676451,127.6780589
선주중학교,중학교,경상북도,구미시,봉곡동,6,36.14257948,128.3132347
화령중학교,중학교,경상북도,상주시,화서면,달천리 503-1,36.44245211,127.9458942
매곡중학교,중학교,울산광역시,북구,매곡동,490-1,35.64485557,129.3493936
진남중학교,중학교,광주광역시,남구,노대동,828,35.1067586,126.908715
용담중학교,중학교,전북특별자치도,진안군,용담면,송풍리 1002,35.9652011,127.5185427
군포중학교,중학교,경기도,군포시,당동,735,37.35790182,126.9449292
동국대학교사범대학부속중학교,중학교,서울특별시,동대문구,장안동,328,37.57804718,127.075171
어람중학교,중학교,경기도,남양주시,오남읍,오남리 358-1,37.68200711,127.214868
흥덕중학교,중학교,경기도,용인시,기흥구,영덕동 959,37.27678653,127.0797285
강진중학교,중학교,전라남도,강진군,강진읍,동성리 5-1,34.64390492,126.7785187
반여중학교,중학교,부산광역시,해운대구,반여동,1594-74,35.19992192,129.1361577
전주화정중학교,중학교,전북특별자치도,전주시,덕진구,송천동2가 1340,35.87164049,127.130461
문래중학교,중학교,서울특별시,영등포구,문래동6가,44,37.52041829,126.8841404
하남중학교,중학교,경기도,하남시,창우동,521-5,37.53645843,127.222936
순천신흥중학교,중학교,전라남도,순천시,해룡면,상삼리 611,34.95132643,127.5266916
수서중학교,중학교,서울특별시,강남구,수서동,710,37.49120377,127.1023799
비봉중학교,중학교,경기도,화성시,비봉면,삼화리 527-2,37.23724717,126.8726902
파주중학교,중학교,경기도,파주시,파주읍,연풍리 445,37.83304398,126.8296957
화성중학교,중학교,경기도,화성시,향남읍,장짐리 161,37.13902926,126.9064904
녹동중학교,중학교,전라남도,고흥군,도양읍,봉암리 1824,34.53563455,127.1366964
개림중학교,중학교,부산광역시,부산진구,개금동,445-1,35.15742419,129.0179689
광석중학교,중학교,충청남도,논산시,광석면,천동리 642-1,36.23858258,127.0813186
진주동명중학교,중학교,경상남도,진주시,초전동,515,35.20257652,128.1186019
장안중학교,중학교,서울특별시,중랑구,중화동,288-26,37.60077444,127.0809965
신천중학교,중학교,서울특별시,송파구,잠실동,19-4,37.51625001,127.0792834
보문중학교,중학교,대전광역시,동구,삼성동,283-58,36.33697696,127.424152
광명중학교,중학교,경기도,광명시,철산동,234-3,37.47842348,126.8675734
도암중학교,중학교,전라남도,강진군,도암면,석문리 279,34.54979412,126.722921
제원중학교,중학교,충청남도,금산군,제원면,명암리 167-1,36.11216135,127.5405112
김천중앙중학교,중학교,경상북도,김천시,삼락동,548,36.141442,128.0842226
문정중학교,중학교,서울특별시,송파구,문정동,12-1,37.48848095,127.1300209
흥진중학교,중학교,경기도,군포시,금정동,875-6,37.352861,126.9285268
수남중학교,중학교,경상남도,김해시,율하동,1394,35.17175906,128.8190488
청원중학교,중학교,서울특별시,노원구,상계동,641,37.66525155,127.0625329
산곡중학교,중학교,인천광역시,부평구,산곡동,180-356,37.50424716,126.6991626
퇴계원중학교,중학교,경기도,남양주시,퇴계원읍,퇴계원리 283-1,37.65236033,127.141466
청송중학교부동분교장,중학교,경상북도,청송군,주왕산면,주산지리 916,36.358059,129.157434
장평중학교,중학교,서울특별시,동대문구,장안동,352,37.56685961,127.0704776
양수중학교,중학교,경기도,양평군,양서면,용담리 212,37.544741,127.3256681
용인한빛중학교,중학교,경기도,용인시,수지구,동천동 925,37.3372256,127.084866
함안여자중학교,중학교,경상남도,함안군,가야읍,도항리 463,35.27250669,128.4024888
순심중학교,중학교,경상북도,칠곡군,왜관읍,왜관리 340,35.9864732,128.403217
당동중학교,중학교,경기도,군포시,당동,982-2,37.34543137,126.9372674
광양중학교,중학교,서울특별시,광진구,자양동,674,37.53089134,127.0861699868
경신중학교,중학교,대구광역시,수성구,범어동,100-5,35.855437,128.6375875
인천동방중학교,중학교,인천광역시,남동구,논현동,633-7,37.40431576,126.7192593
생극중학교,중학교,충청북도,음성군,생극면,신양리 492,37.03708115,127.6051369
신흥여자중학교,중학교,인천광역시,중구,신흥동3가,7-210,37.45404114,126.632101
대성여자중학교,중학교,충청북도,청주시,상당구,수동 398-4,36.64433671,127.4923634
영문중학교,중학교,경기도,용인시,처인구,포곡읍 영문리 554,37.2719248,127.208493
문흥중학교,중학교,광주광역시,북구,문흥동,1008-1,35.18608494,126.9179996
지보중학교,중학교,경상북도,예천군,지보면,마전리 142-1,36.54457556,128.3880699956
상원중학교,중학교,서울특별시,노원구,상계동,632,37.67176621,127.059504
소안중학교,중학교,전라남도,완도군,소안면,비자리 874,34.17355884,126.656019
범계중학교,중학교,경기도,안양시,동안구,호계동 1054-5,37.38471774,126.955357
제주중앙여자중학교,중학교,제주특별자치도,제주시,삼도이동,594-13,33.505201,126.5216203
봉산중학교,중학교,광주광역시,광산구,산월동,885-4,35.20952981,126.844778
신길중학교,중학교,경기도,안산시,단원구,신길동 1549,37.33713186,126.787655
능실중학교,중학교,경기도,수원시,권선구,호매실동 1390,37.26094165,126.9562586
현화중학교,중학교,경기도,평택시,안중읍,현화리 827,36.9824163,126.920036
장흥용산중학교,중학교,전라남도,장흥군,용산면,인암리 789-7,34.61668729,126.9139463
나곡중학교,중학교,경기도,용인시,기흥구,보라동 559,37.25143052,127.1245131
충북대학교사범대학부설중학교,중학교,충청북도,청주시,흥덕구,가경동 176-9,36.6239268,127.438528
천보중학교,중학교,경기도,의정부시,금오동,469-2,37.75069397,127.0650594
인창중학교,중학교,경기도,구리시,인창동,669-2,37.606515,127.1464064
충무여자중학교,중학교,경상남도,통영시,인평동,385,34.841437,128.3963458
시흥매화중학교,중학교,경기도,시흥시,매화동,269,37.41319048,126.8159638
대전둔원중학교,중학교,대전광역시,서구,갈마동,1416,36.34273256,127.376679
유가중학교,중학교,대구광역시,달성군,유가읍,봉리 626,35.69112229,128.4676564
금촌중학교,중학교,경기도,파주시,금릉동,449,37.75127115,126.7787863
순심여자중학교,중학교,경상북도,칠곡군,왜관읍,왜관리 776-9,35.98647718,128.3958253
강동중학교,중학교,울산광역시,북구,산하동,755,35.62955456,129.4351287
송라중학교,중학교,경상북도,포항시,북구,송라면 광천리 184,36.22834872,129.3543734
천곡중학교,중학교,울산광역시,북구,천곡동,392,35.63274613,129.3408015
포천여자중학교,중학교,경기도,포천시,신북면,가채리 821,37.905506,127.1999927
안곡중학교,중학교,경기도,고양시,일산동구,중산동 1709,37.681007,126.7868841
발안중학교,중학교,경기도,화성시,향남읍,평리 63-18,37.132845,126.9187019
일산중학교,중학교,경기도,고양시,일산서구,일산동 966-50,37.68897122,126.7683384
부안중학교,중학교,경기도,안양시,동안구,관양동 1588-5,37.39909518,126.9606259
덕이중학교,중학교,경기도,고양시,일산서구,덕이동 1531,37.70291507,126.7536353
장성중학교,중학교,경기도,고양시,일산서구,대화동 2096,37.68131955,126.7513728
봉화중학교,중학교,경상북도,봉화군,봉화읍,삼계리 40,36.89603742,128.7399693
문명중학교,중학교,경상북도,경산시,백천동,산16,35.80503215,128.7451394
영남중학교,중학교,부산광역시,사하구,장림동,3-4,35.07480267,128.9825999
평내중학교,중학교,경기도,남양주시,평내동,591,37.64804303,127.2382105
영동중학교,중학교,경상북도,영천시,야사동,393,35.97778874,128.9465541
무극중학교,중학교,충청북도,음성군,금왕읍,무극리 23-2,36.98959289,127.5920362
송도중학교,중학교,부산광역시,서구,남부민동,611-236,35.08289193,129.022422
성문중학교,중학교,경기도,안양시,만안구,안양동 501-28,37.37984308,126.9246852
도촌중학교,중학교,경기도,성남시,중원구,도촌동 637,37.41676815,127.1542449
연성중학교,중학교,인천광역시,연수구,동춘동,923-7,37.40899233,126.6773207
인천고잔중학교,중학교,인천광역시,남동구,논현동,755-3,37.39602955,126.7318796
오남중학교,중학교,경기도,남양주시,오남읍,양지리 49,37.701337,127.2058536
정천중학교,중학교,경기도,수원시,팔달구,화서동 708,37.28939916,126.981942
단산중학교,중학교,경상북도,영주시,단산면,단곡리 7-1,36.95287388,128.6167225
부산예술중학교,중학교,부산광역시,금정구,구서동,산60-1,35.24704234,129.0981972
양일중학교,중학교,경기도,양평군,양평읍,양근리 148,37.49437051,127.4934909
영주중학교,중학교,경상북도,영주시,휴천동,704-7,36.82000404,128.6320371
진교중학교,중학교,경상남도,하동군,진교면,진교리 560-1,35.03648168,127.8997632
형곡중학교,중학교,경상북도,구미시,형곡동,289-2,36.10630547,128.330934
구천중학교,중학교,경상북도,청송군,부남면,하속리 90,36.31362921,129.0988847
고흥도덕중학교,중학교,전라남도,고흥군,도덕면,신양리 1350,34.57551603,127.1755625
안성중학교,중학교,전북특별자치도,무주군,안성면,사전리 1224,35.86958714,127.6544784
신흥중학교,중학교,인천광역시,중구,신흥동3가,7-338,37.45416657,126.629903
여도중학교,중학교,전라남도,여수시,봉계동,37,34.7841399,127.6943999
솔뫼중학교,중학교,경기도,의정부시,용현동,196,37.73083839,127.0823822
동두천여자중학교,중학교,경기도,동두천시,생연동,471-2,37.90667068,127.0608065
덕풍중학교,중학교,경기도,하남시,덕풍동,760,37.55369803,127.1992248
동화중학교,중학교,경기도,남양주시,다산동,4106,37.60793099,127.1619037
음성중학교,중학교,충청북도,음성군,음성읍,읍내리 274-3,36.93587078,127.6955885
동진중학교,중학교,경상남도,창원시,진해구,자은동 793-7,35.14416613,128.7051285
포승중학교,중학교,경기도,평택시,포승읍,방림리 55-2,36.98198727,126.8817813
남문중학교,중학교,경기도,양주시,남면,신산리 187-1,37.89719133,126.9798943
동산중학교,중학교,인천광역시,동구,송림동,97-20,37.47303977,126.6488935
무산중학교,중학교,경상북도,경주시,건천읍,천포리 636,35.84478145,129.0961167
광양제철중학교,중학교,전라남도,광양시,금호동,679,34.94862438,127.7277236
호계중학교,중학교,울산광역시,북구,매곡동,909,35.63421792,129.3583911
우신중학교,중학교,서울특별시,구로구,궁동,230,37.49490231,126.8263536
강진칠량중학교,중학교,전라남도,강진군,칠량면,영복리 600,34.57155476,126.796534
반송여자중학교,중학교,경상남도,창원시,성산구,반림동 19,35.23577251,128.674391
대신여자중학교,중학교,부산광역시,서구,동대신동2가,87-9,35.11379741,129.0238427
삼정자중학교,중학교,경상남도,창원시,성산구,성주동 105,35.20123356,128.7121935
성남여자중학교,중학교,경상북도,영천시,도동,213-1,35.9492794,128.9317962
용인백현중학교,중학교,경기도,용인시,기흥구,동백동 591,37.280995,127.164679
지품중학교,중학교,경상북도,영덕군,지품면,신안리 92-4,36.450434,129.283436
호서중학교,중학교,충청남도,당진시,원당동,918,36.899987,126.6373826
학산중학교,중학교,충청북도,영동군,학산면,서산리 902,36.10090506,127.6820366
낙원중학교,중학교,경기도,성남시,분당구,판교동 518,37.39919048,127.0961776
부구중학교,중학교,경상북도,울진군,북면,부구리 863-7,37.09932894,129.3558265
도개중학교,중학교,경상북도,구미시,도개면,궁기리 754,36.30151219,128.3301698
라온중학교,중학교,경기도,평택시,서정동,2-73,37.069442,127.0669522
장당중학교,중학교,경기도,평택시,장당동,640,37.05165213,127.0631855
남인천여자중학교,중학교,인천광역시,미추홀구,관교동,335-19,37.44511845,126.6940513
인천정각중학교,중학교,인천광역시,남동구,구월동,24-4,37.455616,126.7167721
전동중학교,중학교,서울특별시,동대문구,휘경동,49-295,37.58619359,127.0709291
상록중학교,중학교,경기도,안산시,상록구,본오동 1122,37.30011319,126.8695749
송전중학교,중학교,경기도,용인시,처인구,이동읍 송전리 692,37.1404346,127.2007625
신탄중앙중학교,중학교,대전광역시,대덕구,덕암동,19-1,36.44137005,127.4242729
합덕여자중학교,중학교,충청남도,당진시,합덕읍,소소리 51-5,36.81339746,126.7602995
관교여자중학교,중학교,인천광역시,미추홀구,관교동,512,37.44513573,126.6889705
경주여자중학교,중학교,경상북도,경주시,서악동,255,35.83947751,129.1951452
금계중학교,중학교,경상북도,영주시,풍기읍,금계리 279-2,36.88578033,128.524135
이목중학교,중학교,경기도,수원시,장안구,이목동 241,37.31831824,126.9823353
한송중학교,중학교,충청북도,제천시,한수면,송계리 753,36.88300948,128.0800468
봉원중학교,중학교,서울특별시,관악구,봉천동,25-19,37.48410274,126.9588909
남사중학교,중학교,경기도,용인시,처인구,남사면 봉무리 435,37.11610922,127.1493131
종촌중학교,중학교,세종특별자치시,종촌동,675,,36.502773,127.245684
고흥대서중학교,중학교,전라남도,고흥군,대서면,화산리 1305,34.77477904,127.2854955
오천중학교,중학교,경상북도,포항시,남구,오천읍 용덕리 267,35.96902488,129.412792
대부중학교,중학교,경기도,안산시,단원구,대부북동 697-6,37.24776227,126.5790618
청구중학교,중학교,대구광역시,동구,신천동,850-6,35.868658,128.6205716
신송중학교,중학교,인천광역시,연수구,송도동,3-43,37.38938908,126.6566575
상계중학교,중학교,서울특별시,노원구,상계동,195-5,37.65260154,127.0689222
문현중학교,중학교,서울특별시,송파구,장지동,838-3,37.48058417,127.1279464
홍천중학교,중학교,경기도,용인시,수지구,신봉동 28-1,37.32110222,127.076475
창원남중학교,중학교,경상남도,창원시,성산구,외동 257-7,35.21397156,128.6797496
창원여자중학교,중학교,경상남도,창원시,의창구,팔용동 186,35.25933184,128.6164149
전주우림중학교,중학교,전북특별자치도,전주시,완산구,효자동2가 1199-3,35.80570638,127.0990235
나주봉황중학교,중학교,전라남도,나주시,봉황면,죽석리 677-9,34.9551506,126.7770113
금성중학교,중학교,경상북도,의성군,금성면,탑리리 582,36.25441645,128.690147
영암도포중학교,중학교,전라남도,영암군,도포면,구학리 370-3,34.85005914,126.6434204
광양중동중학교,중학교,전라남도,광양시,중동,1672,34.93402774,127.691661
부산중학교,중학교,부산광역시,동구,초량동,777-1,35.12222306,129.0368658
송라중학교,중학교,경기도,남양주시,화도읍,마석우리 592,37.65460152,127.3029538
휘경여자중학교,중학교,서울특별시,동대문구,휘경동,43-7,37.58190052,127.0674341
안강중학교,중학교,경상북도,경주시,안강읍,안강리 597-4,35.99278593,129.2298034
화양중학교,중학교,전라남도,여수시,화양면,나진리 701,34.707875,127.6039821
수동중학교,중학교,경기도,남양주시,수동면,입석리 333-5,37.70912577,127.324817
청하중학교,중학교,경상북도,포항시,북구,청하면 덕성리 384-1,36.19465393,129.335806
장전중학교,중학교,부산광역시,금정구,장전동,521-183,35.22878812,129.077944
여량중학교,중학교,강원특별자치도,정선군,여량면,여량리 87 번지,37.46878049,128.7263062
남원중학교,중학교,제주특별자치도,서귀포시,남원읍,남원리 171-1,33.28225502,126.7175237
인천성리중학교,중학교,인천광역시,남동구,구월동,1488,37.44498465,126.7098073
문경서중학교,중학교,경상북도,문경시,문경읍,상리 351,36.73977014,128.1061611
울산서여자중학교,중학교,울산광역시,남구,신정동,1632-6,35.53212011,129.2999784
웅남중학교,중학교,경상남도,창원시,성산구,상남동 53,35.21622905,128.6889637
매괴여자중학교,중학교,충청북도,음성군,감곡면,왕장리 510-1,37.12067594,127.6406558
광무여자중학교,중학교,부산광역시,부산진구,개금동,55,35.16205208,129.0297927
금일중학교생일분교장,중학교,전라남도,완도군,생일면,유서리 626,34.33481853,126.9902527
남양중학교,중학교,경기도,화성시,남양읍,남양리 1663,37.20792368,126.8215994
봉명중학교,중학교,충청북도,청주시,흥덕구,봉명동 1305,36.6468051,127.460418
마산서중학교,중학교,경상남도,창원시,마산합포구,월영동 534-20,35.17852774,128.557306
경안중학교,중학교,경기도,광주시,장지동,61-20,37.39510409,127.2469066
태장중학교,중학교,경기도,수원시,영통구,영통동 970-1,37.24899233,127.0651888
안강여자중학교,중학교,경상북도,경주시,안강읍,산대리 1855-3,35.993332,129.2108269
김해서중학교,중학교,경상남도,김해시,주촌면,선지리 1468,35.23335181,128.8460221
율곡중학교,중학교,경기도,파주시,법원읍,법원리 378,37.8493834,126.8811406
영광중학교,중학교,경상북도,영주시,영주동,88-1,36.82869809,128.6201762
신안신의중학교,중학교,전라남도,신안군,신의면,상태동리 420-1,34.59074284,126.0797056
문일중학교,중학교,서울특별시,금천구,시흥동,559-1,37.44891526,126.8987207
벌교중학교,중학교,전라남도,보성군,벌교읍,봉림리 303-3,34.85005681,127.343834
백석중학교,중학교,인천광역시,서구,백석동,65-3,37.57941676,126.674244
학성중학교,중학교,울산광역시,남구,신정동,1632-1,35.53321026,129.2996362
포항영신중학교,중학교,경상북도,포항시,북구,우현동 산63-13,36.05945253,129.351381
사직여자중학교,중학교,부산광역시,동래구,사직동,977-5,35.19429438,129.055347
비금중학교,중학교,전라남도,신안군,비금면,덕산리 714,34.75982764,125.9232613
나주동강중학교,중학교,전라남도,나주시,동강면,인동리 759-2,34.93913431,126.559516
영일중학교,중학교,경기도,수원시,영통구,영통동 1004,37.2496833,127.0758513
현대청운중학교,중학교,울산광역시,동구,서부동,290-1,35.53528728,129.4275196
부원중학교,중학교,인천광역시,부평구,부평동,70-131,37.49242189,126.7165915
호매실중학교,중학교,경기도,수원시,권선구,호매실동 395-27,37.26848379,126.955446
마차중학교,중학교,강원특별자치도,영월군,북면,마차리 1332-23 번지,37.25532941,128.4513289
인천안남중학교,중학교,인천광역시,계양구,계산동,58-1,37.53945155,126.730699
이충중학교,중학교,경기도,평택시,이충동,675,37.059522,127.0689900064
축산중학교,중학교,경상북도,영덕군,축산면,도곡리 450,36.51351428,129.4063797
지평중학교,중학교,경기도,양평군,지평면,지평리 553,37.47447401,127.6345589
강구중학교,중학교,경상북도,영덕군,강구면,삼사리 21,36.35361053,129.3803591
군위중학교,중학교,대구광역시,군위군,군위읍,정리 248-12,36.24547463,128.5697899
서울대학교사범대학부설중학교,중학교,서울특별시,성북구,종암동,7-10,37.59582047,127.0391333
옥산중학교,중학교,경상북도,의성군,옥산면,구성리 408-1,36.3941915,128.8099059
당리중학교,중학교,부산광역시,사하구,당리동,438-1,35.1022387,128.980524
반월중학교,중학교,경기도,안산시,상록구,팔곡일동 253-1,37.30459717,126.8992679
한일여자중학교,중학교,경상북도,김천시,교동,527-1,36.13774035,128.0958438
제물포여자중학교,중학교,인천광역시,미추홀구,주안동,1529,37.44914564,126.6882045
경화여자중학교,중학교,경기도,광주시,송정동,52-1,37.41824307,127.2639914
석촌중학교,중학교,서울특별시,송파구,가락동,43,37.50145499,127.1211174
동로중학교,중학교,경상북도,문경시,동로면,적성리 617-1,36.77602945,128.3136429
하청중학교,중학교,경상남도,거제시,하청면,하청리 698-1,34.9546126,128.6529294
양오중학교,중학교,경기도,남양주시,오남읍,양지리 616-2,37.69767148,127.193132
논곡중학교,중학교,인천광역시,남동구,논현동,553-21,37.41492161,126.712087
서문여자중학교,중학교,서울특별시,서초구,방배동,1514,37.48891973,126.984562
만성중학교,중학교,인천광역시,남동구,만수동,1005-6,37.44923153,126.7379834
정평중학교,중학교,경기도,용인시,수지구,풍덕천동 1117,37.31807594,127.087803
무안현경중학교,중학교,전라남도,무안군,현경면,외반리 580,35.02486435,126.4103098
삼계중학교,중학교,전라남도,장성군,삼계면,사창리 339,35.2584815,126.6654827
영산중학교,중학교,전라남도,나주시,삼영동,17,35.00894093,126.7139419
송우중학교,중학교,경기도,포천시,소흘읍,송우리 725-2,37.83562657,127.1444797
구리중학교,중학교,경기도,구리시,수택동,784,37.58969179,127.1408316
강빛중학교,중학교,서울특별시,강동구,강일동,121-3,37.57434332,127.1707749
동탄중학교,중학교,경기도,화성시,청계동,528,37.19901116,127.1090809
관음중학교,중학교,대구광역시,북구,관음동,1340,35.941011,128.5464748
온양한올중학교,중학교,충청남도,아산시,권곡동,536-28,36.78855105,127.0105357
장검중학교,중학교,울산광역시,울주군,범서읍,굴화리 248-1,35.55437653,129.2539649
파주광일중학교,중학교,경기도,파주시,월롱면,영태리 535,37.77510483,126.7860208
구산중학교,중학교,경상남도,김해시,구산동,1055,35.251377,128.8683035
조선대학교부속중학교,중학교,광주광역시,동구,서석동,421,35.14379042,126.9280982
샛별중학교,중학교,경상남도,거창군,거창읍,중앙리 475,35.69450701,127.9111301
병천중학교,중학교,충청남도,천안시,동남구,병천면 탑원리 146-3,36.76421876,127.3133479
대전봉산중학교,중학교,대전광역시,서구,변동,76-1,36.3311735,127.3728435
전남체육중학교,중학교,전라남도,무안군,일로읍,월암리 16-4,34.84533769,126.4962094
인천이음중학교,중학교,인천광역시,서구,원당동,90-2,37.599662,126.711778
용강중학교,중학교,충청남도,부여군,구룡면,태양리 340,36.25162459,126.8083323
분진중학교,중학교,경기도,김포시,월곶면,군하리 71-1,37.7192687,126.5529611
대전대문중학교,중학교,대전광역시,중구,문화동,760,36.308077,127.400752
명진중학교,중학교,부산광역시,북구,화명동,2258,35.23977771,129.0097001
죽변중학교,중학교,경상북도,울진군,죽변면,죽변리 215,37.065288,129.421329
청주중앙중학교,중학교,충청북도,청주시,청원구,우암동 261-174,36.65432258,127.4797665
담양고서중학교,중학교,전라남도,담양군,고서면,성월리 2-42,35.2233571,126.9783253
간석여자중학교,중학교,인천광역시,남동구,간석동,80-1,37.46837559,126.710288
홍성중학교,중학교,충청남도,홍성군,홍성읍,고암리 560,36.59745892,126.6741912
덕정중학교,중학교,경기도,양주시,덕정동,151-10,37.84260316,127.0640053
문의중학교,중학교,충청북도,청주시,상당구,문의면 미천리 108-2,36.51585586,127.5011211
부일중학교,중학교,인천광역시,부평구,삼산동,388-5,37.52074703,126.7405339
대전둔산중학교,중학교,대전광역시,서구,갈마동,822,36.353425,127.3719786
해강중학교,중학교,부산광역시,해운대구,우동,1417-1,35.16401351,129.1357065
두레자연중학교,중학교,경기도,화성시,우정읍,화산리 692-11,37.059353,126.7957492
청리중학교,중학교,경상북도,상주시,청리면,청하리 954-5,36.33130095,128.1275037
현산중학교,중학교,전라남도,해남군,현산면,일평리 507,34.45850567,126.5577407
한일중학교,중학교,충청북도,음성군,음성읍,읍내리 755,36.93614885,127.6852495
대구체육중학교,중학교,대구광역시,북구,동호동,463-2,35.95879744,128.5577173
정화여자중학교,중학교,서울특별시,동대문구,제기동,293,37.58604864,127.041008
부평중학교,중학교,인천광역시,부평구,부평동,375-19,37.50190044,126.729342
증평여자중학교,중학교,충청북도,증평군,증평읍,초중리 11-8,36.7779141,127.5784193
점촌중학교,중학교,경상북도,문경시,모전동,600,36.59983852,128.1898244
흥해중학교,중학교,경상북도,포항시,북구,흥해읍 옥성리 168-1,36.10921794,129.3411709
인주중학교,중학교,인천광역시,미추홀구,학익동,430-51,37.442798,126.6598715
운암중학교,중학교,경기도,오산시,원동,815-2,37.14588366,127.0769292
항동중학교,중학교,서울특별시,구로구,항동,22-5,37.48285456,126.8201900079
숭덕여자중학교,중학교,인천광역시,남동구,만수동,5-213,37.46428211,126.7339171
범일중학교,중학교,대구광역시,수성구,범물동,1279-2,35.821125,128.644716
산내중학교,중학교,경기도,파주시,목동동,1080,37.72307111,126.7408401
장자중학교,중학교,경기도,구리시,교문동,823,37.58583837,127.1351764
풍동중학교,중학교,경기도,고양시,일산동구,풍동 1260,37.67083031,126.7996206
이사벨중학교,중학교,부산광역시,연제구,거제동,75-7,35.19353414,129.077938
충무중학교,중학교,경상남도,통영시,인평동,386-3,34.84097741,128.3963218
인천상정중학교,중학교,인천광역시,부평구,십정동,128-4,37.47903727,126.6941199
진해여자중학교,중학교,경상남도,창원시,진해구,여좌동 499,35.15667015,128.6588444
북삼중학교,중학교,경상북도,칠곡군,북삼읍,인평리 143,36.06994201,128.342881
봉곡중학교,중학교,경상남도,창원시,의창구,봉곡동 90,35.248764,128.6617998
해남중학교,중학교,전라남도,해남군,해남읍,남외리 4,34.57110825,126.5945569
솔빛중학교,중학교,경기도,화성시,반송동,136,37.19618958,127.0722732
창포중학교,중학교,경상북도,포항시,북구,창포동 647,36.06592065,129.3690432
광양용강중학교,중학교,전라남도,광양시,광양읍,용강리 925,34.97527174,127.6108295
일산양일중학교,중학교,경기도,고양시,일산동구,식사동 366-6,37.67683594,126.8155141
송학중학교,중학교,충청북도,제천시,송학면,시곡리 1100-2,37.18823072,128.2651767
천천중학교,중학교,경기도,수원시,장안구,천천동 510,37.30024941,126.981025
장내중학교,중학교,경기도,남양주시,평내동,569,37.64209873,127.233239
대구팔공중학교,중학교,대구광역시,동구,지묘동,1163,35.947199,128.6252872
태광중학교,중학교,경기도,평택시,신장동,263-314,37.07380166,127.0534992
대경중학교,중학교,경기도,포천시,소흘읍,송우리 729-13,37.8266815,127.139571
광동중학교,중학교,경기도,남양주시,진접읍,장현리 585-1,37.71675577,127.1751688
부흥중학교,중학교,인천광역시,부평구,부개동,13-73,37.50305987,126.7367691
대전매봉중학교,중학교,대전광역시,대덕구,송촌동,441,36.36927451,127.4361517
선부중학교,중학교,경기도,안산시,단원구,선부동 1138,37.34481476,126.8151367
벽진중학교,중학교,경상북도,성주군,벽진면,수촌리 63-1,35.96103444,128.2128534
해운대중학교,중학교,부산광역시,해운대구,우동,278-13,35.171791,129.1619616
용이중학교,중학교,경기도,평택시,용이동,438,36.99799756,127.135088
경민중학교,중학교,경기도,의정부시,가능동,562,37.74612458,127.025164
덕산중학교,중학교,서울특별시,은평구,신사동,265-4,37.6022574,126.9046771
한수중학교,중학교,경기도,고양시,일산서구,주엽동 131,37.66990116,126.7561898
진건중학교,중학교,경기도,남양주시,진건읍,사능리 634-8,37.65428897,127.178325
조성중학교,중학교,전라남도,보성군,조성면,조성리 904-1,34.808024,127.2424604
호평중학교,중학교,경기도,남양주시,호평동,667,37.65602471,127.2492539
호곡중학교,중학교,경기도,고양시,일산서구,탄현동 117-69,37.70159366,126.7685069
기산중학교,중학교,경기도,화성시,기산동,469,37.219205,127.052447
서변중학교,중학교,대구광역시,북구,서변동,1730,35.92636083,128.595695
내동중학교,중학교,경상남도,김해시,내동,169,35.24106571,128.8589327
태랑중학교,중학교,서울특별시,노원구,공릉동,117,37.62698409,127.0913718
상인중학교,중학교,대구광역시,달서구,상인동,1561,35.81135533,128.5501219
해룡중학교,중학교,전라남도,영광군,영광읍,도동리 68,35.26843387,126.513448
활천중학교,중학교,경상남도,김해시,지내동,15,35.23307213,128.9212551
관동중학교,중학교,강원특별자치도,강릉시,교동,1427 번지,37.7551977,128.8795637
기린중학교,중학교,강원특별자치도,인제군,기린면,현리 765-2 번지,37.94620605,128.3116900249
광명북중학교,중학교,경기도,광명시,철산동,59,37.48714374,126.8657712
위례솔중학교,중학교,서울특별시,송파구,거여동,649,37.48701307,127.1505867
내수중학교,중학교,충청북도,청주시,청원구,내수읍 마산리 1,36.72399884,127.5377031
안중중학교,중학교,경기도,평택시,안중읍,현화리 292-3,36.98699168,126.9232225
부평서여자중학교,중학교,인천광역시,부평구,십정동,186-519,37.4853651,126.7053476
화순동면중학교,중학교,전라남도,화순군,동면,천덕리 84,35.02393047,127.0519154
인천동양중학교,중학교,인천광역시,계양구,동양동,587,37.562353,126.7606074
충주중앙중학교,중학교,충청북도,충주시,교현동,1088,36.98217528,127.9311787
순천왕운중학교,중학교,전라남도,순천시,왕지동,779-2,34.97281235,127.525222
노안중학교,중학교,전라남도,나주시,노안면,금동리 59-8,35.07365675,126.7340248
은풍중학교,중학교,경상북도,예천군,은풍면,우곡리 456,36.750796,128.4375006
시흥능곡중학교,중학교,경기도,시흥시,능곡동,791,37.365025,126.8147195
상인천중학교,중학교,인천광역시,남동구,간석동,11-1,37.46140184,126.7161385
성전중학교,중학교,전라남도,강진군,성전면,월평리 105,34.69371745,126.7064011
삼성중학교,중학교,부산광역시,사하구,감천동,565,35.09455788,128.9991612
장흥중학교,중학교,경상북도,포항시,북구,장성동 1372-1,36.0858103,129.3869383
나주중학교,중학교,전라남도,나주시,죽림동,109,35.03095299,126.7220063
충일중학교,중학교,충청북도,충주시,안림동,1083-4,36.97170114,127.9422377
제물포중학교,중학교,인천광역시,서구,가좌동,401,37.48924024,126.687197
오금중학교,중학교,서울특별시,송파구,오금동,34,37.50527064,127.1288011
함평월야중학교,중학교,전라남도,함평군,월야면,월야리 612-4,35.18886745,126.6250974
강원중학교,중학교,강원특별자치도,춘천시,동면,장학리 36,37.89496596,127.7564189
구미중학교,중학교,경상북도,구미시,도량동,799-1,36.14668047,128.3292902
화순동복중학교,중학교,전라남도,화순군,동복면,독상리 477,35.06292841,127.1315756
청량중학교,중학교,인천광역시,연수구,동춘동,924-1,37.41044031,126.6735294
도농중학교,중학교,경기도,남양주시,다산동,4002-40,37.61089827,127.1634353
영암중학교,중학교,전라남도,영암군,영암읍,회문리 256,34.79842158,126.6880458
칠성중학교,중학교,충청북도,괴산군,칠성면,사평리 240,36.78903662,127.8732659
순천매산중학교,중학교,전라남도,순천시,매곡동,147-6,34.95891877,127.4816008
영암서호중학교,중학교,전라남도,영암군,서호면,장천리 483,34.756228,126.584539
와동중학교,중학교,경기도,안산시,단원구,와동 143,37.3386135,126.8309045
화광중학교,중학교,경기도,남양주시,화도읍,월산리 99,37.65276413,127.3349525
목암중학교,중학교,경기도,고양시,덕양구,고양동 723,37.71407596,126.9057794
고흥점암중앙중학교,중학교,전라남도,고흥군,점암면,모룡리 489,34.65128409,127.3838141
문경중학교,중학교,경상북도,문경시,흥덕동,733-4,36.60597442,128.2059638
서호중학교,중학교,경기도,수원시,권선구,서둔동 103-22,37.26639752,126.987794
별가람중학교,중학교,경기도,남양주시,별내동,911,37.65912402,127.1225367
방원중학교,중학교,서울특별시,강서구,방화동,808,37.57597576,126.8086174
함평여자중학교,중학교,전라남도,함평군,함평읍,내교리 829-2,35.05765099,126.5199402
안양중학교,중학교,경기도,안양시,만안구,석수동 752,37.40925264,126.8966844
인하대학교사범대학부속중학교,중학교,인천광역시,미추홀구,학익동,306-30,37.44596571,126.6628662
안계중학교,중학교,경상북도,의성군,안계면,용기리 1009-1,36.38686212,128.4309268
안용중학교,중학교,경기도,화성시,송산동,97-7,37.20588892,127.0190498
내서중학교,중학교,경상북도,상주시,내서면,낙서리 2,36.41339717,128.0184187
화순사평중학교,중학교,전라남도,화순군,사평면,벽송리 50-4,35.003226,127.0880523
보성여자중학교,중학교,전라남도,보성군,보성읍,우산리 295-3,34.7656791,127.0886606
용현여자중학교,중학교,인천광역시,미추홀구,용현동,627-38,37.44840638,126.6406704
기계중학교,중학교,경상북도,포항시,북구,기계면 현내리 1089,36.07736697,129.1960801
부평여자중학교,중학교,인천광역시,부평구,부개동,120-21,37.49559607,126.7387291
동작중학교,중학교,서울특별시,동작구,동작동,59-1,37.49546195,126.9778016
영파여자중학교,중학교,서울특별시,송파구,풍납동,501,37.53273562,127.1197395
노은중학교,중학교,충청북도,충주시,노은면,문성리 368,37.04837368,127.7529067
의성중학교,중학교,경상북도,의성군,의성읍,도동리 649-2,36.34105051,128.7000291
구월중학교,중학교,인천광역시,남동구,구월동,22,37.45564732,126.7088267
선학중학교,중학교,인천광역시,연수구,선학동,344,37.42065709,126.6984252
서라벌여자중학교,중학교,경상북도,경주시,황성동,1053-18,35.8549853,129.2176397
영광중학교,중학교,전라남도,영광군,영광읍,녹사리 183-3,35.26558826,126.5048683
상인천여자중학교,중학교,인천광역시,남동구,간석동,505-11,37.45563164,126.6993977
인천효성중학교,중학교,인천광역시,계양구,효성동,28-43,37.537449,126.7102746
만수여자중학교,중학교,인천광역시,남동구,만수동,27,37.45920281,126.7339412
강남중학교,중학교,서울특별시,동작구,대방동,390-6,37.50276263,126.9233466
성지중학교,중학교,경기도,용인시,기흥구,구갈동 576,37.27403886,127.1281168
석정중학교,중학교,인천광역시,남동구,간석동,614,37.46921025,126.693756
청천중학교,중학교,충청북도,괴산군,청천면,선평리 155,36.65687022,127.7348042
이동중학교,중학교,경상남도,남해군,이동면,무림리 1315,34.80280046,127.951543
인화여자중학교,중학교,인천광역시,미추홀구,도화동,206-1,37.47099649,126.6548626
동성중학교,중학교,경기도,수원시,팔달구,우만동 533,37.28470754,127.0349611
영복여자중학교,중학교,경기도,수원시,팔달구,화서동 7-10,37.28559857,127.0028572
수륜중학교,중학교,경상북도,성주군,수륜면,신파리 82,35.83081062,128.1964419
용인대덕중학교,중학교,경기도,용인시,수지구,죽전동 1156,37.33674758,127.1276076
개봉중학교,중학교,서울특별시,구로구,개봉동,24-2,37.50352932,126.8423998
매향중학교,중학교,경기도,수원시,팔달구,매향동 110-2,37.28575833,127.019207
순천여자중학교,중학교,전라남도,순천시,매곡동,386,34.96487114,127.4792475
안덕중학교,중학교,경상북도,청송군,안덕면,명당리 360-1,36.289772,128.9570134
증평중학교,중학교,충청북도,증평군,증평읍,증천리 726,36.78190048,127.5889812
여수개도중학교,중학교,전라남도,여수시,화정면,개도리 1057,34.57172091,127.6591358
춘양중학교서벽분교장,중학교,경상북도,봉화군,춘양면,서벽리 473-1,37.01180323,128.8273753
신선중학교,중학교,부산광역시,영도구,신선동3가,110-1,35.08050882,129.0455401
포곡중학교,중학교,경기도,용인시,처인구,포곡읍 전대리 159-4,37.2797216,127.2213922
세교중학교,중학교,경기도,평택시,세교동,304-11,37.01353715,127.0886148
산내중학교,중학교,경상북도,경주시,산내면,의곡리 70-65,35.75291163,129.0467673
군산중앙중학교,중학교,전북특별자치도,군산시,성산면,도암리 608-9,36.00197655,126.7849803
함창중학교,중학교,경상북도,상주시,함창읍,구향리 181,36.567861,128.1739661
송파중학교,중학교,서울특별시,송파구,가락동,139,37.49592462,127.129914
장흥안양중학교,중학교,전라남도,장흥군,안양면,운흥리 731-3,34.65304098,126.973885
망운중학교,중학교,전라남도,무안군,운남면,연리 355-3,34.95868793,126.342423
강진여자중학교,중학교,전라남도,강진군,강진읍,서성리 292,34.6399361,126.76054
자은중학교,중학교,전라남도,신안군,자은면,구영리 120,34.888171,126.0441776
비전중학교,중학교,경기도,평택시,비전동,332-1,37.00726282,127.102831
동암중학교,중학교,경기도,의정부시,장암동,9-24,37.72156197,127.0586199
성산중학교,중학교,경상남도,창녕군,성산면,정녕리 566,35.61970612,128.472482
나주공산중학교,중학교,전라남도,나주시,공산면,금곡리 844,34.9435841,126.6105622
대제중학교,중학교,충청북도,제천시,청전동,526-22,37.146628,128.2004685
개금여자중학교,중학교,부산광역시,부산진구,당감동,611-2,35.16323811,129.032608
상모중학교,중학교,경상북도,구미시,임은동,436-1,36.09083563,128.359662
서운중학교,중학교,서울특별시,서초구,서초동,1325-1,37.49394851,127.0245382
신도림중학교,중학교,서울특별시,구로구,신도림동,311-1,37.51074073,126.8848071
화순도암중학교,중학교,전라남도,화순군,도암면,원천리 829,34.93808898,126.8947653
전농중학교,중학교,서울특별시,동대문구,전농동,58-1,37.58204428,127.0592794
상주중학교,중학교,경상북도,상주시,만산동,673-1,36.42902055,128.1558594
신안증도중학교,중학교,전라남도,신안군,증도면,증동리 1512,34.9987397,126.1443695
대곡중학교,중학교,대구광역시,달서구,도원동,1441,35.80633289,128.5325413
덕적중학교,중학교,인천광역시,옹진군,덕적면,진리 136,37.22538058,126.1481953
안남중학교,중학교,경상남도,창원시,성산구,대방동 373,35.205577,128.708078
염창중학교,중학교,서울특별시,강서구,염창동,85,37.55426407,126.8717473
풍천중학교,중학교,경상북도,안동시,풍천면,갈전리 1460,36.57481296,128.5003836
금천중학교,중학교,충청북도,청주시,상당구,금천동 326,36.6317748,127.5113213
한국글로벌중학교,중학교,경기도,시흥시,과림동,11-1,37.45851798,126.8323613
나주문평중학교,중학교,전라남도,나주시,문평면,옥당리 890-1,35.03671151,126.6110211
금오중학교,중학교,경상북도,구미시,임은동,136-3,36.08528382,128.3703889
오송중학교,중학교,충청북도,청주시,흥덕구,오송읍 만수리 552,36.626736,127.330528
화홍중학교,중학교,경기도,수원시,권선구,권선동 1316,37.24728058,127.0347228
중리중학교,중학교,대전광역시,대덕구,중리동,371-4,36.36662861,127.4270918
신반중학교,중학교,경상남도,의령군,부림면,신반리 148-6,35.46313729,128.3200942
남동중학교,중학교,인천광역시,남동구,만수동,1047,37.44026785,126.7382054
신구중학교,중학교,서울특별시,강남구,신사동,621,37.52744229,127.0316727
예천여자중학교,중학교,경상북도,예천군,예천읍,청복리 850,36.64945519,128.4621726
삼성중학교,중학교,충청북도,음성군,삼성면,덕정리 431-1,37.02541865,127.5002697
정선중학교,중학교,강원특별자치도,정선군,정선읍,봉양리 153-1 번지,37.37821677,128.6609171
광주서광중학교,중학교,광주광역시,남구,백운동,614-1,35.13634616,126.9042624
지산중학교,중학교,경기도,파주시,와동동,1356-1,37.72474308,126.752353
오주중학교,중학교,서울특별시,송파구,오금동,59,37.50150661,127.1362653
두송중학교,중학교,부산광역시,사하구,다대동,1580,35.06065932,128.9829531
하안북중학교,중학교,경기도,광명시,하안동,684,37.46508438,126.8677256
센텀중학교,중학교,부산광역시,해운대구,재송동,1206,35.175367,129.1237586
북동중학교,중학교,대구광역시,달성군,논공읍,남리 318,35.73243383,128.4374066
논공중학교,중학교,대구광역시,달성군,논공읍,남리 717-5,35.72382525,128.4572009
성심여자중학교,중학교,서울특별시,용산구,원효로4가,1-1,37.53420937,126.9545934
용남중학교,중학교,충청남도,계룡시,신도안면,남선리 1319,36.30064433,127.2441239
구암중학교,중학교,대구광역시,북구,구암동,694-2,35.927514,128.557125
안성여자중학교,중학교,경기도,안성시,봉남동,360,37.00836663,127.275693
안성중학교,중학교,경기도,안성시,금산동,33-12,37.01331333,127.2704648
태종대중학교,중학교,부산광역시,영도구,동삼동,523-1,35.07367396,129.0649205
한림중학교,중학교,경상남도,김해시,한림면,장방리 346,35.32172162,128.7996056
용산중학교,중학교,대구광역시,달서구,용산동,888,35.85416455,128.5323609
호성중학교,중학교,경기도,안양시,동안구,호계동 781-3,37.36691837,126.9637649
경산제일중학교,중학교,경상북도,경산시,자인면,동부리 208,35.815941,128.827888
함양여자중학교,중학교,경상남도,함양군,함양읍,교산리 956,35.523951,127.7246366
인헌중학교,중학교,서울특별시,관악구,봉천동,1647,37.47269621,126.9688402
하안중학교,중학교,경기도,광명시,하안동,25,37.46738575,126.8807721
현산중학교,중학교,경기도,고양시,일산서구,일산동 1915,37.691246,126.774003
심인중학교,중학교,대구광역시,달성군,다사읍,죽곡리 820,35.853103,128.4667003
대전변동중학교,중학교,대전광역시,서구,변동,54-1,36.3247386,127.3757901
거진중학교,중학교,강원특별자치도,고성군,거진읍,봉평리 31-1,38.44714556,128.4481053
세화여자중학교,중학교,서울특별시,서초구,반포동,13,37.501983,126.9942300139
운남중학교,중학교,경상북도,김천시,율곡동,370,36.12200032,128.179117
송광중학교,중학교,광주광역시,광산구,송정동,900,35.13340294,126.7979492
수동중학교,중학교,경상남도,함양군,수동면,화산리 1010,35.52433595,127.7895834
부곡여자중학교,중학교,부산광역시,금정구,부곡동,717-1,35.22332989,129.0953419
한바다중학교,중학교,부산광역시,수영구,광안동,154-1,35.15729241,129.1176119
장곡중학교,중학교,경상북도,칠곡군,석적읍,중리 246,36.07345548,128.415088
대정중학교,중학교,제주특별자치도,서귀포시,대정읍,하모리 778,33.21996162,126.2532327
안천중학교,중학교,서울특별시,금천구,독산동,1089,37.45952426,126.8874988
봉영여자중학교,중학교,서울특별시,양천구,신정동,325-8,37.50921598,126.8601984
백학중학교,중학교,경기도,연천군,백학면,두일리 568-2,38.02503151,126.908265
동부중학교,중학교,경상남도,거제시,동부면,산양리 348,34.82084244,128.6079629
거창중학교고제분교장,중학교,경상남도,거창군,고제면,농산리 184,35.81412414,127.8735691
등명중학교,중학교,서울특별시,강서구,등촌동,690-4,37.56019335,126.8433041
대명중학교,중학교,대구광역시,남구,대명동,519,35.83308922,128.5767451
인천경연중학교,중학교,인천광역시,서구,청라동,84-2,37.53849651,126.6262363
순천연향중학교,중학교,전라남도,순천시,연향동,1382,34.94764115,127.5213631
동성중학교,중학교,충청북도,음성군,맹동면,동성리 449,36.91228989,127.5428781
신북중학교,중학교,전라남도,영암군,신북면,월평리 25,34.8909443,126.6977646
석수중학교,중학교,경기도,안산시,단원구,선부동 646-1,37.34292546,126.809244
영주여자중학교,중학교,경상북도,영주시,가흥동,521-12,36.832073,128.6106174
학성중학교,중학교,강원특별자치도,원주시,일산동,250 번지,37.35018248,127.9397356
주감중학교,중학교,부산광역시,사상구,주례동,995,35.1564451,128.9954615
반림중학교,중학교,경상남도,창원시,성산구,반림동 2,35.23914674,128.6778473
인천양촌중학교,중학교,인천광역시,계양구,병방동,12,37.55032708,126.7450048
압구정중학교,중학교,서울특별시,강남구,압구정동,471,37.53024224,127.0330027
사량중학교,중학교,경상남도,통영시,사량면,금평리 107,34.84403241,128.2204882
인천사리울중학교,중학교,인천광역시,남동구,논현동,765-2,37.38569699,126.720128
대지중학교,중학교,경기도,용인시,수지구,죽전동 313-1,37.33105561,127.116311
신창중학교,중학교,광주광역시,광산구,신창동,1238,35.19344065,126.8393746
호원중학교,중학교,경기도,의정부시,호원동,284-5,37.71929926,127.0446514
은가람중학교,중학교,경기도,하남시,선동,414,37.575991,127.177033
정왕중학교,중학교,경기도,시흥시,정왕동,1787-3,37.34018306,126.7424822
순천별량중학교,중학교,전라남도,순천시,별량면,동송리 400,34.86677946,127.4530241
광주중학교,중학교,경기도,광주시,경안동,45,37.40965522,127.2543702
여수구봉중학교,중학교,전라남도,여수시,국동,878,34.73267109,127.7144286
주천중학교,중학교,강원특별자치도,영월군,주천면,주천리 1430 번지,37.27355179,128.2650794
함평신광중학교,중학교,전라남도,함평군,신광면,월암리 272,35.15552762,126.5008917
옥련중학교,중학교,인천광역시,연수구,옥련동,275-2,37.42666856,126.6540099
형석중학교,중학교,충청북도,증평군,증평읍,미암리 603,36.79378517,127.5925775
용인중학교,중학교,경기도,용인시,처인구,김량장동 212,37.23861861,127.2005664
안양여자중학교,중학교,경기도,안양시,만안구,안양동 840-2,37.403565,126.9163223
전주오송중학교,중학교,전북특별자치도,전주시,덕진구,송천동2가 175-22,35.86587029,127.1284673
충의중학교,중학교,경기도,의정부시,민락동,735-7,37.74200365,127.0902726
청송중학교,중학교,경상북도,청송군,청송읍,금곡리 815-3,36.43000334,129.0576987
진접중학교,중학교,경기도,남양주시,진접읍,장현리 15-1,37.73661814,127.1933654
철원중학교,중학교,강원특별자치도,철원군,철원읍,화지리 54번지,38.20962891,127.2112801
서원중학교,중학교,충청북도,청주시,흥덕구,가경동 486-3,36.63107402,127.433502
검암중학교,중학교,인천광역시,서구,검암동,497,37.56723223,126.6787899964
은혜중학교,중학교,경기도,평택시,장안동,390-1,37.06654128,127.0816468
이화여자대학교사범대학부속이화·금란중학교,중학교,서울특별시,서대문구,대신동,47,37.562643,126.9444886
용천중학교,중학교,경기도,용인시,처인구,이동읍 천리 1132,37.19144213,127.200828
산곡여자중학교,중학교,인천광역시,부평구,산곡동,228-6,37.49747444,126.7060067
시지중학교,중학교,대구광역시,수성구,신매동,583-1,35.83551752,128.708958
관악중학교,중학교,서울특별시,관악구,봉천동,100-569,37.48125828,126.9619123
송현여자중학교,중학교,대구광역시,달서구,송현동,540,35.83112106,128.5462157
신림중학교,중학교,서울특별시,관악구,신림동,133,37.47032734,126.946004
광주경신중학교,중학교,광주광역시,북구,용봉동,718-1,35.17473839,126.8926244
거원중학교,중학교,서울특별시,송파구,거여동,296,37.48772386,127.1465491
전주기린중학교,중학교,전북특별자치도,전주시,덕진구,우아동3가 743-10,35.8541504,127.1569104
동지중학교,중학교,경상북도,포항시,북구,용흥동 산125-3,36.03860468,129.3467246
구성중학교,중학교,경기도,용인시,기흥구,마북동 543,37.29999927,127.114422
광영중학교,중학교,전라남도,광양시,광영동,435,34.96022556,127.7191768
무학중학교,중학교,서울특별시,성동구,행당동,322-1,37.55768336,127.0319746
등촌중학교,중학교,서울특별시,강서구,등촌동,산36-4,37.55248221,126.8592148
인천중학교,중학교,인천광역시,연수구,연수동,534-4,37.42145747,126.6889356
삼호서중학교,중학교,전라남도,영암군,삼호읍,용당리 995-23,34.74730383,126.3839186
무릉중학교,중학교,제주특별자치도,서귀포시,대정읍,무릉리 2802,33.27282519,126.201483
진도중학교,중학교,전라남도,진도군,진도읍,교동리 580-1,34.48257614,126.2580561
경주중학교,중학교,경상북도,경주시,황오동,13,35.84315899,129.2266807
연풍중학교,중학교,충청북도,괴산군,연풍면,행촌리 488,36.76687582,128.0002909
수산중학교,중학교,충청북도,제천시,수산면,수산리 349,36.936231,128.1882506
고림중학교,중학교,경기도,용인시,처인구,고림동 750,37.24047513,127.2184893
군산동원중학교,중학교,전북특별자치도,군산시,나운동,155-4,35.95943937,126.7000885
화순이양중학교,중학교,전라남도,화순군,이양면,이양리 156-5,34.88670179,126.9920316
이우중학교,중학교,경기도,성남시,분당구,동원동 157-1,37.35324326,127.090941
인동중학교,중학교,경상북도,구미시,인의동,103,36.10931541,128.4288809
경일여자중학교,중학교,대구광역시,남구,봉덕동,1322-1,35.83640873,128.5968171
무풍중학교,중학교,전북특별자치도,무주군,무풍면,현내리 503,35.96676372,127.8464511
형남중학교,중학교,경상북도,구미시,형곡동,803-2,36.10110054,128.3358911
도장중학교,중학교,경기도,군포시,산본동,1145-9,37.35560813,126.9269137
함평해보중학교,중학교,전라남도,함평군,해보면,용산리 938-1,35.17547776,126.6037315
동대전중학교,중학교,대전광역시,동구,가양동,10,36.34517648,127.4559184
대전문화여자중학교,중학교,대전광역시,중구,문화동,204-4,36.31305405,127.4099915
토현중학교,중학교,부산광역시,연제구,연산동,2219,35.1820421,129.1116178
서생중학교,중학교,울산광역시,울주군,서생면,신암리 8-1,35.34946034,129.3311379
모산중학교,중학교,충청남도,아산시,배방읍,공수리 1722,36.76870534,127.0555616
해마루중학교,중학교,경상북도,구미시,옥계동,921,36.13959681,128.4328884
대청중학교,중학교,부산광역시,기장군,기장읍,청강리 711,35.2333144,129.2128169
성주여자중학교,중학교,경상북도,성주군,성주읍,경산리 463,35.91621487,128.282047
예천중학교,중학교,경상북도,예천군,예천읍,남본리 60,36.65176852,128.4603688
부평서중학교,중학교,인천광역시,부평구,십정동,186-79,37.48661833,126.7036652
인성여자중학교,중학교,인천광역시,중구,송학동2가,18-1,37.4739458,126.624248
신한중학교,중학교,경기도,평택시,비전동,224-7,36.993569,127.1044177
인천남중학교,중학교,인천광역시,미추홀구,숭의동,41-3,37.46379213,126.6539999
두륜중학교,중학교,전라남도,해남군,북일면,흥촌리 275-9,34.468533,126.6740469
창북중학교,중학교,경상남도,창원시,의창구,북면 무동리 125-1,35.316975,128.5807219
포항중학교,중학교,경상북도,포항시,북구,학산동 205-1,36.04956264,129.3660959
인평중학교,중학교,경상북도,칠곡군,북삼읍,인평리 518-2,36.06259352,128.335692
광양마동중학교,중학교,전라남도,광양시,마동,1020,34.954267,127.6878322
동산중학교,중학교,강원특별자치도,춘천시,동산면,조양리 703-1 번지,37.75022835,127.7909631
유곡중학교,중학교,울산광역시,중구,태화동,196,35.55882497,129.299591
이서중학교,중학교,경상북도,청도군,이서면,서원리 331-3,35.66249467,128.6684614
풍암중학교,중학교,광주광역시,서구,풍암동,1098,35.12235904,126.8781232
대흥중학교,중학교,경기도,시흥시,대야동,377-70,37.44744016,126.784073
창원대산중학교,중학교,경상남도,창원시,의창구,대산면 제동리 280,35.33411769,128.710433
안민중학교,중학교,경상남도,창원시,성산구,안민동 663-4,35.18365416,128.6933757
인천청라중학교,중학교,인천광역시,서구,청라동,125-4,37.53783941,126.653874
철산중학교,중학교,경기도,광명시,철산동,558,37.47030832,126.8753237
복주여자중학교,중학교,경상북도,안동시,당북동,333-1,36.56259417,128.7180369
청양중학교,중학교,충청남도,청양군,청양읍,송방리 133-1,36.45232466,126.7955599813
복현중학교,중학교,대구광역시,북구,복현동,301-17,35.89394102,128.6279506
인천루원중학교,중학교,인천광역시,서구,가정동,,37.531308,126.668519
양덕여자중학교,중학교,경상남도,창원시,마산회원구,합성동 16-1,35.24369043,128.5947299
조도중학교,중학교,전라남도,진도군,조도면,창유리 1031,34.31313423,126.0420213
남악중학교,중학교,전라남도,무안군,삼향읍,남악리 1581,34.81064882,126.4702984
위도중학교,중학교,전북특별자치도,부안군,위도면,진리 39-1,35.60490699,126.2961849
매현중학교,중학교,경기도,수원시,영통구,매탄동 1284,37.25486284,127.042715
상주여자중학교,중학교,경상북도,상주시,남성동,150-2,36.41141033,128.1600204
가좌중학교,중학교,인천광역시,서구,가좌동,195,37.495703,126.6797136
병곡중학교,중학교,경상북도,영덕군,병곡면,병곡리 283,36.60434274,129.411274
감천중학교,중학교,경상북도,예천군,감천면,포리 311-2,36.72434848,128.5261545
경기체육중학교,중학교,경기도,수원시,장안구,천천동 30-1,37.30395971,126.9785339
명현중학교,중학교,인천광역시,계양구,효성동,20,37.53199958,126.7137307
연세중학교,중학교,경기도,남양주시,조안면,송촌리 787,37.5685278,127.3219261
화성동화중학교,중학교,경기도,화성시,봉담읍,동화리 631,37.213866,126.9623034
가경중학교,중학교,충청북도,청주시,흥덕구,복대동 2445,36.62581198,127.4452459
광주화정중학교,중학교,광주광역시,서구,화정동,647-7,35.14412529,126.8823691
영월중학교,중학교,강원특별자치도,영월군,영월읍,영흥리 716-1 번지,37.19059443,128.4711874
모전중학교,중학교,부산광역시,기장군,정관읍,모전리 720,35.33811873,129.162154
목동중학교,중학교,서울특별시,양천구,신정동,88-1,37.5209572,126.871463
중앙중학교,중학교,서울특별시,종로구,계동,1-23,37.58378822,126.9874726
금천중학교,중학교,경상북도,청도군,금천면,동곡리 1035,35.68807595,128.894764
왕산중학교,중학교,강원특별자치도,강릉시,왕산면,도마리 325-9 번지,37.67297147,128.8367696
성동중학교,중학교,부산광역시,남구,문현동,791,35.13993339,129.0662635
대진중학교,중학교,대구광역시,달서구,대곡동,1036-1,35.80572575,128.5195259
용원중학교,중학교,경상남도,창원시,진해구,용원동 1231,35.09965505,128.8179932
신용중학교,중학교,광주광역시,북구,신용동,672,35.2107845,126.860961
강원체육중학교,중학교,강원특별자치도,춘천시,송암동,산 1-1번지,37.85912229,127.694804
봉래중학교,중학교,강원특별자치도,영월군,영월읍,덕포리 374 번지,37.18162818,128.4858655
봄내중학교,중학교,강원특별자치도,춘천시,효자동,214-4 번지,37.86546754,127.740764
대성중학교,중학교,충청북도,청주시,흥덕구,신봉동 171-9,36.6580328,127.4691295
송운중학교,중학교,경기도,시흥시,정왕동,1875-4,37.35941067,126.731408
별빛중학교,중학교,경상북도,영천시,고경면,해선리 240-3,36.00232912,129.0432455
옥동중학교,중학교,강원특별자치도,영월군,김삿갓면,옥동리 402 번지,37.128166,128.5706668
양주중학교,중학교,경상남도,양산시,상북면,석계리 51,35.41517665,129.0677568
서천중학교,중학교,경기도,용인시,기흥구,서천동 796,37.24001911,127.0758949
상명대학교사범대학부속여자중학교,중학교,서울특별시,종로구,홍지동,7-1,37.60410891,126.9551595
동촌중학교,중학교,대구광역시,동구,방촌동,1047-4,35.88202794,128.6589293
가림중학교,중학교,경기도,광명시,하안동,261,37.45764308,126.8796742
궁내중학교,중학교,경기도,군포시,산본동,1149-5,37.36388636,126.9190776
아산테크노중학교,중학교,충청남도,아산시,둔포면,석곡리 1782,36.926486,127.0518272
울산중앙중학교,중학교,울산광역시,남구,신정동,859-3,35.5260243,129.3156805
수완하나중학교,중학교,광주광역시,광산구,수완동,973,35.19420808,126.8275242
경운중학교,중학교,경상남도,김해시,내동,1115-3,35.23612594,128.8618342
성서중학교,중학교,대구광역시,달서구,용산동,948,35.8558081,128.5266049
학산여자중학교,중학교,부산광역시,동래구,명장동,산85-18,35.20475284,129.096168
석천중학교,중학교,강원특별자치도,양구군,양구읍,정림리 230-1 번지,38.1009114,127.9808197
기장중학교,중학교,부산광역시,기장군,기장읍,대라리 40,35.24488187,129.2183149
운호중학교,중학교,충청북도,청주시,서원구,모충동 132-13,36.62505317,127.4851868
만리포중학교,중학교,충청남도,태안군,소원면,신덕리 631-2,36.765521,126.1939312
대전원신흥중학교,중학교,대전광역시,유성구,원신흥동,526,36.33306766,127.345345
공산중학교,중학교,대구광역시,동구,백안동,560-5,35.95506586,128.6906838
송례중학교,중학교,서울특별시,송파구,장지동,393,37.47783301,127.139741
관천중학교,중학교,대구광역시,북구,태전동,999-1,35.93116386,128.5526133
송산중학교,중학교,충청남도,당진시,송산면,도문리 169-1,36.934811,126.6859161
시화중학교,중학교,경기도,시흥시,정왕동,1552,37.34098555,126.7561914
관동중학교,중학교,경상남도,김해시,관동동,422-1,35.17976521,128.7926333
불로중학교,중학교,대구광역시,동구,불로동,1010,35.89830061,128.6344118
오륜중학교,중학교,서울특별시,송파구,방이동,89-7,37.51632395,127.1389238
영동중학교,중학교,경기도,수원시,영통구,신동 332-2,37.24794335,127.0559865
고색중학교,중학교,경기도,수원시,권선구,고색동 888-92,37.25360106,126.9813192
백운중학교,중학교,경기도,의왕시,포일동,170-1,37.390573,126.9896699
구미중학교,중학교,경기도,성남시,분당구,구미동 299-1,37.34634609,127.1236076
죽전중학교,중학교,경기도,용인시,수지구,죽전동 873-4,37.33236479,127.1075744
청북중학교,중학교,경기도,평택시,청북읍,토진리 70-5,37.04255751,126.9473637
영산포여자중학교,중학교,전라남도,나주시,이창동,136,34.99738005,126.711442
간재울중학교,중학교,인천광역시,서구,검암동,619-4,37.56290197,126.6763165
효자중학교,중학교,경기도,의정부시,신곡동,768-2,37.75220163,127.0773205
장항중학교,중학교,충청남도,서천군,장항읍,원수리 923-19,36.007837,126.701774
광판중학교,중학교,강원특별자치도,춘천시,남산면,광판리 583 번지,37.7238145,127.6988764
반성중학교,중학교,경상남도,진주시,사봉면,무촌리 107,35.17562282,128.2749072
감일백제중학교,중학교,경기도,하남시,감일동,297-3,37.509863,127.1509199
송정중학교,중학교,서울특별시,강서구,공항동,768-1,37.55315807,126.8152436
김녕중학교,중학교,제주특별자치도,제주시,구좌읍,김녕리 1726-2,33.55266695,126.7507701
북평중학교,중학교,전라남도,해남군,북평면,남창리 396,34.40569587,126.626746
부산동여자중학교,중학교,부산광역시,동구,수정동,599-42,35.13205195,129.0419031
화암중학교,중학교,울산광역시,동구,방어동,1109,35.4880068,129.4118422
거제제일중학교,중학교,경상남도,거제시,거제면,서정리 695-1,34.850869,128.5864541
대송중학교,중학교,울산광역시,동구,화정동,143-1,35.50452893,129.4196102
한림중학교,중학교,제주특별자치도,제주시,한림읍,동명리 1555,33.40574382,126.2664728
대경중학교,중학교,서울특별시,중구,신당동,333-579,37.55637326,127.0169792
백제중학교,중학교,충청남도,부여군,규암면,반산리 276,36.27251325,126.8652629
앙성중학교,중학교,충청북도,충주시,앙성면,용포리 172,37.11388959,127.7506559
솔밭중학교,중학교,충청북도,청주시,흥덕구,복대동 515-6,36.64021621,127.4291300109
봉양중학교,중학교,경상북도,의성군,봉양면,화전리 75-1,36.3031493,128.5849448
강남중학교,중학교,인천광역시,강화군,길상면,온수리 24-10,37.64384136,126.4790998
의정부중학교,중학교,경기도,의정부시,가능동,652-56,37.74810725,127.0403698
연산중학교,중학교,충청남도,논산시,연산면,청동리 110,36.21373406,127.2074785
영광대마중학교,중학교,전라남도,영광군,대마면,월산리 686,35.30145958,126.5753643
화양중학교화양남분교장,중학교,전라남도,여수시,화양면,장수리 70,34.64686293,127.6118456
원당중학교,중학교,경기도,고양시,덕양구,주교동 527-5,37.66465516,126.823139
연신중학교,중학교,서울특별시,은평구,불광동,400-4,37.62353926,126.9242879
영광군남중학교,중학교,전라남도,영광군,군남면,포천리 431-1,35.24024086,126.4509423
백석중학교,중학교,경기도,고양시,일산동구,백석동 1346,37.64200418,126.7828353
내촌중학교,중학교,경기도,포천시,내촌면,음현리 710-1,37.77903526,127.224574
고흥여자중학교,중학교,전라남도,고흥군,고흥읍,남계리 429,34.61020858,127.2885891
월성중학교,중학교,경상북도,경주시,충효동,549-6,35.84182328,129.176299969
고흥백양중학교,중학교,전라남도,고흥군,동일면,백양리 788,34.50392493,127.4653336
광릉중학교,중학교,경기도,남양주시,진접읍,진벌리 611,37.74286242,127.2135456
마석중학교,중학교,경기도,남양주시,화도읍,창현리 742,37.648488,127.3047481
사북중학교,중학교,강원특별자치도,정선군,사북읍,사북리 286 번지,37.22816463,128.8288674
행신중학교,중학교,경기도,고양시,덕양구,행신동 784,37.61515697,126.8396543
부용중학교,중학교,경기도,의정부시,민락동,757-2,37.73546115,127.0919351
옥정중학교,중학교,서울특별시,성동구,옥수동,227,37.54167037,127.0129832
서곶중학교,중학교,인천광역시,서구,연희동,734-2,37.54935316,126.6711893
배문중학교,중학교,서울특별시,용산구,서계동,259-3,37.54991872,126.9639041
양동여자중학교,중학교,부산광역시,부산진구,양정동,25-1,35.1701929,129.0810001
석동중학교,중학교,경상남도,창원시,진해구,석동 184,35.15430996,128.7039826
순천승주중학교,중학교,전라남도,순천시,승주읍,평중리 89,35.01802201,127.3782252
이원중학교,중학교,충청북도,옥천군,이원면,건진리 559,36.24840699,127.613697
창북중학교,중학교,서울특별시,도봉구,창동,683-15,37.64911577,127.0388329
도계중학교,중학교,경상남도,창원시,의창구,도계동 468-1,35.25530878,128.6343184
반송중학교,중학교,경상남도,창원시,성산구,반림동 19,35.23555208,128.6749507
광주동신중학교,중학교,광주광역시,북구,풍향동,475,35.16943786,126.9223461
침산중학교,중학교,대구광역시,북구,침산동,354-1,35.89009098,128.5884708
대방중학교,중학교,경상남도,창원시,성산구,대방동 360,35.210413,128.7062908
강일중학교,중학교,서울특별시,강동구,암사동,414-17,37.5553497,127.138259
황등중학교,중학교,전북특별자치도,익산시,황등면,황등리 626-1,36.00753655,126.9459699
진주제일중학교,중학교,경상남도,진주시,평거동,748-2,35.1756149,128.0666949
샛별중학교,중학교,경기도,성남시,분당구,수내동 164-3,37.36813084,127.1299286
범서중학교,중학교,울산광역시,울주군,범서읍,구영리 390,35.56850388,129.2448965
익산어양중학교,중학교,전북특별자치도,익산시,어양동,191,35.96523133,126.9849326
상도중학교,중학교,서울특별시,동작구,사당동,181-20,37.4909219,126.9614756
미사중학교,중학교,경기도,하남시,망월동,1181,37.56092628,127.2006011
대암중학교,중학교,강원특별자치도,양구군,동면,지석리 470 번지,38.18337919,128.0356787
영천중학교,중학교,광주광역시,광산구,월곡동,681-3,35.17701628,126.8109229
진주봉원중학교,중학교,경상남도,진주시,상봉동,1445,35.20497214,128.073601
모현중학교,중학교,경기도,용인시,처인구,모현읍 일산리 540,37.34383068,127.231589
인천여자중학교,중학교,인천광역시,연수구,동춘동,932-1,37.40452387,126.6739194
삼기중학교,중학교,전북특별자치도,익산시,삼기면,간촌리 77,36.02164678,126.9839093
저청중학교,중학교,제주특별자치도,제주시,한경면,청수리 417,33.32556023,126.2529321
신원중학교,중학교,서울특별시,양천구,신월동,43-4,37.5370925,126.8248419
포항항도중학교,중학교,경상북도,포항시,북구,죽도동 655-9,36.01812132,129.3561064
관인중학교,중학교,경기도,포천시,관인면,탄동리 607-3,38.15804881,127.2505866
안내중학교,중학교,충청북도,옥천군,안내면,인포리 289,36.37693497,127.6533597
상갈중학교,중학교,경기도,용인시,기흥구,상갈동 460,37.2664741,127.1092177
치동중학교,중학교,경기도,화성시,동탄면,영천동 790,37.208538,127.0916964
제천여자중학교,중학교,충청북도,제천시,청전동,71-1,37.15321063,128.219102
장성남중학교,중학교,전라남도,장성군,남면,분향리 335,35.24391312,126.8109517
청천중학교,중학교,인천광역시,부평구,청천동,190-58,37.51173257,126.704543
구례중학교,중학교,전라남도,구례군,구례읍,봉서리 1093,35.20006212,127.4634535
신장중학교,중학교,경기도,하남시,신장동,527-1,37.54312025,127.2188571
대전은어송중학교,중학교,대전광역시,동구,대성동,134,36.300459,127.4609857
양산중학교,중학교,경상남도,양산시,북부동,234,35.34965808,129.0439196
압해중학교,중학교,전라남도,신안군,압해읍,학교리 663-5,34.86392837,126.3133306
욕지중학교,중학교,경상남도,통영시,욕지면,동항리 809-2,34.6361845,128.2597179
청송여자중학교,중학교,경상북도,청송군,청송읍,월막리 315,36.43586526,129.0587046
덕소중학교,중학교,경기도,남양주시,와부읍,도곡리 1036-4,37.58067361,127.226325
하계중학교,중학교,서울특별시,노원구,하계동,231-4,37.64136991,127.0723336
송지중학교,중학교,전라남도,해남군,송지면,미야리 803,34.38421742,126.5164272
송도중학교,중학교,경상북도,포항시,남구,송도동 492-1,36.02905539,129.3770876
봉림중학교,중학교,경상남도,창원시,의창구,사림동 102,35.24674661,128.6773015
화랑중학교,중학교,경상북도,경주시,현곡면,오류리 191,35.87426195,129.2035169
화도진중학교,중학교,인천광역시,동구,화수동,2-5,37.48499013,126.632215
무거중학교,중학교,울산광역시,남구,무거동,996,35.53763276,129.2515883
손곡중학교,중학교,경기도,용인시,수지구,동천동 871,37.33485587,127.0942612
이현중학교,중학교,경기도,용인시,수지구,풍덕천동 1181-1,37.31528324,127.096802
송절중학교,중학교,충청북도,청주시,흥덕구,송절동 122-6,36.659408,127.4580939
주덕중학교,중학교,충청북도,충주시,주덕읍,신중리 130-3,36.97290674,127.786114
금옥중학교,중학교,서울특별시,양천구,신정동,729,37.51096532,126.8439717
화북중학교,중학교,경상북도,상주시,화북면,용유리 340-1,36.55970701,127.921561
삼괴중학교,중학교,경기도,화성시,우정읍,조암리 139,37.08982064,126.8222924
화원중학교,중학교,서울특별시,강서구,화곡동,351-94,37.53621409,126.842416
동광중학교,중학교,인천광역시,강화군,양도면,하일리 190,37.66237195,126.4231998
구운중학교,중학교,경기도,수원시,권선구,구운동 508,37.27680726,126.977418
경원중학교,중학교,서울특별시,서초구,잠원동,66-1,37.5115816,127.0090183
동남중학교,중학교,경기도,포천시,소흘읍,송우리 537-1,37.82695298,127.1356234
동지여자중학교,중학교,경상북도,포항시,북구,용흥동 511,36.03860468,129.3467246
산들중학교,중학교,경기도,파주시,목동동,918,37.7308405,126.7321615
군자중학교,중학교,경기도,시흥시,거모동,1418,37.35125546,126.7840568
영광백수중학교,중학교,전라남도,영광군,백수읍,양성리 884,35.28363433,126.4048774
병점중학교,중학교,경기도,화성시,병점동,825,37.210361,127.0400539
진위중학교,중학교,경기도,평택시,진위면,가곡리 505,37.10991471,127.0694297
신탄진중학교,중학교,대전광역시,대덕구,석봉동,311-1,36.44731214,127.4234779
정신여자중학교,중학교,서울특별시,송파구,잠실동,50-4,37.50945384,127.0738473
덕명여자중학교,중학교,부산광역시,부산진구,전포동,487,35.15108044,129.0704519
남산중학교,중학교,부산광역시,금정구,남산동,31-11,35.25981702,129.093651
영신중학교,중학교,대구광역시,동구,봉무동,524,35.92000422,128.646424
남산중학교,중학교,경상북도,상주시,낙양동,388,36.40665006,128.1462224
근화여자중학교,중학교,경상북도,경주시,용강동,870,35.87058466,129.2273172
동해삼육중학교,중학교,강원특별자치도,동해시,천곡동,533-3 번지,37.5220721,129.0997495
진산중학교,중학교,인천광역시,부평구,삼산동,454-11,37.50945861,126.7403099691
가정여자중학교,중학교,인천광역시,서구,가좌동,343,37.48538158,126.6853919
초당중학교,중학교,경기도,용인시,기흥구,중동 1048,37.26553571,127.1568124
전일중학교,중학교,서울특별시,동대문구,전농동,60-1,37.58250018,127.0583795
풍산중학교,중학교,경기도,고양시,일산동구,풍동 1288,37.6647462,126.7991028
석포중학교,중학교,경상북도,봉화군,석포면,석포리 356-2,37.0504648,129.0670263
김해중학교,중학교,경상남도,김해시,부원동,39,35.23110531,128.8861356
신명여자중학교,중학교,대구광역시,수성구,수성동1가,96-16,35.85731247,128.6091788
계촌중학교,중학교,강원특별자치도,평창군,방림면,계촌리 1372 번지,37.45278719,128.3088135
성안중학교,중학교,울산광역시,중구,성안동,519-8,35.57276141,129.3178978
다송중학교,중학교,부산광역시,사하구,다대동,95,35.06434989,128.9847862
군산대성중학교,중학교,전북특별자치도,군산시,임피면,읍내리 535-4,35.98863023,126.8486974
원촌중학교,중학교,서울특별시,서초구,반포동,22,37.5063251,127.0146997
신광중학교,중학교,광주광역시,북구,두암동,576-5,35.17953334,126.9321202
남성중학교,중학교,서울특별시,동작구,사당동,304-45,37.47900822,126.972489
대안여자중학교,중학교,경기도,안양시,동안구,호계동 1233,37.3771591,126.9651002
대전하기중학교,중학교,대전광역시,유성구,하기동,520,36.38588907,127.3222049
남천중학교,중학교,부산광역시,남구,대연동,455-12,35.13660359,129.1052341
문화중학교,중학교,광주광역시,북구,우산동,118-4,35.17846694,126.9239162
율하중학교,중학교,경상남도,김해시,율하동,1293,35.17508098,128.808001
영산중학교,중학교,경상남도,창녕군,영산면,서리 253,35.4601691,128.5242737
산이중학교,중학교,전라남도,해남군,산이면,초송리 527-5,34.64545878,126.4481956
광남중학교,중학교,경기도,광명시,광명동,384-6,37.47007475,126.8475588
방산중학교,중학교,서울특별시,송파구,방이동,220,37.50937287,127.1218756
하동중앙중학교,중학교,경상남도,하동군,하동읍,읍내리 667,35.07664446,127.7495276
세륜중학교,중학교,서울특별시,송파구,오금동,7-3,37.50893314,127.1312464
봉은중학교,중학교,서울특별시,강남구,삼성동,82-7,37.51897667,127.0623894
금호중앙중학교,중학교,광주광역시,북구,운암동,140,35.1785969,126.8855126
월산중학교,중학교,경상남도,김해시,부곡동,806-10,35.20526183,128.8039417
선유중학교,중학교,서울특별시,영등포구,양평동3가,82,37.53328647,126.894329
상장중학교,중학교,강원특별자치도,태백시,황지동,123 번지,37.15068611,128.9921217
미로중학교,중학교,강원특별자치도,삼척시,미로면,하거노리 449,37.41041541,129.1038915
동래여자중학교,중학교,부산광역시,금정구,구서동,72-3,35.24704234,129.0981972
창원중앙중학교,중학교,경상남도,창원시,성산구,반지동 91,35.24012853,128.6573992
화순도곡중학교,중학교,전라남도,화순군,도곡면,천암리 134,35.01329938,126.9098398
이호중학교,중학교,경기도,안산시,상록구,본오동 1214,37.28587748,126.8570207
덕화중학교,중학교,대구광역시,수성구,상동,328-1,35.83275858,128.6150457
선운중학교,중학교,광주광역시,광산구,선암동,580,35.14824229,126.7748261
덕포여자중학교,중학교,부산광역시,사상구,덕포동,136,35.17036935,128.9861577
서경중학교,중학교,충청북도,청주시,흥덕구,가경동 1583,36.619099,127.4412818
송정여자중학교,중학교,경상북도,구미시,송정동,485-1,36.11382632,128.3477054
구로중학교,중학교,서울특별시,구로구,구로동,90,37.49485972,126.8910999
덕원중학교,중학교,서울특별시,강서구,내발산동,산58,37.54862258,126.8290245
성주중학교,중학교,경상북도,성주군,성주읍,예산리 640,35.92783552,128.2834315
북악중학교,중학교,서울특별시,성북구,정릉동,640-3,37.60700905,127.0016095
금일중학교,중학교,전라남도,완도군,금일읍,신구리 830,34.35121011,127.0324812
대전경덕중학교,중학교,대전광역시,대덕구,오정동,225-7,36.3498313,127.4230626
운암중학교,중학교,대구광역시,북구,구암동,801,35.93284173,128.5652997
구리여자중학교,중학교,경기도,구리시,토평동,214,37.591732,127.1514056
창용중학교,중학교,경기도,수원시,장안구,연무동 241,37.29316862,127.030143
금산중학교,중학교,전라남도,고흥군,금산면,대흥리 320,34.46415381,127.1276982
석곡중학교,중학교,전라남도,곡성군,석곡면,석곡리 270,35.12713246,127.2527226
중모중학교,중학교,경상북도,상주시,모동면,덕곡리 1087,36.3254066,127.9608589
을지중학교,중학교,서울특별시,노원구,중계동,360-19,37.64978791,127.0717084
수원다산중학교,중학교,경기도,수원시,영통구,이의동 1368,37.2839613,127.051237
신현중학교,중학교,서울특별시,중랑구,상봉동,483,37.604413,127.0915328
대전관평중학교,중학교,대전광역시,유성구,관평동,901,36.424095,127.3871878
보은중학교,중학교,충청북도,보은군,보은읍,이평리 30-1,36.4858868,127.7273959
고성중학교,중학교,전라남도,진도군,고군면,고성리 144,34.50061468,126.3230717
황둔중학교,중학교,강원특별자치도,원주시,신림면,황둔리 344 번지,37.26225475,128.1866415
잠실중학교,중학교,서울특별시,송파구,신천동,7-1,37.51781757,127.0986662
진성중학교,중학교,전북특별자치도,진안군,성수면,외궁리 780-1,35.70461484,127.3218798
초전중학교,중학교,경상북도,성주군,초전면,대장리 610-1,35.97707649,128.2641006
능동중학교,중학교,경상남도,김해시,삼문동,67-3,35.19812312,128.7945625
창평중학교,중학교,전라남도,담양군,창평면,창평리 393,35.24103644,127.0135695
난우중학교,중학교,서울특별시,관악구,신림동,652-156,37.46680396,126.9228283
정남중학교,중학교,경기도,화성시,정남면,신리 85,37.1651297,126.9786516
성산중학교,중학교,제주특별자치도,서귀포시,성산읍,고성리 1027,33.44361266,126.9106478
제천덕산중학교,중학교,충청북도,제천시,덕산면,도전리 521,36.907709,128.1700912
가운중학교,중학교,경기도,남양주시,다산동,678,37.59944252,127.1566123
송호중학교,중학교,경기도,안산시,단원구,고잔동 765-1,37.31126021,126.8395516
화수중학교,중학교,경기도,고양시,덕양구,화정동 855,37.64522938,126.834916
선덕여자중학교,중학교,경상북도,경주시,인왕동,571-1,35.83862147,129.2242275
대영중학교,중학교,경상북도,영주시,휴천동,1770,36.8089799,128.6322246
수리중학교,중학교,경기도,군포시,산본동,1150,37.36124122,126.9185679
매홀중학교,중학교,경기도,오산시,수청동,634,37.16800267,127.0688473
안일중학교,중학교,경기도,평택시,안중읍,현화리 844-1,36.98415943,126.9244101
율촌중학교,중학교,전라남도,여수시,율촌면,조화리 136-6,34.88062196,127.5745606
수안보중학교,중학교,충청북도,충주시,수안보면,온천리 51,36.84625645,127.9975031
군외중학교,중학교,전라남도,완도군,군외면,원동리 1,34.39064916,126.6522382
인천예일중학교,중학교,인천광역시,계양구,방축동,27-8,37.554606,126.7405362
시종중학교,중학교,전라남도,영암군,시종면,내동리 36,34.86486009,126.6080379
창일중학교,중학교,서울특별시,도봉구,창동,369,37.64898751,127.0469136
괴산북중학교,중학교,충청북도,괴산군,괴산읍,서부리 725,36.81571946,127.7796102
괴산중학교,중학교,충청북도,괴산군,괴산읍,대사리 165,36.79727502,127.783607
신흥중학교,중학교,경기도,동두천시,안흥동,36,37.93106706,127.0478141
문정중학교,중학교,경기도,용인시,수지구,풍덕천동 105,37.32272577,127.0990637
구례여자중학교,중학교,전라남도,구례군,구례읍,봉남리 106,35.20579133,127.4635937
신현여자중학교,중학교,인천광역시,서구,신현동,212-21,37.52085971,126.6642185
인천해송중학교,중학교,인천광역시,연수구,송도동,9-28,37.37990415,126.6484699
양평중학교,중학교,경기도,양평군,양평읍,공흥리 714-7,37.49857316,127.497091
삼성중학교,중학교,경기도,포천시,신북면,삼성당리 605,37.94840374,127.1901139
주곡중학교,중학교,경기도,남양주시,진접읍,금곡리 1003,37.72536786,127.2067255
대동중학교,중학교,경상북도,포항시,북구,우현동 201-6,36.05831145,129.3571484
구례산동중학교,중학교,전라남도,구례군,산동면,원촌리 341,35.31655809,127.4352614
경수중학교,중학교,경기도,안산시,상록구,성포동 594,37.32693645,126.8513333
서현중학교,중학교,경기도,성남시,분당구,서현동 96-1,37.3807546,127.1335296
예당중학교,중학교,전라남도,보성군,득량면,예당리 458-49,34.78042651,127.1968443
경상여자중학교,중학교,대구광역시,서구,비산동,228,35.8706847,128.5738084
영서중학교,중학교,서울특별시,구로구,구로동,145-20,37.48911393,126.8956154
고성중학교,중학교,강원특별자치도,고성군,간성읍,상리 391 번지,38.3782834,128.4610029
고령중학교,중학교,경상북도,고령군,대가야읍,쾌빈리 106-5,35.74083826,128.2720686
전주호성중학교,중학교,전북특별자치도,전주시,덕진구,호성동1가 204-5,35.86432944,127.1571788
포항여자중학교,중학교,경상북도,포항시,북구,우현동 56,36.05313299,129.3622002
남평중학교다도분교장,중학교,전라남도,나주시,다도면,신동리 309-2,34.94795093,126.8282738
천마중학교,중학교,경기도,남양주시,화도읍,묵현리 400-4,37.65616529,127.2767586
다선중학교,중학교,부산광역시,사하구,다대동,1549-3,35.05271729,128.9637818
지산중학교,중학교,광주광역시,북구,본촌동,2865,35.217047,126.8814576
구례북중학교,중학교,전라남도,구례군,용방면,신지리 802,35.258317,127.4393457
풍양중학교,중학교,경상북도,예천군,풍양면,낙상리 253,36.50878288,128.2974077
운봉중학교,중학교,전북특별자치도,남원시,운봉읍,동천리 27,35.43740094,127.535683
통영중학교,중학교,경상남도,통영시,봉평동,196,34.82796442,128.4159456
광양여자중학교,중학교,전라남도,광양시,광양읍,칠성리 777,34.97663704,127.5796073
청통중학교,중학교,경상북도,영천시,청통면,원촌리 220,35.991182,128.8246667
수내중학교,중학교,경기도,성남시,분당구,수내동 78,37.37098934,127.1261902
팔봉중학교,중학교,충청남도,서산시,팔봉면,진장리 913,36.78278752,126.3617395
충주미덕중학교,중학교,충청북도,충주시,호암동,33,36.94672186,127.937922
전주용흥중학교,중학교,전북특별자치도,전주시,완산구,삼천동1가 305-35,35.79141082,127.1137801
자유중학교,중학교,전북특별자치도,고창군,고창읍,석교리 9-4,35.4413272,126.6964428
수일중학교,중학교,경기도,수원시,장안구,파장동 414-1,37.31021301,127.0024664
장산중학교,중학교,전라남도,신안군,장산면,도창리 780,34.64221032,126.1407137
해평중학교,중학교,경상북도,구미시,해평면,월호리 488,36.19960113,128.3922014
영안중학교,중학교,경상북도,영천시,북안면,임포리 311,35.91800235,129.0076986
불국중학교,중학교,경상북도,경주시,시래동,206,35.77393121,129.3091271
갈산중학교,중학교,인천광역시,부평구,갈산동,372,37.5102242,126.7265421
한밭중학교,중학교,대전광역시,동구,삼성동,282-1,36.33490751,127.4266301
불로중학교,중학교,인천광역시,서구,불로동,306-22,37.615593,126.6952144
산북중학교,중학교,경상북도,문경시,산북면,대상리 97-3,36.65452817,128.2594665
삼광중학교,중학교,전라남도,보성군,벌교읍,장좌리 511,34.8333152,127.3422901
동신중학교,중학교,부산광역시,동래구,명장동,184,35.20596274,129.097672
봉래중학교,중학교,전라남도,고흥군,봉래면,신금리 1113-1,34.46214756,127.4626657
남도여자중학교,중학교,부산광역시,영도구,신선동2가,102,35.08706768,129.0455444
고령중학교개진분교장,중학교,경상북도,고령군,개진면,오사리 42,35.71676088,128.3697462
인천가좌여자중학교,중학교,인천광역시,서구,석남동,115,37.50858787,126.679282
보광중학교,중학교,경상남도,양산시,하북면,순지리 125-5,35.4918218,129.0873838
동아중학교,중학교,부산광역시,수영구,광안동,1222-23,35.15678092,129.106984
남서울중학교,중학교,서울특별시,관악구,신림동,1690-3,37.48213625,126.9210371
거제장평중학교,중학교,경상남도,거제시,장평동,148,34.88608569,128.6064665
연무여자중학교,중학교,충청남도,논산시,연무읍,동산리 879,36.13536466,127.1046328
가수원중학교,중학교,대전광역시,서구,가수원동,806-18,36.29847211,127.354558
동원중학교,중학교,대구광역시,수성구,만촌동,254,35.87585642,128.6510708
고헌중학교,중학교,울산광역시,북구,화봉동,1485-1,35.59777915,129.364027
능인중학교,중학교,대구광역시,수성구,지산동,800,35.83210847,128.632547
원평중학교,중학교,충청북도,청주시,서원구,분평동 1362,36.6080651,127.4938827
반곡중학교,중학교,세종특별자치시,반곡동,816,,36.50043435,127.311751
연산중학교,중학교,부산광역시,연제구,연산동,955-11,35.1848634,129.0890237
일산중학교,중학교,울산광역시,동구,일산동,437-3,35.50582768,129.4227382
역삼중학교,중학교,서울특별시,강남구,역삼동,767-20,37.49593388,127.048844
김화중학교,중학교,강원특별자치도,철원군,서면,와수리 589-5 번지,38.24340756,127.434946
소래중학교,중학교,경기도,시흥시,은행동,107-1,37.43735861,126.7967625
경남여자중학교,중학교,부산광역시,동구,수정동,364,35.12387731,129.042595
광주송원중학교,중학교,광주광역시,남구,송하동,365-34,35.10818451,126.8732664
영광염산중학교,중학교,전라남도,영광군,염산면,봉남리 126,35.22060937,126.3739034
인천논현중학교,중학교,인천광역시,남동구,논현동,600-3,37.40859026,126.7328625
현서중학교,중학교,경상북도,청송군,현서면,덕계리 533,36.28145041,128.8986233
장기중학교,중학교,경상북도,포항시,남구,장기면 임중리 331-2,35.89221542,129.4927966
창녕중학교,중학교,경상남도,창녕군,창녕읍,말흘리 293,35.53522784,128.5039535
구미신평중학교,중학교,경상북도,구미시,신평동,5-4,36.12688507,128.3634079
경남중학교,중학교,부산광역시,서구,토성동3가,12,35.10111163,129.0207821
담양수북중학교,중학교,전라남도,담양군,수북면,수북리 198,35.29989626,126.9323436
금릉중학교,중학교,경기도,파주시,금촌동,996,37.75152649,126.772946
평택중학교,중학교,경기도,평택시,용이동,658,36.99529134,127.1258992
교문중학교,중학교,경기도,구리시,교문동,808-2,37.58859086,127.133889
군산산북중학교,중학교,전북특별자치도,군산시,산북동,3581,35.96505252,126.6830736
충주예성여자중학교,중학교,충청북도,충주시,호암동,532-2,36.95612607,127.9286031
능곡중학교,중학교,경기도,고양시,덕양구,토당동 394,37.62292202,126.8266419
두촌중학교,중학교,강원특별자치도,홍천군,두촌면,자은리 568 번지,37.87177845,128.0263307
봉선중학교,중학교,광주광역시,남구,봉선동,258-16,35.12901152,126.9121466
금구중학교,중학교,광주광역시,광산구,운남동,794-1,35.17553403,126.8154974
논곡중학교,중학교,경기도,시흥시,논곡동,160-45,37.388873,126.8571918
성광중학교,중학교,대구광역시,북구,검단동,986-1,35.9075717,128.6242288
운림중학교,중학교,광주광역시,동구,운림동,650,35.13323178,126.9418973
화진중학교,중학교,울산광역시,동구,화정동,828,35.49681312,129.4220643
남외중학교,중학교,울산광역시,중구,남외동,502-1,35.566448,129.3491332
춘양중학교,중학교,경상북도,봉화군,춘양면,서동리 83-1,36.94786297,128.914111
덕원중학교,중학교,부산광역시,중구,동광동5가,15-12,35.10885429,129.0324467
기성중학교,중학교,경상북도,울진군,기성면,기성리 288,36.79972762,129.457642
부산영선중학교,중학교,부산광역시,영도구,신선동3가,8,35.08626719,129.044679
사하중학교,중학교,부산광역시,사하구,괴정동,1091-1,35.10124786,128.9826725
세종중학교,중학교,세종특별자치시,조치원읍,교리,1-1,36.60705472,127.2977981
백양중학교,중학교,경기도,고양시,덕양구,화정동 992,37.63133167,126.835944
화촌중학교,중학교,강원특별자치도,홍천군,화촌면,내삼포리 349 번지,37.75547209,127.9632163
서남중학교,중학교,대구광역시,서구,중리동,713,35.85695496,128.5425852
서해중학교,중학교,경기도,시흥시,정왕동,1866-4,37.35717907,126.7260914
울산강남중학교,중학교,울산광역시,남구,삼산동,1535-1,35.54588733,129.3415029
소가야중학교,중학교,경상남도,고성군,삼산면,삼봉리 산76-2,34.954602,128.2499254
도송중학교,중학교,경상북도,구미시,도량동,산50-14,36.147709,128.3204364
청학중학교,중학교,인천광역시,연수구,청학동,464,37.41850497,126.6704884
문화중학교,중학교,경상북도,경주시,충효동,717,35.85337311,129.1690639
가창중학교,중학교,대구광역시,달성군,가창면,냉천리 772-2,35.77402651,128.6440241
학성여자중학교,중학교,울산광역시,중구,태화동,747-1,35.5546567,129.2906648
경명여자중학교,중학교,대구광역시,북구,칠성동2가,411,35.88072706,128.5984327
신일중학교,중학교,경기도,고양시,일산서구,일산동 1096,37.676614,126.7741412
팔달중학교,중학교,대구광역시,북구,팔달동,74-3,35.89894723,128.5449124
광주효광중학교,중학교,광주광역시,서구,쌍촌동,1212,35.14712562,126.8634316
정발중학교,중학교,경기도,고양시,일산동구,마두동 811,37.6594744,126.7807456
대송중학교,중학교,경기도,고양시,일산서구,대화동 1492-1,37.67086006,126.7308676
영해중학교,중학교,경상북도,영덕군,영해면,괴시리 115,36.54233749,129.4132252
물야중학교,중학교,경상북도,봉화군,물야면,오록리 465,36.97811734,128.7387726
진장중학교,중학교,울산광역시,북구,진장동,687-5,35.563625,129.3583245
후포중학교,중학교,경상북도,울진군,후포면,후포리 1015,36.68031187,129.4459375
고양송산중학교,중학교,경기도,고양시,일산서구,가좌동 1100,37.68786495,126.722004
저동중학교,중학교,경기도,고양시,일산동구,정발산동 1192,37.67073855,126.7779123
구영중학교,중학교,울산광역시,울주군,범서읍,구영리 753-2,35.57265964,129.2364891
성포중학교,중학교,경기도,안산시,상록구,월피동 459,37.33552772,126.8512845
회천중학교,중학교,경기도,양주시,고암동,122-2,37.83264346,127.0709384
광탄중학교,중학교,경기도,파주시,광탄면,신산리 232,37.78194408,126.8473214
고양제일중학교,중학교,경기도,고양시,덕양구,관산동 332,37.69052753,126.8592787
한빛중학교,중학교,경기도,파주시,야당동,992,37.71464292,126.7548813
덕현중학교,중학교,경기도,양주시,고읍동,79-33,37.80025944,127.0800863
대화중학교,중학교,경기도,고양시,일산서구,대화동 2230,37.673814,126.7444769
한별중학교,중학교,경기도,남양주시,별내동,1055,37.64880857,127.1188629
가락중학교,중학교,서울특별시,송파구,송파동,168,37.50248553,127.1187527
산척중학교,중학교,충청북도,충주시,산척면,영덕리 718-2,37.07972783,127.9579296
청담중학교,중학교,경기도,평택시,팽성읍,송화리 821,36.96248605,127.0631038
월곡중학교,중학교,서울특별시,성북구,상월곡동,35-1,37.60698163,127.0482588
팔룡중학교,중학교,경상남도,창원시,의창구,팔용동 74,35.25184668,128.6178746
심석중학교,중학교,경기도,남양주시,화도읍,마석우리 215-1,37.65603445,127.3068854
순천팔마중학교,중학교,전라남도,순천시,해룡면,상삼리 385,34.94868585,127.5346139
탑리여자중학교,중학교,경상북도,의성군,금성면,탑리리 1381-2,36.25576021,128.6836772
대도중학교,중학교,경상북도,포항시,북구,환호동 493,36.07284812,129.396596
언동중학교,중학교,경기도,용인시,기흥구,언남동 132-5,37.29442085,127.1302984
고흥과역중학교,중학교,전라남도,고흥군,과역면,과역리 535,34.6756715,127.3579036
신갈중학교,중학교,경기도,용인시,기흥구,신갈동 113,37.28067138,127.1086862
백령중학교,중학교,인천광역시,옹진군,백령면,북포리 246,37.96444697,124.676056
청안중학교,중학교,충청북도,괴산군,청안면,읍내리 231,36.77314442,127.641906
순천동산여자중학교,중학교,전라남도,순천시,조례동,1175,34.95537245,127.515792
광문중학교,중학교,경기도,광명시,광명동,735-1,37.46687915,126.8528284
서천여자중학교,중학교,충청남도,서천군,서천읍,군사리 356-17,36.08139458,126.6938200273
천일중학교,중학교,서울특별시,강동구,천호동,313-5,37.54590987,127.1276362
사곡중학교,중학교,충청남도,공주시,사곡면,고당리 270,36.52618632,127.0310797
회룡중학교,중학교,경기도,의정부시,호원동,274-25,37.71538258,127.0438499
인천신정중학교,중학교,인천광역시,연수구,송도동,15-3,37.4036411,126.6461098
성덕중학교,중학교,대전광역시,유성구,신성동,380-4,36.38693177,127.3445355
성남서중학교,중학교,경기도,성남시,수정구,단대동 189,37.44911542,127.1541109
효명중학교,중학교,경기도,평택시,장당동,470,37.0501393,127.0550807
진도지산중학교,중학교,전라남도,진도군,지산면,인지리 194-7,34.41824058,126.1711116
헌산중학교,중학교,경기도,용인시,처인구,원삼면 사암리 883,37.17384579,127.2958775
성수중학교,중학교,서울특별시,성동구,성수동1가,685-143,37.54734181,127.0382534
구산중학교,중학교,인천광역시,부평구,부개동,497-4,37.5046493,126.741843
용유중학교,중학교,인천광역시,중구,남북동,584-2,37.44825105,126.4123732
봉양중학교,중학교,충청북도,제천시,봉양읍,장평리 864-1,37.12893752,128.1252033
옥산중학교,중학교,충청북도,청주시,흥덕구,옥산면 오산리 77-3,36.67078414,127.3697643
논산중학교,중학교,충청남도,논산시,부창동,50,36.19832511,127.0859957
고흥남양중학교,중학교,전라남도,고흥군,남양면,대곡리 45-1,34.736396,127.3564905
의성여자중학교,중학교,경상북도,의성군,의성읍,상리리 670,36.35313649,128.7026019
해미중학교,중학교,충청남도,서산시,해미면,읍내리 450-1,36.71512952,126.5445746
서울대학교사범대학부설여자중학교,중학교,서울특별시,종로구,동숭동,199-51,37.5775997,127.0042955
서산중학교,중학교,충청남도,서산시,석남동,57-1,36.76904553,126.4586303
전라중학교,중학교,전북특별자치도,전주시,덕진구,송천동2가 1297,35.87992086,127.131387
창원상남중학교,중학교,경상남도,창원시,성산구,가음정동 689,35.21471852,128.6843651
중리중학교,중학교,대구광역시,서구,중리동,105-1,35.86471469,128.5514912
신능중학교,중학교,경기도,고양시,덕양구,행신동 980,37.619567,126.8354977
갈매중학교,중학교,경기도,구리시,갈매동,382-5,37.6307988,127.1199091
사직중학교,중학교,부산광역시,동래구,사직동,598-1,35.199472,129.0514137
진영중학교,중학교,경상남도,김해시,진영읍,진영리 1611-6,35.30905482,128.7344574
포산중학교,중학교,대구광역시,달성군,유가읍,봉리 598,35.69614113,128.460035
동항중학교,중학교,부산광역시,남구,감만동,176-82,35.11907295,129.0854314
대병중학교,중학교,경상남도,합천군,대병면,회양리 904,35.51841197,128.0116543
나성중학교,중학교,세종특별자치시,나성동,325-2,,36.490922,127.2637532
창원동중학교,중학교,경상남도,창원시,의창구,동읍 신방리 868,35.29100882,128.6749409
성산중학교,중학교,대구광역시,달서구,용산동,416-4,35.85674219,128.518682
은척중학교,중학교,경상북도,상주시,은척면,우기리 500,36.53817356,128.0626337
공주대학교사범대학부설중학교,중학교,충청남도,공주시,반죽동,322-1,36.45276665,127.1197907
영광홍농중학교,중학교,전라남도,영광군,홍농읍,상하리 345,35.40177292,126.4471607
양북중학교,중학교,경상북도,경주시,양북면,어일리 701,35.78544291,129.4435608
완도신지중학교,중학교,전라남도,완도군,신지면,대곡리 781-1,34.33712382,126.8285091
상원중학교,중학교,대구광역시,달서구,상인동,1518,35.816817,128.5441713
장성백암중학교,중학교,전라남도,장성군,북이면,사거리 75-1,35.43153799,126.8160403
충남중학교,중학교,대전광역시,동구,신흥동,168,36.32568497,127.443513
월계중학교,중학교,서울특별시,노원구,월계동,602-1,37.63113114,127.0523203
세류중학교,중학교,경기도,수원시,권선구,세류동 207,37.2576272,127.0070015
용북중학교,중학교,전북특별자치도,남원시,사매면,오신리 387-2,35.49121972,127.3656473
조원중학교,중학교,경기도,수원시,장안구,조원동 40,37.30761201,127.0167427
대전전민중학교,중학교,대전광역시,유성구,전민동,466-1,36.4015563,127.4054691
김천중학교,중학교,경상북도,김천시,부곡동,777-1,36.12343109,128.0939955
녹양중학교,중학교,경기도,의정부시,녹양동,191-5,37.7618639,127.0280838
아화중학교,중학교,경상북도,경주시,서면,아화리 123,35.90011301,129.047299
대전대화중학교,중학교,대전광역시,대덕구,오정동,16,36.36177829,127.4144323
함현중학교,중학교,경기도,시흥시,정왕동,1877-4,37.36379852,126.7369618
현일중학교,중학교,경상북도,구미시,고아읍,항곡리 468-1,36.18720149,128.349288
아주중학교,중학교,서울특별시,송파구,잠실동,115,37.50523028,127.0765497
주문진중학교,중학교,강원특별자치도,강릉시,주문진읍,교항리 48-119,37.88028383,128.8278508
고창중학교,중학교,전북특별자치도,고창군,고창읍,덕산리 248,35.42860953,126.6937513
양성중학교,중학교,경기도,안성시,양성면,동항리 415,37.06314661,127.1958085
신봉중학교,중학교,경기도,용인시,수지구,신봉동 981,37.32765873,127.064307
여수문수중학교,중학교,전라남도,여수시,문수동,171,34.75395513,127.6999662
양남중학교,중학교,경상북도,경주시,양남면,하서리 651,35.67412465,129.4607583
청주동중학교,중학교,충청북도,청주시,상당구,금천동 47-5,36.62848198,127.506259
서종중학교,중학교,경기도,양평군,서종면,문호리 687-2,37.61360872,127.3507988
봉곡중학교,중학교,경상북도,구미시,봉곡동,51,36.15883003,128.3045998
만수북중학교,중학교,인천광역시,남동구,만수동,10,37.46188844,126.739112
삼일중학교,중학교,경기도,수원시,팔달구,매향동 10-22,37.28439868,127.0185096
제주대학교사범대학부설중학교,중학교,제주특별자치도,제주시,용담삼동,581,33.51592494,126.5085016
서신중학교,중학교,경기도,화성시,서신면,상안리 872,37.1695636,126.7005959
성일중학교,중학교,경기도,성남시,중원구,성남동 2876,37.43487853,127.1448205
전남대학교사범대학부설중학교,중학교,광주광역시,북구,용봉동,300,35.1729465,126.9011018
명인중학교,중학교,경상북도,성주군,선남면,도성리 1111-1,35.88583823,128.3642206
추풍령중학교,중학교,충청북도,영동군,추풍령면,추풍령리 63-1,36.21774616,128.0027118
현동중학교,중학교,경상북도,청송군,현동면,도평리 733-7,36.2893639,129.0212193
초월중학교,중학교,경기도,광주시,초월읍,쌍동리 149-1,37.367127,127.3031765
고창남중학교,중학교,전북특별자치도,고창군,성송면,향산리 79-1,35.37394733,126.6483359
곡반중학교,중학교,경기도,수원시,권선구,곡반정동 519,37.2443514,127.033082
일죽중학교,중학교,경기도,안성시,일죽면,송천리 243-1,37.09147028,127.4733715
소수중학교,중학교,경상북도,영주시,순흥면,읍내리 370-1,36.91253449,128.5775449
망포중학교,중학교,경기도,수원시,영통구,망포동 556-6,37.238235,127.0559614
쌍림중학교,중학교,경상북도,고령군,쌍림면,귀원리 25,35.68462812,128.2431018
내정중학교,중학교,경기도,성남시,분당구,수내동 64,37.37073068,127.1194777
삼계중학교,중학교,경상남도,창원시,마산회원구,내서읍 삼계리 16,35.233406,128.4981696
동국대학교사범대학부속홍제중학교,중학교,경상남도,밀양시,단장면,단장리 808,35.50937919,128.8521978
음성여자중학교,중학교,충청북도,음성군,음성읍,평곡리 830-3,36.92773554,127.6992079
마산중학교,중학교,경상남도,창원시,마산합포구,자산동 274,35.203191,128.5620358
마산무학여자중학교,중학교,경상남도,창원시,마산회원구,회원동 145-1,35.22305717,128.5748764
매전중학교,중학교,경상북도,청도군,매전면,동산리 445-4,35.66806716,128.8527037
구례동중학교,중학교,전라남도,구례군,토지면,파도리 25,35.19251032,127.5459373
왕신여자중학교,중학교,전북특별자치도,정읍시,신태인읍,신태인리 86-2,35.68287964,126.8894006
보라중학교,중학교,경기도,용인시,기흥구,보라동 614,37.24950722,127.1082152
암태중학교,중학교,전라남도,신안군,암태면,단고리 104,34.8298859,126.112715
신암중학교,중학교,충청남도,예산군,신암면,오산리 1-4,36.74013029,126.812764
수원중학교,중학교,경기도,수원시,팔달구,매교동 251,37.26713365,127.0174147
임학중학교,중학교,인천광역시,계양구,병방동,432-2,37.546022,126.7402436
녹전중학교,중학교,강원특별자치도,영월군,산솔면,녹전리 802-1 번지,37.14409576,128.6774889
이리영등중학교,중학교,전북특별자치도,익산시,어양동,622-1,35.96463999,126.9814661
무선중학교,중학교,전라남도,여수시,화장동,848,34.77716348,127.6411765
충렬여자중학교,중학교,경상남도,통영시,용남면,장평리 203-1,34.88688775,128.4650492
홍익대학교사범대학부속중학교,중학교,서울특별시,성북구,성북동,151,37.59366662,127.002805
용암중학교,중학교,경상북도,성주군,용암면,본리리 724,35.84136913,128.314491
탄금중학교,중학교,충청북도,충주시,칠금동,822,36.98457662,127.9195118
경민여자중학교,중학교,경기도,의정부시,가능동,산35-8,37.74612458,127.0251316
영암금정중학교,중학교,전라남도,영암군,금정면,용흥리 1052,34.86128538,126.7534747
금호여자중학교,중학교,경상북도,영천시,금호읍,대미리 930-23,35.93987039,128.878266
광양다압중학교,중학교,전라남도,광양시,다압면,도사리 854-5,35.08400382,127.7072485
시화나래중학교,중학교,경기도,시흥시,정왕동,,37.32465657,126.6785656
마산여자중학교,중학교,경상남도,창원시,마산회원구,회원동 639-1,35.22131965,128.5610829
대덕중학교,중학교,대전광역시,유성구,가정동,38,36.37946132,127.3775175
선인중학교,중학교,인천광역시,미추홀구,도화동,193-6,37.47099649,126.6548626
장성황룡중학교,중학교,전라남도,장성군,황룡면,장산리 402,35.29756778,126.759054
영광옥광중학교,중학교,전라남도,영광군,영광읍,무령리 317-1,35.27881594,126.516119
계성중학교,중학교,대구광역시,중구,대신동,277-1,35.8679358,128.5802499
산남중학교,중학교,충청북도,청주시,서원구,산남동 672,36.61149337,127.4633929
대전가오중학교,중학교,대전광역시,동구,가오동,171-6,36.30867355,127.457144
대소중학교,중학교,충청북도,음성군,대소면,삼정리 613-7,36.9626896,127.4898499
청운중학교,중학교,충청북도,청주시,상당구,영운동 73-48,36.61888194,127.5053758
구포중학교,중학교,부산광역시,북구,구포동,1139,35.19495587,128.996499
대송중학교,중학교,경상북도,포항시,남구,대송면 남성리 83-5,35.97786663,129.3595369
다산중학교,중학교,경상북도,고령군,다산면,월성리 210,35.81511901,128.4287221
용문중학교,중학교,경상북도,예천군,용문면,상금곡리 638-1,36.69227695,128.4063279
신도중학교,중학교,부산광역시,해운대구,좌동,1345,35.17058579,129.1674405
강북중학교,중학교,서울특별시,강북구,수유동,694,37.6449159,127.0253734
동주중학교,중학교,부산광역시,사상구,주례동,543,35.14590297,129.003941
내토중학교,중학교,충청북도,제천시,장락동,687-1,37.14473386,128.2222801
용암중학교,중학교,충청북도,청주시,상당구,용암동 2081,36.61120432,127.5095846
영원중학교,중학교,서울특별시,영등포구,영등포동,576-6,37.51497419,126.9136469
외동중학교,중학교,경상북도,경주시,외동읍,입실리 443-1,35.71736873,129.3253571
거제여자중학교,중학교,부산광역시,연제구,거제동,1278-2,35.187762,129.0634379
용안중학교,중학교,전북특별자치도,익산시,용안면,교동리 397-2,36.11646976,126.9529583
장성여자중학교,중학교,전라남도,장성군,장성읍,영천리 891,35.29766188,126.7868137
광수중학교,중학교,경기도,광주시,퇴촌면,도수리 585,37.47365896,127.3198075
심천중학교,중학교,충청북도,영동군,심천면,초강리 378,36.22008398,127.7135686
관교중학교,중학교,인천광역시,미추홀구,관교동,482,37.44425703,126.6917774
신창중학교,중학교,제주특별자치도,제주시,한경면,신창리 422,33.34898229,126.1851933
영운중학교,중학교,경상남도,김해시,삼방동,712,35.25440052,128.9085499
덕천중학교,중학교,부산광역시,북구,덕천동,320-1,35.21423402,129.0118134
토월중학교,중학교,경상남도,창원시,의창구,신월동 92,35.22366263,128.688802
진성중학교,중학교,경상북도,청송군,진보면,이촌리 596,36.53311296,129.0340548
중앙대학교사범대학부속중학교,중학교,서울특별시,동작구,흑석동,86,37.50362942,126.9617326
내덕중학교,중학교,경상남도,김해시,내덕동,224-1,35.20681475,128.8173423
백현중학교,중학교,경기도,성남시,분당구,정자동 77,37.37132024,127.1106623
금오중학교,중학교,경기도,의정부시,금오동,341-1,37.7499704,127.0576207
신월중학교,중학교,서울특별시,양천구,신월동,17-6,37.54046194,126.828389
어진중학교,중학교,세종특별자치시,어진동,678,,36.49820157,127.2548143
합포중학교,중학교,경상남도,창원시,마산합포구,산호동 117-7,35.21578987,128.5853702
와부중학교,중학교,경기도,남양주시,와부읍,덕소리 75-4,37.58703422,127.219809
신라중학교,중학교,경상북도,경주시,황성동,1053-18,35.854658,129.2164259
분성중학교,중학교,경상남도,김해시,삼계동,1442-1,35.26631071,128.8730642
전주덕일중학교,중학교,전북특별자치도,전주시,덕진구,덕진동2가 640-9,35.84798826,127.1111668
진보중학교,중학교,경상북도,청송군,진보면,진안리 562-2,36.53283897,129.0414663
부석중학교,중학교,경상북도,영주시,부석면,소천리 501-1,36.97753241,128.6528943
서포중학교,중학교,경상북도,포항시,북구,죽장면 입암리 651,36.16391663,129.0932289
경희중학교,중학교,서울특별시,동대문구,이문동,1-3,37.59394914,127.054891
고양중학교,중학교,경기도,고양시,덕양구,삼송동 322,37.649609,126.8845811
부곡중학교,중학교,경상남도,창녕군,부곡면,부곡리 115,35.43758068,128.6076948
원일중학교,중학교,경기도,안산시,단원구,선부동 1062,37.33944264,126.8086767
우곡중학교,중학교,경상북도,고령군,우곡면,월오리 414,35.64486899,128.3560352
구암중학교,중학교,서울특별시,관악구,봉천동,1712-5,37.492775,126.948602
인천아라중학교,중학교,인천광역시,서구,당하동,산 41-1,37.585977,126.703796
마산의신여자중학교,중학교,경상남도,창원시,마산합포구,교방동 207,35.211608,128.566004
구갈중학교,중학교,경기도,용인시,기흥구,신갈동 163,37.28484009,127.1087237
연수중학교,중학교,인천광역시,연수구,연수동,579-2,37.41679495,126.6864287
용문중학교,중학교,부산광역시,남구,용호동,246-1,35.1251995,129.1069007
능주중학교,중학교,전라남도,화순군,능주면,잠정리 106,34.98516412,126.9590427
성의여자중학교,중학교,경상북도,김천시,평화동,406-6,36.11961289,128.1133186
서초중학교,중학교,서울특별시,서초구,서초동,1741-13,37.48553868,127.0085193
근흥중학교,중학교,충청남도,태안군,근흥면,용신리 409-6,36.71634464,126.228902
신수중학교,중학교,서울특별시,마포구,신수동,371-1,37.545923,126.934132
언주중학교,중학교,서울특별시,강남구,삼성동,28,37.51465316,127.0466832
서상중학교,중학교,경상남도,함양군,서상면,도천리 1047-6,35.67710456,127.6896788
일광중학교,중학교,부산광역시,기장군,일광면,삼성리 749,35.265227,129.220461
인천현송중학교,중학교,인천광역시,연수구,송도동,399-11,37.392963,126.6197175
한국교원대학교부설미호중학교,중학교,충청북도,청주시,흥덕구,강내면 월곡리 300-1,36.62209938,127.3669072
명덕여자중학교,중학교,울산광역시,동구,일산동,450,35.50434136,129.4242201
신원중학교,중학교,경기도,고양시,덕양구,신원동 605,37.667508,126.8877768
반송중학교,중학교,경기도,화성시,반송동,198,37.19024001,127.0710854
대덕중학교,중학교,전라남도,장흥군,대덕읍,연정리 197,34.49990283,126.8957904
한성여자중학교,중학교,서울특별시,성북구,삼선동2가,395-4,37.5830649,127.0117427
동산여자중학교,중학교,경상북도,영주시,하망동,595,36.81859532,128.645525
죽산중학교,중학교,경기도,안성시,죽산면,죽산리 318,37.08202849,127.4248873
금사중학교,중학교,부산광역시,금정구,서동,50,35.22098889,129.1067397
해인중학교,중학교,경상남도,합천군,가야면,황산리 180-1,35.75875748,128.1358164
국수중학교,중학교,경기도,양평군,양서면,국수리 330-12,37.51009186,127.4009331
비산중학교,중학교,경기도,안양시,동안구,비산동 121-1,37.40942621,126.948075
괴산오성중학교,중학교,충청북도,괴산군,감물면,오성리 123,36.84234624,127.8681398
김해대곡중학교,중학교,경상남도,김해시,어방동,651-3,35.24356439,128.898515
진도군내중학교,중학교,전라남도,진도군,군내면,둔전리 369,34.53905019,126.2954968
개령중학교,중학교,경상북도,김천시,개령면,동부리 442-8,36.1677997,128.1853626
성남문원중학교,중학교,경기도,성남시,수정구,단대동 10,37.46091703,127.157414
오류중학교,중학교,서울특별시,구로구,고척동,243,37.50786222,126.8462113
남정중학교,중학교,경상북도,영덕군,남정면,장사리 410-1,36.28382203,129.3702125
가은중학교,중학교,경상북도,문경시,가은읍,왕능리 218,36.64547535,128.0711654
미사강변중학교,중학교,경기도,하남시,선동,420,37.57788767,127.1856213
원묵중학교,중학교,서울특별시,중랑구,묵동,12,37.617772,127.0843728
청주중앙여자중학교,중학교,충청북도,청주시,청원구,사천동 229-5,36.66404363,127.4778871
성당중학교,중학교,전북특별자치도,익산시,성당면,갈산리 407-1,36.08732668,126.9295696
용궁중학교,중학교,경상북도,예천군,용궁면,읍부리 251-3,36.61022138,128.2751173
경인중학교,중학교,서울특별시,구로구,개봉동,143-4,37.49846566,126.8536725
덕성여자중학교,중학교,서울특별시,종로구,송현동,34,37.57778598,126.981924
현풍중학교,중학교,대구광역시,달성군,현풍읍,성하리 497,35.6985296,128.4382371
강하중학교,중학교,경기도,양평군,강하면,왕창리 44-1,37.48253125,127.4050751
한광중학교,중학교,경기도,평택시,비전동,504,36.99789035,127.0960037
오성중학교,중학교,경기도,평택시,오성면,숙성리 125,37.00918156,126.9806408
이수중학교,중학교,서울특별시,서초구,방배동,974-22,37.48063003,126.9898591
북원중학교,중학교,강원특별자치도,원주시,태장동,1359 번지,37.38687039,127.9533796
양운중학교,중학교,부산광역시,해운대구,좌동,1373,35.17543191,129.1666965
모가중학교,중학교,경기도,이천시,모가면,원두리 380-1,37.17611903,127.4733746
수청중학교,중학교,충청남도,당진시,수청동,692,36.890284,126.652043
율정중학교,중학교,경기도,양주시,옥정동,1029,37.89093459,127.0539742
화접중학교,중학교,경기도,남양주시,별내면,청학리 421,37.71101831,127.1127185
초계중학교,중학교,경상남도,합천군,초계면,아막리 99,35.5600663,128.2705019
대아중학교,중학교,경상남도,진주시,이현동,316,35.18992819,128.0583889
회화중학교,중학교,경상남도,고성군,회화면,배둔리 1112-1,35.05670183,128.3616137
진주여자중학교,중학교,경상남도,진주시,이현동,91,35.1843521,128.0659306
거창여자중학교,중학교,경상남도,거창군,거창읍,중앙리 443,35.69196393,127.9102311
외포중학교,중학교,경상남도,거제시,장목면,외포리 261-1,34.943997,128.717554
마산제일여자중학교,중학교,경상남도,창원시,마산합포구,문화동 4,35.18864312,128.5564145
위례중앙중학교,중학교,경기도,성남시,수정구,창곡동 503,37.47188409,127.1382118
호암중학교,중학교,경상남도,함안군,칠원읍,오곡리 101,35.27468508,128.5215882
거창덕유중학교,중학교,경상남도,거창군,위천면,남산리 1001,35.73637117,127.8481759
광려중학교,중학교,경상남도,창원시,마산회원구,내서읍 신감리 1375,35.21738289,128.5028629
밀양동강중학교,중학교,경상남도,밀양시,산내면,송백리 2081-21,35.58531532,128.8748167
거창중학교,중학교,경상남도,거창군,거창읍,대동리 104-1,35.690512,127.9206649
남성중학교,중학교,충청북도,청주시,서원구,분평동 219-15,36.60926984,127.4847039
퇴계중학교,중학교,강원특별자치도,춘천시,퇴계동,1238,37.8561017,127.731937
마장중학교,중학교,경기도,이천시,마장면,양촌리 54,37.24714795,127.3581602
울릉중학교,중학교,경상북도,울릉군,울릉읍,사동리 323,37.47868772,130.8865591
변산서중학교,중학교,전북특별자치도,부안군,변산면,운산리 산70-5,35.66265732,126.5207894
양곡중학교,중학교,경기도,김포시,양촌읍,양곡리 286-1,37.65963944,126.6251437
곤양중학교,중학교,경상남도,사천시,곤양면,송전리 134,35.0597888,127.9732554
익산지원중학교,중학교,전북특별자치도,익산시,마동,291-3,35.94000281,126.9607082
광양골약중학교,중학교,전라남도,광양시,성황동,342,34.94027734,127.6829377
선도중학교,중학교,충청남도,아산시,선장면,군덕리 73-1,36.78878323,126.8639353
꽃내중학교,중학교,경상남도,남해군,삼동면,동천리 1100,34.80993573,128.0362864
태백중학교,중학교,강원특별자치도,태백시,장성동,109-3 번지,37.10386327,129.0220119
광교호수중학교,중학교,경기도,수원시,영통구,원천동 596,37.27270031,127.0639887
덕산중학교,중학교,충청남도,예산군,삽교읍,목리 841,36.66586128,126.6819128
한빛누리중학교,중학교,경기도,동두천시,생연동,522-1,37.91198659,127.0610196
가조중학교,중학교,경상남도,거창군,가조면,마상리 321-1,35.71240135,128.015285
웅양중학교,중학교,경상남도,거창군,웅양면,노현리 488-1,35.80577544,127.9164554
도계중학교,중학교,강원특별자치도,삼척시,도계읍,도계리 287-3 번지,37.230987,129.0487332
섬진중학교,중학교,전북특별자치도,임실군,강진면,회진리 39-1,35.5269800037,127.1517752
일신여자중학교,중학교,충청북도,청주시,상당구,탑동 185-1,36.62692783,127.4968969
인천청호중학교,중학교,인천광역시,서구,청라동,140-2,37.53864489,126.6415165
조치원중학교,중학교,세종특별자치시,조치원읍,신흥리,238,36.59533156,127.2859004
